{
"type": "FeatureCollection",
"name": "r1_endpoints",
"crs": { "type": "name", "properties": { "name": "urn:ogc:def:crs:OGC:1.3:CRS84" } },
"features": [
{ "type": "Feature", "properties": { "trip": "R1 — El Junquito Ridge", "role": "start", "label": "Caracas (Catia)" }, "geometry": { "type": "Point", "coordinates": [ -66.935, 10.509 ] } },
{ "type": "Feature", "properties": { "trip": "R1 — El Junquito Ridge", "role": "end", "label": "near site 86" }, "geometry": { "type": "Point", "coordinates": [ -67.023485629086707, 10.493808463636942 ] } }
]
}
