{
"type": "FeatureCollection",
"name": "r1_line",
"crs": { "type": "name", "properties": { "name": "urn:ogc:def:crs:OGC:1.3:CRS84" } },
"features": [
{ "type": "Feature", "properties": { "trip": "R1 — El Junquito Ridge", "start": "Caracas (Catia)", "end": "near site 86", "km": 20.7 }, "geometry": { "type": "MultiLineString", "coordinates": [ [ [ -66.9761184, 10.4952383 ], [ -66.9763063, 10.4952131 ], [ -66.9765388, 10.4952051 ], [ -66.9779281, 10.4951576 ], [ -66.97836, 10.4951576 ], [ -66.9785913, 10.495196 ], [ -66.9800887, 10.4954444 ], [ -66.9803032, 10.495455 ], [ -66.9805419, 10.4954207 ], [ -66.9807351, 10.4953152 ], [ -66.9808987, 10.4951596 ], [ -66.9812626, 10.4946353 ], [ -66.9816712, 10.4940466 ], [ -66.9818777, 10.493738 ], [ -66.9820118, 10.4934189 ], [ -66.9820656, 10.4931934 ], [ -66.9821942, 10.4926541 ], [ -66.982244, 10.492557 ], [ -66.9823417, 10.4923666 ], [ -66.9825053, 10.4921794 ], [ -66.9827977, 10.4920211 ], [ -66.9836667, 10.4916915 ], [ -66.9839001, 10.4915253 ], [ -66.9840369, 10.4913222 ], [ -66.9840744, 10.4910295 ], [ -66.9839886, 10.4900035 ], [ -66.9839966, 10.4897319 ], [ -66.9840717, 10.4895209 ], [ -66.9842541, 10.4893416 ], [ -66.9845197, 10.4891912 ], [ -66.9855765, 10.4886954 ], [ -66.9859921, 10.4884548 ], [ -66.9861236, 10.4883255 ], [ -66.9861896, 10.4882606 ], [ -66.9863011, 10.4880412 ], [ -66.9865294, 10.4867887 ], [ -66.9865672, 10.4865812 ], [ -66.9865984, 10.4852114 ], [ -66.9867432, 10.4847815 ], [ -66.9867727, 10.4847406 ], [ -66.9868083, 10.484678 ], [ -66.9869558, 10.4845013 ], [ -66.9871576, 10.4843417 ], [ -66.9874111, 10.4842092 ], [ -66.9880778, 10.4840239 ], [ -66.9883611, 10.483948 ], [ -66.9886255, 10.483867 ], [ -66.988834, 10.4837634 ], [ -66.9890338, 10.4835492 ], [ -66.9892544, 10.4832439 ], [ -66.989756, 10.4825173 ], [ -66.9899424, 10.4823452 ], [ -66.990224, 10.482297 ], [ -66.9903515, 10.4823023 ], [ -66.9904802, 10.4823287 ], [ -66.9907043, 10.4823866 ], [ -66.9909255, 10.4824393 ], [ -66.9909875, 10.4824541 ], [ -66.9911159, 10.4824541 ], [ -66.9912364, 10.4824541 ], [ -66.9914939, 10.4824119 ], [ -66.9916745, 10.4823172 ], [ -66.9917514, 10.4822769 ], [ -66.9919917, 10.4820743 ], [ -66.9921891, 10.4817874 ], [ -66.9923063, 10.4815479 ], [ -66.9926349, 10.4809601 ], [ -66.9926763, 10.480886 ], [ -66.9928157, 10.480733 ], [ -66.9929995, 10.4805814 ], [ -66.9931953, 10.4805128 ], [ -66.9942078, 10.4803756 ], [ -66.9944379, 10.4804201 ], [ -66.9946181, 10.4805467 ], [ -66.9949357, 10.4808927 ], [ -66.9950974, 10.4810241 ], [ -66.9951331, 10.4810531 ], [ -66.9952207, 10.4810914 ], [ -66.9953649, 10.4811544 ], [ -66.9956224, 10.4812303 ], [ -66.9959754, 10.4812684 ], [ -66.9964327, 10.4812421 ], [ -66.9972467, 10.4810442 ], [ -66.9974157, 10.4810086 ], [ -66.9977202, 10.48101 ], [ -66.9988158, 10.4811484 ], [ -66.9991572, 10.4811331 ], [ -66.9993097, 10.481111 ], [ -66.9994535, 10.4810759 ], [ -66.9997224, 10.4809579 ], [ -66.9999424, 10.4808372 ], [ -67.0001985, 10.4807244 ], [ -67.0003595, 10.480702 ], [ -67.0005097, 10.480706 ], [ -67.0010635, 10.4808115 ], [ -67.0014136, 10.4808708 ], [ -67.0016657, 10.4808669 ], [ -67.0017717, 10.4808233 ], [ -67.0018776, 10.4807534 ], [ -67.001958, 10.4806743 ], [ -67.0020063, 10.4805635 ], [ -67.0020787, 10.4801627 ], [ -67.0021834, 10.4797908 ], [ -67.0022934, 10.479585 ], [ -67.0024194, 10.4793793 ], [ -67.002526, 10.4792405 ], [ -67.0026501, 10.4790839 ], [ -67.0028754, 10.4788413 ], [ -67.0030107, 10.4787281 ], [ -67.0034306, 10.4783771 ], [ -67.0036076, 10.4781925 ], [ -67.003672, 10.4780777 ], [ -67.0037042, 10.477963 ], [ -67.0037603, 10.4776353 ], [ -67.0037846, 10.4774935 ], [ -67.0038517, 10.4772641 ], [ -67.0039831, 10.4771085 ], [ -67.0040252, 10.4770814 ], [ -67.0042379, 10.4769449 ], [ -67.004323, 10.476903 ], [ -67.0046346, 10.4767741 ], [ -67.0049178, 10.4767234 ], [ -67.0049558, 10.4767279 ], [ -67.0052011, 10.4767572 ], [ -67.0054119, 10.4768263 ], [ -67.0054328, 10.4768331 ], [ -67.006306, 10.4772601 ], [ -67.0070378, 10.477618 ], [ -67.0073463, 10.4777694 ], [ -67.0075609, 10.4778032 ], [ -67.0077658, 10.4777953 ], [ -67.0081708, 10.4776518 ], [ -67.008454, 10.4776012 ], [ -67.0087029, 10.4776096 ], [ -67.0092033, 10.4777271 ], [ -67.0093209, 10.4777531 ], [ -67.0097067, 10.4778501 ], [ -67.0099899, 10.477867 ], [ -67.0103295, 10.4777979 ], [ -67.0106176, 10.4776689 ], [ -67.0108107, 10.4775225 ], [ -67.0109274, 10.4774223 ], [ -67.0111442, 10.4775686 ], [ -67.0111679, 10.47762 ], [ -67.0113058, 10.4775917 ], [ -67.01144, 10.4776197 ], [ -67.0115606, 10.477656 ], [ -67.0116392, 10.4776796 ], [ -67.011875, 10.4777276 ], [ -67.012001, 10.4777636 ], [ -67.0120904, 10.4777996 ], [ -67.0121474, 10.4778875 ], [ -67.0122409, 10.4780514 ], [ -67.0123669, 10.4782033 ], [ -67.0124929, 10.4783712 ], [ -67.0125444, 10.4785005 ], [ -67.0125972, 10.4785239 ], [ -67.0126459, 10.4784939 ], [ -67.0126932, 10.4784336 ], [ -67.0129645, 10.4780274 ], [ -67.0130377, 10.4779955 ], [ -67.0131231, 10.4780155 ], [ -67.0133426, 10.4781154 ], [ -67.0135621, 10.4781834 ], [ -67.013638, 10.4781699 ], [ -67.0137077, 10.4781361 ], [ -67.0137891, 10.4780627 ], [ -67.0138228, 10.4780061 ], [ -67.013838, 10.477914 ], [ -67.0138635, 10.4777888 ], [ -67.0139019, 10.477676 ], [ -67.0139341, 10.4776235 ], [ -67.0140787, 10.4774962 ], [ -67.0143318, 10.4773494 ], [ -67.014509, 10.4772898 ], [ -67.0147193, 10.4772498 ], [ -67.0153957, 10.4772907 ], [ -67.0160258, 10.4773306 ], [ -67.016355, 10.477383 ], [ -67.016695, 10.4774636 ], [ -67.017162, 10.4776427 ], [ -67.0172928, 10.4776703 ], [ -67.0175076, 10.4776886 ], [ -67.0179139, 10.4777024 ], [ -67.0181381, 10.4777575 ], [ -67.018325, 10.4778359 ], [ -67.0184239, 10.4777996 ], [ -67.0185563, 10.4777362 ], [ -67.0191827, 10.4779221 ], [ -67.020333, 10.4783101 ], [ -67.0205647, 10.4783692 ], [ -67.0208308, 10.4783776 ], [ -67.0212771, 10.4783439 ], [ -67.0214189, 10.4783453 ], [ -67.0214855, 10.4783494 ], [ -67.0216172, 10.4783496 ], [ -67.0222047, 10.4784226 ], [ -67.0224179, 10.4784147 ], [ -67.0225239, 10.4783844 ], [ -67.023004, 10.4782261 ], [ -67.023232, 10.478172 ], [ -67.0234197, 10.4781905 ], [ -67.0234761, 10.4781945 ], [ -67.0236632, 10.4782848 ], [ -67.0237462, 10.478388 ], [ -67.0238382, 10.4784767 ], [ -67.0240058, 10.4788459 ], [ -67.0241506, 10.4791426 ], [ -67.0242812, 10.4793314 ], [ -67.02447, 10.4795002 ], [ -67.0246463, 10.4796233 ], [ -67.0247268, 10.4796583 ], [ -67.0251229, 10.4797545 ], [ -67.0254274, 10.4797546 ], [ -67.0257403, 10.4797533 ], [ -67.0257854, 10.4797511 ], [ -67.0263216, 10.4800322 ], [ -67.0265003, 10.4800898 ], [ -67.0266359, 10.4800898 ], [ -67.0268392, 10.4800534 ], [ -67.0274, 10.4798353 ], [ -67.0275725, 10.4798201 ], [ -67.027782, 10.4798323 ], [ -67.0279946, 10.4798838 ], [ -67.0281086, 10.4799443 ], [ -67.0281918, 10.4800383 ], [ -67.0282565, 10.4802019 ], [ -67.028352, 10.4806533 ], [ -67.0284506, 10.4809835 ], [ -67.0284641, 10.4810188 ], [ -67.0285708, 10.4812986 ], [ -67.0286459, 10.4814389 ], [ -67.028845, 10.4818106 ], [ -67.0289035, 10.48195 ], [ -67.0289313, 10.4820469 ], [ -67.0289652, 10.4826347 ], [ -67.028996, 10.4827498 ], [ -67.0290391, 10.4828831 ], [ -67.0291593, 10.4831921 ], [ -67.0291993, 10.4833072 ], [ -67.0292117, 10.4834315 ], [ -67.0292064, 10.4834988 ], [ -67.0291993, 10.483589 ], [ -67.02915, 10.4838102 ], [ -67.0289313, 10.4843585 ], [ -67.0288635, 10.4845706 ], [ -67.0288512, 10.4847221 ], [ -67.0288697, 10.4848281 ], [ -67.0289344, 10.4850644 ], [ -67.0290464, 10.4855038 ], [ -67.0290464, 10.4857042 ], [ -67.029025, 10.4860946 ], [ -67.028966, 10.4863003 ], [ -67.0288954, 10.4864662 ], [ -67.0288694, 10.4865271 ], [ -67.02851, 10.487139 ], [ -67.0284258, 10.4872522 ], [ -67.0279843, 10.4878458 ], [ -67.0278265, 10.4880455 ], [ -67.0275176, 10.4884366 ], [ -67.0267719, 10.4892647 ], [ -67.0266968, 10.4892911 ], [ -67.0266271, 10.4892858 ], [ -67.0263926, 10.4896661 ], [ -67.0262759, 10.4897809 ], [ -67.0261171, 10.4900886 ], [ -67.0259593, 10.4903334 ], [ -67.025907, 10.4904146 ], [ -67.0257669, 10.4905432 ], [ -67.0257122, 10.4906001 ], [ -67.0256875, 10.4906259 ], [ -67.025524, 10.490688 ], [ -67.025482, 10.4907039 ], [ -67.0252625, 10.4908554 ], [ -67.025099, 10.4910621 ], [ -67.0250273, 10.4911695 ], [ -67.025095, 10.4912812 ], [ -67.025095, 10.4913612 ], [ -67.0247977, 10.491918 ], [ -67.024734, 10.4919807 ], [ -67.0243978, 10.4921825 ], [ -67.0241041, 10.4918624 ], [ -67.0237537, 10.4921582 ], [ -67.0236475, 10.4922486 ], [ -67.0235788, 10.4922709 ], [ -67.0236333, 10.4923844 ], [ -67.0237112, 10.4925096 ], [ -67.0238032, 10.4925653 ], [ -67.0239625, 10.4925653 ], [ -67.0241147, 10.4925444 ], [ -67.0242881, 10.4925549 ], [ -67.0246689, 10.4927544 ], [ -67.0246975, 10.4931118 ], [ -67.0246328, 10.4936934 ] ], [ [ -66.9589448, 10.4971679 ], [ -66.958916, 10.497251 ], [ -66.9588992, 10.4973249 ], [ -66.9588912, 10.4974224 ], [ -66.9588928, 10.4974897 ], [ -66.9588965, 10.4976505 ], [ -66.9588885, 10.4983758 ], [ -66.9588894, 10.4985288 ], [ -66.9588898, 10.4986053 ], [ -66.9588724, 10.4990628 ], [ -66.958859, 10.499163 ], [ -66.9588523, 10.4991925 ], [ -66.9588402, 10.4992461 ], [ -66.9587986, 10.4993727 ], [ -66.9586833, 10.4996312 ], [ -66.9584996, 10.5000149 ], [ -66.9584379, 10.5001665 ], [ -66.9583949, 10.5002733 ], [ -66.9583721, 10.500367 ], [ -66.9583628, 10.5004276 ], [ -66.958344, 10.5006716 ], [ -66.9583501, 10.501079 ], [ -66.9583386, 10.501203 ], [ -66.9583533, 10.5012452 ], [ -66.9583742, 10.5012729 ], [ -66.958407, 10.5012986 ], [ -66.9584453, 10.5013183 ], [ -66.9584935, 10.5013388 ], [ -66.9585807, 10.5013507 ], [ -66.9586904, 10.5013448 ], [ -66.9588503, 10.501321 ], [ -66.9590849, 10.5012762 ], [ -66.9594464, 10.5012149 ], [ -66.9595335, 10.5011898 ], [ -66.9595993, 10.5011647 ], [ -66.9598889, 10.5010184 ], [ -66.9599815, 10.5009828 ], [ -66.9600391, 10.5009722 ], [ -66.9600928, 10.5009801 ], [ -66.9601451, 10.5010026 ], [ -66.9601982, 10.5010426 ], [ -66.9596606, 10.5023193 ], [ -66.9593847, 10.5029766 ], [ -66.9593631, 10.5030293 ], [ -66.959057, 10.5037787 ], [ -66.9587144, 10.5046213 ], [ -66.958631, 10.5048147 ], [ -66.9584658, 10.5052024 ], [ -66.9583051, 10.5055894 ], [ -66.9584553, 10.505627 ], [ -66.9587359, 10.5056952 ], [ -66.9589331, 10.5057434 ], [ -66.9590936, 10.5057839 ], [ -66.9591188, 10.5057889 ], [ -66.9593766, 10.5058855 ], [ -66.9593525, 10.5061887 ], [ -66.9592824, 10.5068616 ], [ -66.959272, 10.5070116 ], [ -66.9592552, 10.5071762 ], [ -66.9592318, 10.5074045 ], [ -66.9591895, 10.5074681 ], [ -66.9591621, 10.507508 ], [ -66.9591366, 10.5075449 ], [ -66.9590967, 10.5075845 ], [ -66.959039, 10.5076214 ], [ -66.9589948, 10.5076455 ], [ -66.9589401, 10.5076761 ], [ -66.9588924, 10.507751 ], [ -66.9588808, 10.5077717 ], [ -66.9588704, 10.5077955 ], [ -66.9590615, 10.5078261 ], [ -66.9592398, 10.5078403 ], [ -66.9594514, 10.5078565 ], [ -66.959547, 10.5078858 ], [ -66.9596435, 10.5079254 ], [ -66.9597119, 10.5079649 ], [ -66.9597884, 10.5080493 ], [ -66.9598702, 10.5082009 ], [ -66.9598997, 10.5082511 ], [ -66.9599345, 10.5082906 ], [ -66.9599828, 10.5083196 ], [ -66.9601733, 10.5084014 ], [ -66.9604039, 10.5084963 ], [ -66.9606131, 10.5086044 ], [ -66.9607258, 10.5086809 ], [ -66.9608063, 10.5087706 ], [ -66.9608814, 10.5088813 ], [ -66.9609243, 10.5090132 ], [ -66.9609482, 10.5091251 ], [ -66.9609565, 10.5092044 ], [ -66.9609591, 10.5092704 ], [ -66.9609618, 10.5093402 ], [ -66.9609605, 10.5094536 ], [ -66.9609565, 10.5095736 ], [ -66.9609377, 10.509716 ], [ -66.9609082, 10.5098467 ], [ -66.9608961, 10.5099006 ], [ -66.9608371, 10.5101274 ], [ -66.9608076, 10.5102065 ], [ -66.9607024, 10.5103797 ], [ -66.9606882, 10.510403 ], [ -66.9605917, 10.5105613 ], [ -66.9605675, 10.5106193 ], [ -66.9605555, 10.5106865 ], [ -66.9605568, 10.5107604 ], [ -66.9605617, 10.5107936 ], [ -66.9605662, 10.5108237 ], [ -66.9605877, 10.510883 ], [ -66.9606198, 10.5109252 ], [ -66.9608411, 10.5111203 ], [ -66.960931, 10.5111929 ], [ -66.9609516, 10.5112015 ], [ -66.9610034, 10.5112232 ], [ -66.9610865, 10.5112456 ], [ -66.961167, 10.511239 ], [ -66.9612099, 10.5112232 ], [ -66.9612636, 10.5111612 ], [ -66.9613454, 10.5110412 ], [ -66.9614889, 10.5108566 ], [ -66.9616659, 10.5106944 ], [ -66.9617625, 10.510643 ], [ -66.9618416, 10.5106193 ], [ -66.9619274, 10.5106127 ], [ -66.9620012, 10.5106193 ], [ -66.9620544, 10.5106378 ], [ -66.9621903, 10.5106852 ], [ -66.9622546, 10.5107037 ], [ -66.9623405, 10.5107063 ], [ -66.9623861, 10.5106957 ], [ -66.9624344, 10.5106641 ], [ -66.9624706, 10.5106008 ], [ -66.9624773, 10.510527 ], [ -66.9624743, 10.5104818 ], [ -66.9624674, 10.5104551 ], [ -66.9623413, 10.5100521 ], [ -66.9622989, 10.5099165 ], [ -66.9622788, 10.5098321 ], [ -66.9622761, 10.5097872 ], [ -66.9622935, 10.5097371 ], [ -66.9623163, 10.5096817 ], [ -66.9623351, 10.5094866 ], [ -66.9623512, 10.5094352 ], [ -66.9623901, 10.5093758 ], [ -66.9624719, 10.5092769 ], [ -66.9625403, 10.509207 ], [ -66.9625805, 10.5091385 ], [ -66.9625937, 10.5090997 ], [ -66.9625993, 10.5090831 ], [ -66.962602, 10.5090185 ], [ -66.9625859, 10.5089143 ], [ -66.9625832, 10.508851 ], [ -66.9625926, 10.508789 ], [ -66.9626248, 10.508731 ], [ -66.9626567, 10.5087019 ], [ -66.9626784, 10.5086822 ], [ -66.9627146, 10.5086664 ], [ -66.962771, 10.5086625 ], [ -66.9630083, 10.5086994 ], [ -66.963113, 10.508702 ], [ -66.9631666, 10.5086901 ], [ -66.9631974, 10.5086717 ], [ -66.9632189, 10.5086348 ], [ -66.9632725, 10.5084383 ], [ -66.9633101, 10.508313 ], [ -66.9633155, 10.5082616 ], [ -66.9633114, 10.5082115 ], [ -66.9632618, 10.5080005 ], [ -66.9632591, 10.507924 ], [ -66.9632645, 10.5078911 ], [ -66.9632792, 10.5078462 ], [ -66.9633195, 10.5077961 ], [ -66.9634362, 10.5076986 ], [ -66.9635823, 10.5076036 ], [ -66.9636628, 10.5075852 ], [ -66.9636895, 10.5075836 ], [ -66.9637312, 10.5075812 ], [ -66.9638251, 10.5076062 ], [ -66.9639847, 10.507655 ], [ -66.9642569, 10.5077051 ], [ -66.9644782, 10.5077381 ], [ -66.9645453, 10.5077289 ], [ -66.9645884, 10.5077282 ], [ -66.9646271, 10.5077276 ], [ -66.9647022, 10.5077381 ], [ -66.9647867, 10.5077592 ], [ -66.9648953, 10.5077724 ], [ -66.9651327, 10.5078199 ], [ -66.9652762, 10.5078291 ], [ -66.9653306, 10.5078223 ], [ -66.9653606, 10.5078185 ], [ -66.9654357, 10.5077882 ], [ -66.9655243, 10.5077262 ], [ -66.9655806, 10.5076722 ], [ -66.9656356, 10.5075746 ], [ -66.9656697, 10.5074816 ], [ -66.9656892, 10.5074282 ], [ -66.9657844, 10.5071685 ], [ -66.9658595, 10.5070445 ], [ -66.9659454, 10.5069153 ], [ -66.9659896, 10.5068652 ], [ -66.9660018, 10.5068534 ], [ -66.966062, 10.5067953 ], [ -66.9661371, 10.5067557 ], [ -66.9662592, 10.5067083 ], [ -66.9664094, 10.5066384 ], [ -66.9665274, 10.5065738 ], [ -66.9666494, 10.506492 ], [ -66.9667581, 10.5064103 ], [ -66.9668788, 10.5063061 ], [ -66.9669659, 10.5062085 ], [ -66.9670317, 10.5061175 ], [ -66.967151, 10.5059263 ], [ -66.9672382, 10.5057866 ], [ -66.9673173, 10.5056811 ], [ -66.9673736, 10.5056165 ], [ -66.9674394, 10.5055558 ], [ -66.9675171, 10.5055057 ], [ -66.9676097, 10.5054503 ], [ -66.9677264, 10.5053976 ], [ -66.9678605, 10.5053264 ], [ -66.9679812, 10.5052472 ], [ -66.9680911, 10.5051602 ], [ -66.9681957, 10.50506 ], [ -66.9682896, 10.5049308 ], [ -66.9683728, 10.5047541 ], [ -66.9684264, 10.5045761 ], [ -66.9684465, 10.5044943 ], [ -66.9684814, 10.5043835 ], [ -66.968535, 10.5042833 ], [ -66.9686075, 10.5041699 ], [ -66.9686866, 10.5040789 ], [ -66.9687074, 10.5040585 ], [ -66.968751, 10.5040156 ], [ -66.9688435, 10.5039458 ], [ -66.9690004, 10.5038363 ], [ -66.9690527, 10.5037849 ], [ -66.9690956, 10.5037084 ], [ -66.9691318, 10.5036332 ], [ -66.9691814, 10.5034091 ], [ -66.9692083, 10.5033181 ], [ -66.9692284, 10.5032746 ], [ -66.969274, 10.5032284 ], [ -66.9693464, 10.5031836 ], [ -66.9694255, 10.5031519 ], [ -66.969561, 10.5031269 ], [ -66.9696857, 10.5031005 ], [ -66.9697809, 10.5030636 ], [ -66.9698694, 10.5030082 ], [ -66.9700304, 10.5028671 ], [ -66.9702181, 10.5027247 ], [ -66.9702999, 10.5026878 ], [ -66.9703589, 10.5026733 ], [ -66.9704394, 10.5026733 ], [ -66.970536, 10.5026878 ], [ -66.970996, 10.5027985 ], [ -66.9710724, 10.502821 ], [ -66.9711488, 10.502817 ], [ -66.9711847, 10.5028099 ], [ -66.9712159, 10.5028038 ], [ -66.9712709, 10.5027761 ], [ -66.9713299, 10.5027181 ], [ -66.9713701, 10.5026601 ], [ -66.9713835, 10.5025928 ], [ -66.9713755, 10.5025124 ], [ -66.9713554, 10.5024267 ], [ -66.9708699, 10.5012254 ], [ -66.9707049, 10.5008773 ], [ -66.9706674, 10.5007639 ], [ -66.970654, 10.5006808 ], [ -66.9706526, 10.500603 ], [ -66.9706634, 10.5005476 ], [ -66.9706982, 10.5004883 ], [ -66.9707251, 10.5004566 ], [ -66.9708283, 10.5004158 ], [ -66.9711086, 10.5003656 ], [ -66.9713907, 10.5003183 ], [ -66.9716424, 10.500276 ], [ -66.9717497, 10.5002479 ], [ -66.9719347, 10.5001995 ], [ -66.9720447, 10.5001388 ], [ -66.9724524, 10.4997881 ], [ -66.9725302, 10.4996931 ], [ -66.9725704, 10.4996219 ], [ -66.9725781, 10.4995866 ], [ -66.9725959, 10.4995043 ], [ -66.9726519, 10.4992452 ], [ -66.9726965, 10.4990391 ], [ -66.9727461, 10.4988743 ], [ -66.972785, 10.4987885 ], [ -66.9728346, 10.49872 ], [ -66.9728923, 10.4986633 ], [ -66.972954, 10.4986224 ], [ -66.9730479, 10.4985868 ], [ -66.9731712, 10.4985551 ], [ -66.9736983, 10.49848 ], [ -66.9737828, 10.4984536 ], [ -66.9738498, 10.498422 ], [ -66.9739035, 10.4983587 ], [ -66.973933, 10.4982927 ], [ -66.973941, 10.498153 ], [ -66.973933, 10.4978259 ], [ -66.9739358, 10.4977735 ], [ -66.9739397, 10.497702 ], [ -66.9739451, 10.49764 ], [ -66.9739705, 10.4975741 ], [ -66.9740054, 10.4975226 ], [ -66.9740497, 10.4974778 ], [ -66.974106, 10.4974369 ], [ -66.9741865, 10.4973657 ], [ -66.9742951, 10.4972431 ], [ -66.9744265, 10.497098 ], [ -66.974515, 10.4970268 ], [ -66.9746652, 10.496953 ], [ -66.9748932, 10.4968765 ], [ -66.974979, 10.4968185 ], [ -66.9750381, 10.4967341 ], [ -66.9750863, 10.4966207 ], [ -66.9752124, 10.4964361 ], [ -66.9753358, 10.4962805 ], [ -66.9756871, 10.4958875 ], [ -66.9757757, 10.4957899 ], [ -66.9760613, 10.495397 ], [ -66.9760975, 10.4953099 ], [ -66.9761184, 10.4952383 ] ], [ [ -66.9761184, 10.4952383 ], [ -66.9759192, 10.4951761 ], [ -66.9757381, 10.4951246 ], [ -66.9755383, 10.4950442 ], [ -66.9751346, 10.4948098 ], [ -66.9749372, 10.4947254 ], [ -66.9746797, 10.4947169 ], [ -66.974508, 10.494776 ], [ -66.9743449, 10.4949364 ], [ -66.9740874, 10.4952486 ], [ -66.9739329, 10.4953414 ], [ -66.9737441, 10.4953752 ], [ -66.9735896, 10.495333 ], [ -66.972775461468629, 10.494771972451989 ] ], [ [ -66.9589448, 10.4971679 ], [ -66.9590199, 10.4971798 ], [ -66.9590655, 10.4971732 ], [ -66.9591118, 10.4971547 ], [ -66.9591493, 10.4971277 ], [ -66.9591956, 10.4970691 ], [ -66.9592237, 10.4970186 ], [ -66.9592322, 10.496956 ], [ -66.9592164, 10.4968818 ], [ -66.9591567, 10.4967301 ], [ -66.9590829, 10.4965785 ], [ -66.9590615, 10.4965086 ], [ -66.9590507, 10.4964413 ], [ -66.9590521, 10.4963859 ], [ -66.9590655, 10.4962224 ], [ -66.9590665, 10.49614 ], [ -66.9590598, 10.4960662 ], [ -66.9590494, 10.4959824 ], [ -66.959032, 10.4959478 ], [ -66.9590008, 10.4959165 ], [ -66.9589515, 10.4958964 ], [ -66.9588898, 10.4958941 ], [ -66.9588365, 10.4959023 ], [ -66.9587708, 10.4959373 ], [ -66.9586967, 10.4960029 ], [ -66.95858, 10.4961446 ], [ -66.9585002, 10.4962092 ], [ -66.9584298, 10.4962363 ], [ -66.9583433, 10.4962369 ], [ -66.9582749, 10.4962191 ], [ -66.9581824, 10.4961641 ], [ -66.9579986, 10.4960365 ], [ -66.9579276, 10.4960042 ], [ -66.9578478, 10.4959838 ], [ -66.9577552, 10.4959772 ], [ -66.9576734, 10.4959818 ], [ -66.9575916, 10.4959936 ], [ -66.9575098, 10.4960339 ], [ -66.9574796, 10.4960635 ], [ -66.9574501, 10.4961153 ], [ -66.9573951, 10.496268 ], [ -66.9573589, 10.4963325 ], [ -66.9573127, 10.496376 ], [ -66.9572543, 10.4964018 ], [ -66.9571618, 10.496415 ], [ -66.957084, 10.4964143 ], [ -66.9569626, 10.4963886 ], [ -66.9568594, 10.4963576 ], [ -66.9565831, 10.4963009 ], [ -66.9562545, 10.496231 ], [ -66.9560614, 10.4962165 ], [ -66.9559199, 10.4962238 ], [ -66.9558147, 10.4962369 ], [ -66.9557476, 10.4962488 ], [ -66.9556718, 10.4962824 ], [ -66.9555907, 10.4963253 ], [ -66.9554767, 10.4964196 ], [ -66.9552387, 10.4966497 ], [ -66.9551669, 10.4967136 ], [ -66.9551522, 10.4966418 ], [ -66.9551589, 10.4965692 ], [ -66.9551964, 10.4964624 ], [ -66.9552997, 10.4962725 ], [ -66.9553667, 10.4961169 ], [ -66.9554096, 10.4960299 ], [ -66.9554593, 10.4959653 ], [ -66.9555357, 10.4958994 ], [ -66.9556765, 10.4957926 ], [ -66.9558053, 10.4957082 ], [ -66.955839, 10.4956882 ], [ -66.9559944, 10.4955961 ], [ -66.9560837, 10.4955464 ], [ -66.9560963, 10.4955394 ], [ -66.9561929, 10.495455 ], [ -66.9563122, 10.4953402 ], [ -66.95641, 10.4952314 ], [ -66.9564436, 10.4951939 ], [ -66.9565241, 10.495091 ], [ -66.9565885, 10.4949789 ], [ -66.9566435, 10.4948471 ], [ -66.9566716, 10.4948101 ], [ -66.9567508, 10.4947376 ], [ -66.9568594, 10.4946547 ], [ -66.9569546, 10.494582 ], [ -66.9575527, 10.4940756 ], [ -66.9576388, 10.4940201 ], [ -66.9577244, 10.4939649 ], [ -66.9578719, 10.4938858 ], [ -66.9581214, 10.4937618 ], [ -66.958182, 10.4937352 ], [ -66.9582474, 10.4937064 ], [ -66.9583101, 10.4937044 ], [ -66.9586194, 10.4936015 ], [ -66.9589119, 10.4935043 ], [ -66.9593871, 10.4932002 ], [ -66.9598482, 10.4929051 ], [ -66.9599921, 10.4929607 ], [ -66.9606211, 10.4932036 ], [ -66.9608663, 10.49344 ], [ -66.960892, 10.4935709 ], [ -66.9608406, 10.4936329 ], [ -66.960817, 10.4936589 ], [ -66.9608572, 10.4938647 ], [ -66.9608844, 10.4940209 ], [ -66.9608727, 10.494151 ], [ -66.9608065, 10.4943576 ], [ -66.9608924, 10.4948362 ] ], [ [ -66.9351174, 10.5090699 ], [ -66.9350865, 10.5091227 ], [ -66.9350718, 10.5091701 ], [ -66.9350624, 10.5092308 ], [ -66.9350597, 10.5093508 ], [ -66.9350664, 10.5094615 ], [ -66.9350808, 10.5095665 ], [ -66.935113, 10.5097223 ], [ -66.9358295, 10.5097301 ], [ -66.9365611, 10.5097686 ], [ -66.9372084, 10.5097813 ], [ -66.9372337, 10.510072 ], [ -66.9372752, 10.5107986 ], [ -66.937305, 10.5113757 ], [ -66.9379155, 10.5113302 ], [ -66.9379941, 10.5113194 ], [ -66.9381235, 10.511299 ], [ -66.9384165, 10.5112572 ], [ -66.9387474, 10.5112101 ], [ -66.9388758, 10.5111819 ], [ -66.9389631, 10.5111646 ], [ -66.9390504, 10.5111547 ], [ -66.9391393, 10.5111389 ], [ -66.9394104, 10.5110888 ], [ -66.9395289, 10.5110699 ], [ -66.9397489, 10.5110485 ], [ -66.9398821, 10.5110365 ], [ -66.9400168, 10.5110311 ], [ -66.9401677, 10.511032 ], [ -66.9402641, 10.5110351 ], [ -66.9403825, 10.5110446 ], [ -66.9405008, 10.5110595 ], [ -66.9406247, 10.5110809 ], [ -66.9407614, 10.5111062 ], [ -66.9408271, 10.5111197 ], [ -66.9410212, 10.5111633 ], [ -66.9418815, 10.5113414 ], [ -66.9420055, 10.5113612 ], [ -66.9426967, 10.5114661 ], [ -66.9427501, 10.5114758 ], [ -66.9427818, 10.5114816 ], [ -66.9431439, 10.5115423 ], [ -66.9432353, 10.5115627 ], [ -66.9433236, 10.5115824 ], [ -66.9433424, 10.5115866 ], [ -66.9434263, 10.5116079 ], [ -66.9438969, 10.5117103 ], [ -66.9439727, 10.5117272 ], [ -66.9440552, 10.5117456 ], [ -66.9440854, 10.5117524 ], [ -66.9442785, 10.5117955 ], [ -66.944621, 10.5118695 ], [ -66.9446953, 10.5118855 ], [ -66.9447682, 10.5119013 ], [ -66.944801, 10.5119083 ], [ -66.9450966, 10.5119722 ], [ -66.9453638, 10.5120271 ], [ -66.9454317, 10.5120411 ], [ -66.9455304, 10.5120614 ], [ -66.9455571, 10.5120669 ], [ -66.9461735, 10.5121937 ], [ -66.9465449, 10.5122702 ], [ -66.9468682, 10.512345 ], [ -66.9469511, 10.5123648 ], [ -66.9471688, 10.5124146 ], [ -66.9475132, 10.5124943 ], [ -66.9476518, 10.5125269 ], [ -66.9477927, 10.51256 ], [ -66.948465, 10.5127181 ], [ -66.9485682, 10.5127424 ], [ -66.9485717, 10.51259 ], [ -66.9485727, 10.5125471 ], [ -66.9485888, 10.5123387 ], [ -66.9486022, 10.512257 ], [ -66.9486128, 10.5122154 ], [ -66.948629, 10.5121515 ], [ -66.9486612, 10.512046 ], [ -66.9487122, 10.5119352 ], [ -66.9489133, 10.5115634 ], [ -66.9490717, 10.5112775 ], [ -66.9494686, 10.5105613 ], [ -66.9497585, 10.5100215 ], [ -66.9497812, 10.5099792 ], [ -66.9498018, 10.5099409 ], [ -66.9498731, 10.5098082 ], [ -66.9500364, 10.509504 ], [ -66.9501673, 10.5092611 ], [ -66.9502249, 10.509153 ], [ -66.9502793, 10.5090506 ], [ -66.9503049, 10.5090024 ], [ -66.9503837, 10.5088538 ], [ -66.9504691, 10.5086929 ], [ -66.9504947, 10.5086447 ], [ -66.9505285, 10.5085811 ], [ -66.9506518, 10.5083488 ], [ -66.9507248, 10.5082113 ], [ -66.9508633, 10.5079504 ], [ -66.9509023, 10.5078679 ], [ -66.9509528, 10.5077822 ], [ -66.951132, 10.5074455 ], [ -66.9511895, 10.5073375 ], [ -66.951237, 10.5072482 ], [ -66.9513494, 10.5070369 ], [ -66.9513803, 10.5069789 ], [ -66.951499, 10.5067557 ], [ -66.9518671, 10.5060679 ], [ -66.951908, 10.5059916 ], [ -66.9519503, 10.5059125 ], [ -66.9521454, 10.5055479 ], [ -66.9522675, 10.5053073 ], [ -66.9524079, 10.5050305 ], [ -66.9524525, 10.5049426 ], [ -66.9524619, 10.504878 ], [ -66.9524632, 10.5048147 ], [ -66.9524532, 10.5047617 ], [ -66.952372, 10.5047066 ], [ -66.9524699, 10.5046964 ], [ -66.9528609, 10.5047925 ], [ -66.9529637, 10.5048145 ], [ -66.9531462, 10.5048418 ], [ -66.9532665, 10.5048509 ], [ -66.9533496, 10.5048559 ], [ -66.9534972, 10.5047989 ], [ -66.9535495, 10.504762 ], [ -66.9536059, 10.504704 ], [ -66.9536877, 10.5045536 ], [ -66.9540172, 10.5037983 ], [ -66.9538425, 10.5036965 ], [ -66.9537413, 10.5036128 ], [ -66.9537601, 10.5033275 ], [ -66.9537883, 10.502995 ], [ -66.9538345, 10.5026436 ], [ -66.9540122, 10.50213 ], [ -66.9541915, 10.5016771 ], [ -66.9542161, 10.5016079 ], [ -66.9542697, 10.5014707 ], [ -66.9542909, 10.5014236 ], [ -66.9544025, 10.5011753 ], [ -66.9544548, 10.5010896 ], [ -66.9546164, 10.5009821 ], [ -66.9547532, 10.5009102 ], [ -66.9550382, 10.5008008 ], [ -66.9551133, 10.5007507 ], [ -66.9551391, 10.500726 ], [ -66.9551615, 10.5007045 ], [ -66.9552125, 10.5006412 ], [ -66.9552755, 10.500541 ], [ -66.9553493, 10.5003907 ], [ -66.9555545, 10.4999753 ], [ -66.955926, 10.4991156 ], [ -66.9559702, 10.4990074 ], [ -66.9560038, 10.4988967 ], [ -66.9560158, 10.4988386 ], [ -66.9560219, 10.498778 ], [ -66.9560078, 10.4987068 ], [ -66.9559836, 10.4986652 ], [ -66.9559414, 10.4986349 ], [ -66.9558874, 10.4986115 ], [ -66.9557979, 10.4986184 ], [ -66.9557114, 10.4986382 ], [ -66.9555263, 10.4986962 ], [ -66.9553339, 10.4987562 ], [ -66.9551803, 10.4987965 ], [ -66.9551065, 10.4987095 ], [ -66.9550784, 10.498633 ], [ -66.9550744, 10.498542 ], [ -66.9550891, 10.4984971 ], [ -66.9551428, 10.4984048 ], [ -66.9552085, 10.4983567 ], [ -66.9557684, 10.4980679 ], [ -66.9560661, 10.4979031 ], [ -66.9563679, 10.4977732 ], [ -66.9565194, 10.4977158 ], [ -66.9566193, 10.4976855 ], [ -66.9566656, 10.4976782 ], [ -66.9567065, 10.497671 ], [ -66.9570498, 10.4975807 ], [ -66.9572309, 10.4975345 ], [ -66.957373, 10.4974712 ], [ -66.9574629, 10.4974343 ], [ -66.9575286, 10.4973894 ], [ -66.9576319, 10.4973116 ], [ -66.9577687, 10.497193 ], [ -66.9579376, 10.4970018 ], [ -66.9579946, 10.4969332 ], [ -66.9580617, 10.4968804 ], [ -66.958122, 10.4968527 ], [ -66.9582159, 10.4968317 ], [ -66.9583152, 10.496825 ], [ -66.9584278, 10.4968218 ], [ -66.9585371, 10.496831 ], [ -66.9586343, 10.4968455 ], [ -66.9587054, 10.4968666 ], [ -66.9587758, 10.4969029 ], [ -66.9588355, 10.4969582 ], [ -66.9588798, 10.497038 ], [ -66.9589182, 10.4971327 ], [ -66.9589448, 10.4971679 ] ] ] } }
]
}
