{
"type": "FeatureCollection",
"name": "r2_line",
"crs": { "type": "name", "properties": { "name": "urn:ogc:def:crs:OGC:1.3:CRS84" } },
"features": [
{ "type": "Feature", "properties": { "trip": "R2 — Autopista + Trocha", "start": "Caracas (Catia)", "end": "site 4", "km": 9.8 }, "geometry": { "type": "MultiLineString", "coordinates": [ [ [ -66.971202922406036, 10.532351993901347 ], [ -66.9712069, 10.5323551 ], [ -66.9712516, 10.5323899 ], [ -66.9713205, 10.5324335 ], [ -66.9713742, 10.5324638 ], [ -66.9714506, 10.5324849 ], [ -66.9718087, 10.5325205 ], [ -66.9719414, 10.5325271 ], [ -66.9720219, 10.5325244 ], [ -66.9721963, 10.532506 ], [ -66.9723988, 10.5324822 ], [ -66.9724806, 10.5324743 ], [ -66.9725651, 10.5324717 ], [ -66.9726509, 10.532477 ], [ -66.9727327, 10.5324902 ], [ -66.9727863, 10.5325007 ], [ -66.972844, 10.5325047 ], [ -66.9729888, 10.5324981 ], [ -66.9734569, 10.5324677 ], [ -66.9735669, 10.5324585 ], [ -66.9736473, 10.5324466 ], [ -66.9737238, 10.5324255 ], [ -66.9739638, 10.5323478 ], [ -66.9741046, 10.5323082 ], [ -66.9742589, 10.5322634 ], [ -66.9743246, 10.5322436 ], [ -66.9744064, 10.5322291 ], [ -66.9744654, 10.5322264 ], [ -66.9745338, 10.5322436 ], [ -66.9746009, 10.5322713 ], [ -66.9746934, 10.5323359 ], [ -66.9749106, 10.5325139 ], [ -66.9750273, 10.5326035 ], [ -66.9751601, 10.532684 ], [ -66.9755825, 10.5329094 ], [ -66.9759059, 10.5330776 ], [ -66.9759527, 10.5331019 ], [ -66.976123, 10.5331731 ], [ -66.9761764, 10.5331966 ], [ -66.9761972, 10.5332058 ], [ -66.9763295, 10.5332641 ], [ -66.9764113, 10.5333037 ], [ -66.976465, 10.5333419 ], [ -66.9765748, 10.5334367 ], [ -66.9766635, 10.5335133 ], [ -66.97688, 10.5337522 ], [ -66.9771034, 10.5338654 ], [ -66.9776118, 10.5341749 ], [ -66.9776988, 10.5341541 ], [ -66.9780783, 10.5340895 ], [ -66.9784257, 10.5340434 ], [ -66.9786966, 10.5340183 ], [ -66.9790627, 10.5339801 ], [ -66.9791217, 10.5339682 ], [ -66.9791552, 10.5339563 ], [ -66.9791995, 10.5339247 ], [ -66.9793725, 10.5337942 ], [ -66.9795978, 10.5335845 ], [ -66.9796568, 10.5335331 ], [ -66.9796997, 10.5335001 ], [ -66.9800457, 10.533272 ], [ -66.98009, 10.5332325 ], [ -66.9801275, 10.5331876 ], [ -66.9801517, 10.5331362 ], [ -66.9801664, 10.5330769 ], [ -66.9802174, 10.5329028 ], [ -66.9802375, 10.5328422 ], [ -66.980263, 10.5327947 ], [ -66.9803663, 10.5326207 ], [ -66.9804105, 10.53256 ], [ -66.9804575, 10.5325139 ], [ -66.9804896, 10.5324941 ], [ -66.980554, 10.5324598 ], [ -66.9806345, 10.5324269 ], [ -66.980719, 10.5324005 ], [ -66.9807887, 10.5323913 ], [ -66.9808625, 10.5323834 ], [ -66.9809201, 10.5323847 ], [ -66.9809979, 10.5323992 ], [ -66.9810645, 10.5324128 ], [ -66.9810945, 10.532419 ], [ -66.9812299, 10.532473 ], [ -66.9814124, 10.5325432 ], [ -66.9815692, 10.5326035 ], [ -66.9816068, 10.5326115 ], [ -66.9816497, 10.5326115 ], [ -66.9817007, 10.5326088 ], [ -66.9817597, 10.5325969 ], [ -66.9818133, 10.5325824 ], [ -66.9820333, 10.5325007 ], [ -66.9821679, 10.5324479 ], [ -66.9823323, 10.5323834 ], [ -66.9824144, 10.5323482 ], [ -66.9826461, 10.5322489 ], [ -66.9827239, 10.532204 ], [ -66.9827533, 10.5321846 ], [ -66.9828835, 10.5320986 ], [ -66.9829435, 10.5320561 ], [ -66.9830082, 10.5320102 ], [ -66.9831692, 10.531885 ], [ -66.9832456, 10.5318217 ], [ -66.9832738, 10.5318098 ], [ -66.9833247, 10.5318032 ], [ -66.9833757, 10.5318164 ], [ -66.983432, 10.5318467 ], [ -66.9836721, 10.5320129 ], [ -66.9838773, 10.5321908 ], [ -66.9839913, 10.5322713 ], [ -66.9840261, 10.5322805 ] ], [ [ -66.971202922406036, 10.532351993901347 ], [ -66.9711649, 10.5323886 ], [ -66.971122, 10.532419 ], [ -66.9710979, 10.5324255 ], [ -66.9710496, 10.5324335 ], [ -66.9710094, 10.5324308 ], [ -66.9709665, 10.5324163 ], [ -66.9709182, 10.5323728 ], [ -66.9708847, 10.5323187 ], [ -66.9708685, 10.5322687 ], [ -66.9708565, 10.5322317 ], [ -66.9708525, 10.5321803 ], [ -66.9708578, 10.5321447 ], [ -66.9709007, 10.5320906 ], [ -66.9709517, 10.5320471 ], [ -66.9709946, 10.5321091 ], [ -66.9711354, 10.5322871 ], [ -66.9711606, 10.5323141 ], [ -66.9711891, 10.5323412 ], [ -66.971202922406036, 10.532351993901347 ] ], [ [ -66.9705158, 10.5257591 ], [ -66.9708028, 10.52568 ], [ -66.9709075, 10.5256602 ], [ -66.9709893, 10.5256536 ], [ -66.9711385, 10.525622 ], [ -66.9733134, 10.5258099 ], [ -66.9737388, 10.5258507 ], [ -66.9739711, 10.525882 ], [ -66.9741909, 10.5259276 ], [ -66.9743909, 10.525981 ], [ -66.9745976, 10.52605 ], [ -66.9746686, 10.5260737 ], [ -66.9766097, 10.5268566 ], [ -66.9769117, 10.5269706 ], [ -66.9771791, 10.5270556 ], [ -66.9772179, 10.5270665 ], [ -66.9774249, 10.5271247 ], [ -66.9776232, 10.5271701 ], [ -66.9788929, 10.5273733 ], [ -66.9792495, 10.5274389 ], [ -66.9794917, 10.5274939 ], [ -66.9796963, 10.527551 ], [ -66.979867, 10.5276181 ], [ -66.9800164, 10.5276896 ], [ -66.9802515, 10.5278137 ], [ -66.9804748, 10.5279536 ], [ -66.9805606, 10.5280074 ], [ -66.9805419, 10.5282089 ], [ -66.9805365, 10.5282331 ], [ -66.9805236, 10.528256 ], [ -66.9805044, 10.5282762 ], [ -66.9804709, 10.5283078 ], [ -66.9802777, 10.5284436 ], [ -66.9801383, 10.5285676 ], [ -66.9800149, 10.5287113 ], [ -66.9799089, 10.528851 ], [ -66.979752, 10.5290515 ], [ -66.9796649, 10.5291464 ], [ -66.9796018, 10.5292018 ], [ -66.9795482, 10.5292387 ], [ -66.9794784, 10.529269 ], [ -66.9793537, 10.5293046 ], [ -66.9793312, 10.5293097 ], [ -66.9791217, 10.5293574 ], [ -66.9789165, 10.5294141 ], [ -66.978364, 10.5295881 ], [ -66.9783137, 10.5296047 ], [ -66.9781964, 10.5296435 ], [ -66.9780569, 10.5296975 ], [ -66.9779637, 10.5297336 ], [ -66.9778664, 10.5297714 ], [ -66.9777296, 10.5298149 ], [ -66.9774842, 10.5298808 ], [ -66.9774236, 10.5298925 ], [ -66.9773541, 10.5299059 ], [ -66.9772831, 10.5299164 ], [ -66.9771932, 10.529927 ], [ -66.9771262, 10.5299415 ], [ -66.9770323, 10.5299757 ], [ -66.9768284, 10.5300733 ], [ -66.9767064, 10.5301313 ], [ -66.9766366, 10.5301643 ], [ -66.9765347, 10.5302025 ], [ -66.9762637, 10.530309 ], [ -66.9759406, 10.5304359 ], [ -66.9757636, 10.5304952 ], [ -66.975596, 10.5305585 ], [ -66.9754444, 10.530602 ], [ -66.9753197, 10.5306521 ], [ -66.9751735, 10.5307049 ], [ -66.9751024, 10.5307418 ], [ -66.9750541, 10.5307774 ], [ -66.9749884, 10.5308354 ], [ -66.9747752, 10.5310714 ], [ -66.974735, 10.5310965 ], [ -66.9745687, 10.5311413 ], [ -66.9744078, 10.5312112 ], [ -66.9742763, 10.5312784 ], [ -66.9741771, 10.5313364 ], [ -66.9741381, 10.5313549 ], [ -66.9740671, 10.5314051 ], [ -66.973996, 10.531434 ], [ -66.9738888, 10.5314697 ], [ -66.9737587, 10.5315119 ], [ -66.9736379, 10.531554 ], [ -66.9735253, 10.5316067 ], [ -66.9733711, 10.5317003 ], [ -66.9731592, 10.5318348 ], [ -66.9730479, 10.5319021 ], [ -66.9729701, 10.5319377 ], [ -66.9728936, 10.5319654 ], [ -66.9727903, 10.5319997 ], [ -66.9726348, 10.53203 ], [ -66.9724524, 10.5320353 ], [ -66.972266, 10.5320418 ], [ -66.9720876, 10.5320392 ], [ -66.9719602, 10.532055 ], [ -66.9718502, 10.5320722 ], [ -66.9716867, 10.5321091 ], [ -66.9715391, 10.5321698 ], [ -66.9715026, 10.5321754 ], [ -66.9714779, 10.5321782 ], [ -66.9714564, 10.5321793 ], [ -66.9714265, 10.5321882 ], [ -66.9713594, 10.5322212 ], [ -66.9712856, 10.5322752 ], [ -66.9712347, 10.5323214 ], [ -66.971202922406036, 10.532351993901347 ] ], [ [ -66.9705158, 10.5257591 ], [ -66.9704609, 10.5257841 ], [ -66.9703992, 10.5258066 ], [ -66.970341765910916, 10.525815964253654 ] ], [ [ -66.9351174, 10.5090699 ], [ -66.9350865, 10.5091227 ], [ -66.9350718, 10.5091701 ], [ -66.9350624, 10.5092308 ], [ -66.9350597, 10.5093508 ], [ -66.9350664, 10.5094615 ], [ -66.9350808, 10.5095665 ], [ -66.935113, 10.5097223 ], [ -66.9358295, 10.5097301 ], [ -66.9365611, 10.5097686 ], [ -66.9372084, 10.5097813 ], [ -66.9372337, 10.510072 ], [ -66.9372752, 10.5107986 ], [ -66.937305, 10.5113757 ], [ -66.9379155, 10.5113302 ], [ -66.9379941, 10.5113194 ], [ -66.9381235, 10.511299 ], [ -66.9384165, 10.5112572 ], [ -66.9387474, 10.5112101 ], [ -66.9388758, 10.5111819 ], [ -66.9390612, 10.5112023 ], [ -66.9391454, 10.5112298 ], [ -66.9392091, 10.5112542 ], [ -66.9392541, 10.5112601 ], [ -66.9393043, 10.5112641 ], [ -66.9394988, 10.5112482 ], [ -66.9396021, 10.5112377 ], [ -66.9397134, 10.5112285 ], [ -66.9398234, 10.5112219 ], [ -66.9399172, 10.5112219 ], [ -66.9400031, 10.5112219 ], [ -66.9400728, 10.5112285 ], [ -66.9401076, 10.5112337 ], [ -66.9401345, 10.5112377 ], [ -66.9401747, 10.5112509 ], [ -66.9402217, 10.5112733 ], [ -66.9402981, 10.5113405 ], [ -66.9405046, 10.5115726 ], [ -66.9407309, 10.5117748 ], [ -66.9410956, 10.5124683 ], [ -66.9413183, 10.5128797 ], [ -66.941506, 10.5133017 ], [ -66.941624, 10.5135733 ], [ -66.9416534, 10.5136545 ], [ -66.9417233, 10.5138476 ], [ -66.9418692, 10.5142579 ], [ -66.9420174, 10.5144537 ], [ -66.9420918, 10.5145557 ], [ -66.9423826, 10.5154138 ], [ -66.942662, 10.516258 ], [ -66.9427606, 10.5165727 ], [ -66.9428197, 10.5167507 ], [ -66.942992, 10.5170992 ], [ -66.9430671, 10.5172495 ], [ -66.9431502, 10.5173761 ], [ -66.9432629, 10.5175238 ], [ -66.9435901, 10.5178772 ], [ -66.943637, 10.5179233 ], [ -66.9436974, 10.5179827 ], [ -66.9441507, 10.5183439 ], [ -66.9446066, 10.5187342 ], [ -66.9447622, 10.5189505 ], [ -66.944899, 10.5191456 ], [ -66.9449902, 10.5193461 ], [ -66.9450599, 10.5195913 ], [ -66.9451133, 10.5200159 ], [ -66.9452446, 10.521444 ], [ -66.9452687, 10.5218926 ], [ -66.945274, 10.5222411 ], [ -66.9452687, 10.5225234 ], [ -66.9452421, 10.5229288 ], [ -66.9452194, 10.5232663 ], [ -66.9451553, 10.5236734 ], [ -66.9450053, 10.5243912 ], [ -66.9448912, 10.5249627 ], [ -66.9448627, 10.5251224 ], [ -66.9448437, 10.5252707 ], [ -66.9448274, 10.5254618 ], [ -66.944826, 10.5256362 ], [ -66.9448369, 10.5258209 ], [ -66.9448535, 10.5259577 ], [ -66.9448959, 10.5261379 ], [ -66.9449411, 10.5262889 ], [ -66.945011, 10.5264586 ], [ -66.94509, 10.5266126 ], [ -66.9451621, 10.5267398 ], [ -66.9452477, 10.526872 ], [ -66.9453389, 10.5270031 ], [ -66.9454779, 10.5271746 ], [ -66.9455985, 10.5272986 ], [ -66.9457205, 10.527405 ], [ -66.9458065, 10.5274691 ], [ -66.9459271, 10.5275441 ], [ -66.9461101, 10.527628 ], [ -66.9465357, 10.5277705 ], [ -66.9467199, 10.5278111 ], [ -66.9468697, 10.5278287 ], [ -66.9470489, 10.5278381 ], [ -66.9471632, 10.5278335 ], [ -66.9491398, 10.5277536 ], [ -66.9493808, 10.5277363 ], [ -66.9495742, 10.5277081 ], [ -66.9499164, 10.5276364 ], [ -66.9501579, 10.5275683 ], [ -66.9503873, 10.5274882 ], [ -66.9506314, 10.5273829 ], [ -66.9508497, 10.5272723 ], [ -66.9523954, 10.5263665 ], [ -66.9525895, 10.5262398 ], [ -66.9527747, 10.5260975 ], [ -66.9529486, 10.525961 ], [ -66.9530832, 10.5258461 ], [ -66.9532095, 10.5257232 ], [ -66.9539663, 10.5249264 ], [ -66.9541344, 10.5247545 ], [ -66.954279, 10.5246176 ], [ -66.9544188, 10.5245009 ], [ -66.9545262, 10.5244249 ], [ -66.9546901, 10.5243236 ], [ -66.9548755, 10.5242259 ], [ -66.9550263, 10.5241557 ], [ -66.9551686, 10.5240987 ], [ -66.9553307, 10.5240469 ], [ -66.9555266, 10.5239974 ], [ -66.958908, 10.5233544 ], [ -66.9590912, 10.523327 ], [ -66.9592903, 10.5233061 ], [ -66.9594877, 10.5232957 ], [ -66.959724, 10.523297 ], [ -66.9599122, 10.5233074 ], [ -66.960112, 10.5233284 ], [ -66.9613479, 10.5234733 ], [ -66.96173, 10.5235232 ], [ -66.9620093, 10.5235756 ], [ -66.9625027, 10.5236932 ], [ -66.9700699, 10.5254975 ], [ -66.9702791, 10.5255366 ], [ -66.9704075, 10.5255559 ], [ -66.9705437, 10.5255706 ], [ -66.9706334, 10.5255784 ], [ -66.9706191, 10.5256338 ], [ -66.970599, 10.5256833 ], [ -66.9705682, 10.5257248 ], [ -66.9705158, 10.5257591 ] ] ] } }
]
}
