{
"type": "FeatureCollection",
"name": "r3_line",
"crs": { "type": "name", "properties": { "name": "urn:ogc:def:crs:OGC:1.3:CRS84" } },
"features": [
{ "type": "Feature", "properties": { "trip": "R3 — Forum Stadium → 125", "start": "Forum La Guaira Stadium", "end": "site 125", "km": 6.4 }, "geometry": { "type": "MultiLineString", "coordinates": [ [ [ -66.9326792, 10.6006107 ], [ -66.9327, 10.6007945 ], [ -66.9326826, 10.6008914 ], [ -66.9326719, 10.6009547 ], [ -66.9327195, 10.6010417 ], [ -66.9327537, 10.601068 ], [ -66.9328188, 10.6010805 ], [ -66.9329431, 10.6010674 ], [ -66.9330122, 10.6010539 ], [ -66.9330448, 10.6010681 ], [ -66.9327795, 10.6014113 ], [ -66.9329271, 10.6015589 ], [ -66.9326479, 10.6017074 ], [ -66.9324687, 10.6017891 ], [ -66.9322333, 10.6019011 ], [ -66.9322081, 10.6019115 ], [ -66.9318947, 10.6020411 ], [ -66.9318396, 10.6020639 ], [ -66.9317252, 10.6021097 ], [ -66.9316681, 10.6021325 ], [ -66.9315501, 10.6021865 ], [ -66.9315092, 10.6022083 ], [ -66.9314589, 10.6022333 ], [ -66.931404, 10.6023112 ], [ -66.9312214, 10.6022714 ], [ -66.9305683, 10.6021453 ], [ -66.930212, 10.6020791 ], [ -66.9297892, 10.602018 ], [ -66.92893, 10.601896 ], [ -66.9287044, 10.6018665 ], [ -66.928491, 10.6018461 ], [ -66.9283018, 10.6018369 ], [ -66.9280188, 10.601833 ], [ -66.927692, 10.6018516 ], [ -66.9272493, 10.6018886 ], [ -66.9268717, 10.6019333 ], [ -66.926534, 10.6019968 ], [ -66.9262044, 10.6021009 ], [ -66.9258467, 10.6022595 ], [ -66.9256412, 10.6023948 ], [ -66.9253688, 10.6025889 ], [ -66.9249035, 10.6028934 ], [ -66.924404, 10.6032137 ], [ -66.924143, 10.6033371 ], [ -66.9237539, 10.6034801 ], [ -66.9233847, 10.6035751 ], [ -66.9230928, 10.6036066 ], [ -66.9223864, 10.6036513 ], [ -66.9223538, 10.6036537 ], [ -66.9220109, 10.6036588 ], [ -66.92193, 10.603664 ], [ -66.9216373, 10.6036834 ], [ -66.9213149, 10.6037794 ], [ -66.9212107, 10.603821 ], [ -66.9206809, 10.6039702 ], [ -66.9198436, 10.6041905 ], [ -66.919392, 10.6043594 ], [ -66.9189383, 10.604636 ], [ -66.9188174, 10.6047254 ], [ -66.9186951, 10.6048174 ], [ -66.9183343, 10.6051084 ], [ -66.9182799, 10.6051499 ], [ -66.9180449, 10.6053053 ], [ -66.9176481, 10.6055601 ], [ -66.9175409, 10.6055882 ], [ -66.9174361, 10.6056157 ], [ -66.9172171, 10.6056295 ], [ -66.9168929, 10.6056295 ], [ -66.9165172, 10.6055906 ], [ -66.9164834, 10.6055329 ], [ -66.9164421, 10.6054624 ], [ -66.9163551, 10.6053419 ], [ -66.9161656, 10.6045288 ], [ -66.9161199, 10.6043735 ], [ -66.9161106, 10.6043419 ], [ -66.9161193, 10.6041998 ], [ -66.916183, 10.6040476 ], [ -66.9162125, 10.6039602 ], [ -66.91624, 10.6038811 ], [ -66.9162615, 10.6037961 ], [ -66.9162769, 10.6036781 ], [ -66.9163077, 10.6033752 ], [ -66.9161399, 10.6034451 ], [ -66.9160947, 10.603465 ], [ -66.915998, 10.6034934 ], [ -66.9159468, 10.6033575 ], [ -66.9157284, 10.6035045 ], [ -66.9156371, 10.6035658 ], [ -66.9154979, 10.6036744 ], [ -66.915413, 10.6037362 ], [ -66.9153437, 10.6037351 ], [ -66.9153537, 10.6037116 ], [ -66.915383, 10.6036207 ], [ -66.9153837, 10.6035865 ], [ -66.9153722, 10.6035171 ], [ -66.9153557, 10.6034709 ], [ -66.9153354, 10.6033826 ], [ -66.9153059, 10.6033489 ], [ -66.9152747, 10.6033205 ], [ -66.9152479, 10.6033062 ], [ -66.9150861, 10.6032599 ], [ -66.9150384, 10.6032385 ], [ -66.9149928, 10.6032081 ], [ -66.9149291, 10.6031614 ], [ -66.9148526, 10.603131 ], [ -66.9147854, 10.6031176 ], [ -66.9146428, 10.6031027 ], [ -66.91459, 10.6030919 ], [ -66.914569, 10.6030809 ], [ -66.9145522, 10.6030579 ], [ -66.9145469, 10.603017 ], [ -66.9145556, 10.6029814 ], [ -66.9145764, 10.6029557 ], [ -66.9146495, 10.6029036 ], [ -66.9147018, 10.6028522 ], [ -66.91474, 10.6027685 ], [ -66.9148037, 10.6026037 ], [ -66.9148318, 10.6025345 ], [ -66.9148493, 10.6024957 ], [ -66.9148808, 10.6024209 ], [ -66.9149592, 10.6022391 ], [ -66.9149691, 10.6021876 ], [ -66.9149628, 10.6021394 ], [ -66.9149512, 10.602094 ], [ -66.9149226, 10.6020003 ], [ -66.9149167, 10.6019651 ], [ -66.9148774, 10.6017311 ], [ -66.9147724, 10.6014786 ], [ -66.914684, 10.6012977 ], [ -66.9145791, 10.6009879 ], [ -66.9145709, 10.6009532 ], [ -66.914332, 10.5999384 ], [ -66.9142766, 10.5998393 ], [ -66.9142187, 10.5996347 ], [ -66.9140987, 10.5992968 ], [ -66.9140494, 10.5992442 ], [ -66.9138248, 10.5993427 ], [ -66.9136456, 10.5993466 ], [ -66.9135628, 10.599325 ], [ -66.9135153, 10.5992826 ], [ -66.9134674, 10.5991548 ], [ -66.9135482, 10.5991132 ], [ -66.913663, 10.5990801 ], [ -66.9137022, 10.5988178 ], [ -66.9137574, 10.5985029 ], [ -66.9137949, 10.5981858 ], [ -66.913851, 10.5976961 ], [ -66.9138356, 10.5973333 ], [ -66.9138178, 10.5971169 ], [ -66.9139327, 10.596961 ], [ -66.9140126, 10.596684 ], [ -66.9140133, 10.596464 ], [ -66.913936, 10.5962081 ], [ -66.9136781, 10.5959214 ], [ -66.9133199, 10.5944232 ], [ -66.9131961, 10.5941031 ], [ -66.9130203, 10.5940263 ], [ -66.9127402, 10.5941735 ], [ -66.9126034, 10.5941607 ], [ -66.9124992, 10.5942888 ], [ -66.9121605, 10.5944488 ], [ -66.911913, 10.5945 ], [ -66.9115938, 10.5944168 ], [ -66.9114505, 10.594468 ], [ -66.9113072, 10.5947113 ], [ -66.9109295, 10.5949034 ], [ -66.9105647, 10.5949226 ], [ -66.9101348, 10.5948778 ], [ -66.9098218, 10.5949375 ], [ -66.91001, 10.594683 ], [ -66.910289, 10.594489 ], [ -66.910359, 10.594407 ], [ -66.910551, 10.594057 ], [ -66.9105922, 10.5939647 ], [ -66.910612, 10.5938428 ], [ -66.9106503, 10.5937149 ], [ -66.9107173, 10.593622 ], [ -66.910749, 10.5935983 ], [ -66.9108547, 10.5935615 ], [ -66.9109252, 10.5935436 ], [ -66.9109621, 10.5935146 ], [ -66.9109868, 10.593486 ], [ -66.9110017, 10.5934612 ], [ -66.9110073, 10.5934282 ], [ -66.9110017, 10.5933544 ], [ -66.911003, 10.5933083 ], [ -66.9110298, 10.5932727 ], [ -66.9110827, 10.5932359 ], [ -66.9111487, 10.5931999 ], [ -66.9113113, 10.5931038 ], [ -66.9113469, 10.5930678 ], [ -66.9113761, 10.5930101 ], [ -66.9114488, 10.5927904 ], [ -66.9114888, 10.5926861 ], [ -66.9115052, 10.5926472 ], [ -66.911516, 10.5926175 ], [ -66.9115158, 10.5925948 ], [ -66.9115073, 10.5925689 ], [ -66.9114851, 10.5925529 ], [ -66.9114523, 10.5925516 ], [ -66.9114198, 10.5925666 ], [ -66.9113953, 10.5925865 ], [ -66.9113631, 10.5926149 ], [ -66.9113074, 10.5926663 ], [ -66.9111889, 10.5927605 ], [ -66.911089, 10.592812 ], [ -66.910932, 10.5928541 ], [ -66.9108582, 10.5928752 ], [ -66.9107883, 10.5928826 ], [ -66.910629, 10.5928953 ], [ -66.910542, 10.592911 ], [ -66.9104078, 10.5929656 ], [ -66.9103676, 10.5929804 ], [ -66.910259, 10.593006 ], [ -66.9101621, 10.5930314 ], [ -66.9100656, 10.5930308 ], [ -66.9099212, 10.5930009 ], [ -66.9097511, 10.5929154 ], [ -66.9097185, 10.5928823 ], [ -66.9097035, 10.5928515 ], [ -66.9097001, 10.5928172 ], [ -66.9097234, 10.5927839 ], [ -66.9097558, 10.5927599 ], [ -66.9098017, 10.5927493 ], [ -66.9098554, 10.592739 ], [ -66.9099967, 10.5927086 ], [ -66.9100729, 10.5926966 ], [ -66.910145, 10.592665 ], [ -66.9102206, 10.592598 ], [ -66.9102639, 10.5925515 ], [ -66.9103806, 10.5923897 ], [ -66.9103988, 10.5923624 ], [ -66.9104072, 10.592326 ], [ -66.9103957, 10.5922483 ], [ -66.9103804, 10.5920924 ], [ -66.9104156, 10.5919557 ], [ -66.9104424, 10.591874 ], [ -66.9104302, 10.5918255 ], [ -66.9103653, 10.5917773 ], [ -66.9100339, 10.5914785 ], [ -66.9099551, 10.5914112 ], [ -66.909878, 10.5913094 ], [ -66.9098564, 10.591236 ], [ -66.9098614, 10.5911035 ], [ -66.909907, 10.5909216 ], [ -66.9099408, 10.5908392 ], [ -66.9099717, 10.5907628 ], [ -66.909977, 10.5907218 ], [ -66.909961, 10.5906889 ], [ -66.9099274, 10.5906797 ], [ -66.9098926, 10.5906876 ], [ -66.9098496, 10.5907271 ], [ -66.9098201, 10.5907904 ], [ -66.9097666, 10.5909865 ], [ -66.909712, 10.591085 ], [ -66.909636, 10.591256 ], [ -66.909569, 10.591328 ], [ -66.909453, 10.591405 ], [ -66.909092, 10.591464 ], [ -66.908979, 10.591445 ], [ -66.908914, 10.591417 ], [ -66.90881, 10.591322 ], [ -66.908772, 10.591262 ], [ -66.908731, 10.591148 ], [ -66.908702, 10.591022 ], [ -66.908685, 10.590802 ], [ -66.908648, 10.59063 ], [ -66.908634, 10.59047 ], [ -66.908622, 10.590401 ], [ -66.908599, 10.590358 ], [ -66.908544, 10.590326 ], [ -66.908366, 10.5903 ], [ -66.908268, 10.59026 ], [ -66.908171, 10.590183 ], [ -66.908078, 10.590084 ], [ -66.907983, 10.589933 ], [ -66.907966, 10.589827 ], [ -66.908033, 10.589598 ], [ -66.908081, 10.589504 ], [ -66.908333, 10.589123 ], [ -66.908353, 10.589039 ], [ -66.908344, 10.588934 ], [ -66.908355, 10.588851 ], [ -66.908477, 10.588711 ], [ -66.908561, 10.58855 ], [ -66.908655, 10.58843 ], [ -66.90869, 10.58836 ], [ -66.9087, 10.588242 ], [ -66.908676, 10.588177 ], [ -66.9083546, 10.5879501 ], [ -66.908118, 10.587713 ], [ -66.907897, 10.587376 ], [ -66.907752, 10.587196 ], [ -66.9075, 10.5870649 ], [ -66.9071976, 10.5868561 ], [ -66.9070666, 10.5867105 ], [ -66.906976, 10.5865809 ], [ -66.9069321, 10.5864803 ], [ -66.906924, 10.5864362 ], [ -66.9069262, 10.5864125 ], [ -66.9069505, 10.5863849 ], [ -66.9070255, 10.5862826 ], [ -66.9072916, 10.5860754 ], [ -66.9075299, 10.5857969 ], [ -66.9076258, 10.5857072 ], [ -66.9076861, 10.5856313 ], [ -66.907742, 10.5855206 ], [ -66.9077542, 10.5854501 ], [ -66.907722, 10.5853934 ], [ -66.9076482, 10.585396 ], [ -66.9074852, 10.5854443 ], [ -66.9072273, 10.5855127 ], [ -66.9071535, 10.5854982 ], [ -66.9071147, 10.585453 ], [ -66.9070999, 10.5854098 ], [ -66.9071843, 10.585311 ], [ -66.9072477, 10.5852546 ], [ -66.9072562, 10.5852013 ], [ -66.9072112, 10.5850307 ], [ -66.9070708, 10.5848544 ], [ -66.9070146, 10.584801 ], [ -66.9069285, 10.5845547 ], [ -66.9068188, 10.584253 ], [ -66.9067367, 10.5841393 ], [ -66.9063687, 10.5840407 ], [ -66.9063071, 10.5840041 ], [ -66.9062726, 10.5839114 ], [ -66.9062857, 10.5837919 ], [ -66.90629634804111, 10.583760523587548 ] ] ] } }
]
}
