{
"type": "FeatureCollection",
"name": "r4_endpoints",
"crs": { "type": "name", "properties": { "name": "urn:ogc:def:crs:OGC:1.3:CRS84" } },
"features": [
{ "type": "Feature", "properties": { "trip": "R4 — La Guaira Coast", "role": "start", "label": "site 124" }, "geometry": { "type": "Point", "coordinates": [ -66.827416405290407, 10.607474670984431 ] } },
{ "type": "Feature", "properties": { "trip": "R4 — La Guaira Coast", "role": "end", "label": "site 78" }, "geometry": { "type": "Point", "coordinates": [ -66.87333539978404, 10.606582411384785 ] } }
]
}
