{
"type": "FeatureCollection",
"name": "r4_line",
"crs": { "type": "name", "properties": { "name": "urn:ogc:def:crs:OGC:1.3:CRS84" } },
"features": [
{ "type": "Feature", "properties": { "trip": "R4 — La Guaira Coast", "start": "site 124", "end": "site 78", "km": 13.5 }, "geometry": { "type": "MultiLineString", "coordinates": [ [ [ -66.8519624, 10.6180665 ], [ -66.8526671, 10.617929 ], [ -66.8537081, 10.6177261 ], [ -66.8548803, 10.6174936 ], [ -66.8555184, 10.6173752 ], [ -66.8562499, 10.6172281 ], [ -66.8565224, 10.6171569 ], [ -66.8568567, 10.6169979 ], [ -66.8574336, 10.6165732 ], [ -66.8578156, 10.6162885 ], [ -66.8579027, 10.6162208 ], [ -66.8582895, 10.6159602 ], [ -66.8586007, 10.6156966 ], [ -66.8589155, 10.6154071 ], [ -66.8592872, 10.6150268 ], [ -66.8596437, 10.6146548 ], [ -66.8597789, 10.6144173 ], [ -66.8599053, 10.6139053 ], [ -66.8600662, 10.6135454 ], [ -66.8601675, 10.6134175 ], [ -66.8603585, 10.6132664 ], [ -66.8606322, 10.6131468 ], [ -66.8609718, 10.6130588 ], [ -66.8612895, 10.6130339 ], [ -66.8613782, 10.6130021 ], [ -66.861575, 10.6129077 ], [ -66.8617609, 10.61273 ], [ -66.8618843, 10.6125257 ], [ -66.8619199, 10.6124756 ], [ -66.8620379, 10.6123089 ], [ -66.8622383, 10.6121193 ], [ -66.8626253, 10.6118963 ], [ -66.8631899, 10.6116683 ], [ -66.8633271, 10.611634 ], [ -66.8634079, 10.6116112 ], [ -66.865268, 10.6111101 ], [ -66.8653692, 10.6110949 ], [ -66.8656361, 10.6109736 ], [ -66.8658145, 10.6108754 ], [ -66.8659177, 10.6108457 ], [ -66.8666795, 10.6107403 ], [ -66.8671529, 10.6106889 ], [ -66.8685852, 10.6105254 ], [ -66.8688212, 10.6104556 ], [ -66.8689956, 10.6103804 ], [ -66.8692356, 10.6102315 ], [ -66.8695207, 10.6099613 ], [ -66.8696872, 10.6098132 ], [ -66.8699189, 10.6096448 ], [ -66.8699863, 10.6096028 ], [ -66.8700959, 10.6095535 ], [ -66.8704225, 10.6094366 ], [ -66.8705824, 10.6093757 ], [ -66.8699305, 10.6076213 ], [ -66.8698216, 10.6073214 ], [ -66.8697137, 10.6070242 ], [ -66.8696009, 10.6067135 ], [ -66.8695672, 10.6066208 ], [ -66.8694557, 10.6063138 ], [ -66.8693538, 10.6061609 ], [ -66.8692484, 10.6059442 ], [ -66.869225, 10.6058076 ], [ -66.8692894, 10.605718 ], [ -66.8694772, 10.6056442 ], [ -66.8696864, 10.6055598 ], [ -66.8697794, 10.6054855 ], [ -66.8698258, 10.6053015 ], [ -66.8697883, 10.6050958 ], [ -66.8696936, 10.6049477 ], [ -66.8696274, 10.6047109 ], [ -66.8695362, 10.6045791 ], [ -66.8687422, 10.603978 ], [ -66.8686993, 10.6039147 ], [ -66.86871, 10.6038567 ], [ -66.8687905, 10.6038251 ], [ -66.8689354, 10.6038778 ], [ -66.8691285, 10.6040571 ], [ -66.8695523, 10.604094 ], [ -66.8696649, 10.6041362 ], [ -66.8698741, 10.6044736 ], [ -66.86996, 10.6045369 ], [ -66.8704052, 10.6047214 ], [ -66.8704803, 10.6047847 ], [ -66.8705715, 10.6049007 ], [ -66.8705983, 10.6050589 ], [ -66.8708102, 10.6053199 ], [ -66.8713091, 10.6056389 ], [ -66.8718509, 10.6058893 ], [ -66.8719823, 10.6059895 ], [ -66.8720271, 10.6060971 ], [ -66.8719582, 10.6066352 ], [ -66.8719735, 10.6068036 ], [ -66.8720011, 10.6069489 ], [ -66.8720735, 10.6070765 ], [ -66.872272, 10.6071072 ], [ -66.8724491, 10.6070385 ], [ -66.8725188, 10.6068197 ], [ -66.8725885, 10.6066879 ], [ -66.872687, 10.606598 ], [ -66.8728138, 10.6065142 ], [ -66.8728836, 10.6064035 ], [ -66.872932634870267, 10.606326366838632 ] ], [ [ -66.8534709, 10.6057132 ], [ -66.8536749, 10.6054885 ], [ -66.8537674, 10.6054384 ], [ -66.8538693, 10.6054082 ], [ -66.8539565, 10.6053989 ], [ -66.8540584, 10.6054173 ], [ -66.8541362, 10.6054569 ], [ -66.8543079, 10.6057205 ], [ -66.8543723, 10.6058049 ], [ -66.8544312, 10.605867 ], [ -66.8545063, 10.6058971 ], [ -66.8546042, 10.605896 ], [ -66.8547209, 10.6058602 ], [ -66.8549864, 10.6057905 ], [ -66.855197, 10.6057231 ], [ -66.8552721, 10.6056284 ], [ -66.8553653, 10.6055557 ], [ -66.8554703, 10.605475 ], [ -66.8555675, 10.6052811 ], [ -66.8556896, 10.6051631 ], [ -66.8558373, 10.6050092 ], [ -66.8556168, 10.6048347 ], [ -66.8553164, 10.6046976 ], [ -66.8551717, 10.6048543 ], [ -66.8550844, 10.6049307 ], [ -66.8549662, 10.6050091 ], [ -66.8546301, 10.6051413 ], [ -66.8545029, 10.6051962 ], [ -66.8544133, 10.6052112 ], [ -66.8543491, 10.6051642 ], [ -66.8543189, 10.6051246 ], [ -66.8543181, 10.605068 ], [ -66.8543721, 10.6049601 ], [ -66.8543849, 10.6048999 ], [ -66.8543754, 10.6048456 ], [ -66.8543429, 10.6046204 ], [ -66.8542987, 10.6044985 ], [ -66.8542386, 10.6044012 ], [ -66.8541533, 10.6041746 ], [ -66.8540956, 10.6039517 ], [ -66.8541128, 10.6038066 ], [ -66.8541612, 10.6037693 ], [ -66.85419, 10.6037759 ], [ -66.8542113, 10.6037908 ], [ -66.8542492, 10.6038449 ], [ -66.8543164, 10.6039444 ], [ -66.854393, 10.6040866 ], [ -66.8544482, 10.6041282 ], [ -66.8544767, 10.6041103 ], [ -66.8544894, 10.6040471 ], [ -66.8544771, 10.6038893 ], [ -66.8544281, 10.6037277 ], [ -66.8544185, 10.603437 ], [ -66.8542362, 10.6030204 ] ], [ [ -66.8519624, 10.6180665 ], [ -66.8519542, 10.6179109 ], [ -66.8521192, 10.6176513 ], [ -66.8522439, 10.6173757 ], [ -66.8522909, 10.6171728 ], [ -66.852335, 10.6168703 ], [ -66.8523754, 10.6165941 ], [ -66.8524542, 10.6162991 ], [ -66.8525691, 10.616004 ], [ -66.852699, 10.615642 ], [ -66.8528076, 10.6152424 ], [ -66.8528695, 10.6150398 ], [ -66.8528863, 10.614985 ], [ -66.8529694, 10.6147632 ], [ -66.8532461, 10.6143259 ], [ -66.8534835, 10.6141482 ], [ -66.8536591, 10.613943 ], [ -66.8538379, 10.6136396 ], [ -66.8538933, 10.6135517 ], [ -66.8539124, 10.6134303 ], [ -66.8538398, 10.6132132 ], [ -66.8537507, 10.6129658 ], [ -66.8537014, 10.612569 ], [ -66.8536229, 10.6119363 ], [ -66.8535139, 10.6115838 ], [ -66.8535043, 10.6114575 ], [ -66.8535159, 10.6113554 ], [ -66.8535797, 10.6112958 ], [ -66.8536871, 10.6112612 ], [ -66.8540635, 10.6112115 ], [ -66.8539816, 10.6105583 ], [ -66.8540476, 10.6105478 ], [ -66.8554258, 10.6103293 ], [ -66.8552381, 10.6091712 ], [ -66.8559172, 10.6090529 ], [ -66.8558314, 10.6086943 ], [ -66.8556492, 10.6084198 ], [ -66.8555095, 10.6082093 ], [ -66.8546405, 10.6071336 ], [ -66.8544121, 10.6068719 ], [ -66.8534709, 10.6057132 ] ], [ [ -66.8534709, 10.6057132 ], [ -66.8530721, 10.6052917 ], [ -66.8526986, 10.60455 ], [ -66.8523445, 10.6040859 ], [ -66.8521943, 10.6038539 ] ], [ [ -66.8498989, 10.6046955 ], [ -66.8500062, 10.6047773 ], [ -66.8501242, 10.6049671 ], [ -66.8501779, 10.6051886 ], [ -66.8502744, 10.6053995 ], [ -66.850371, 10.6055787 ], [ -66.8504908, 10.6058364 ], [ -66.8505727, 10.6059651 ], [ -66.8506701, 10.6060429 ], [ -66.8508109, 10.6061199 ], [ -66.8509682, 10.6062102 ], [ -66.8510705, 10.6062953 ], [ -66.8511029, 10.6063222 ], [ -66.8512097, 10.6064506 ], [ -66.8512777, 10.6065646 ], [ -66.8513107, 10.6066846 ], [ -66.851314, 10.6068149 ], [ -66.851289, 10.6069238 ], [ -66.8511962, 10.6071224 ], [ -66.8514281, 10.6071623 ], [ -66.8515059, 10.6079854 ], [ -66.8515239, 10.6081761 ], [ -66.8515345, 10.6083582 ], [ -66.8515622, 10.6085151 ], [ -66.8515835, 10.6085611 ], [ -66.8516718, 10.608716 ], [ -66.8517389, 10.608875 ], [ -66.8517751, 10.6090696 ], [ -66.8517953, 10.6092715 ], [ -66.8518198, 10.6094672 ], [ -66.8518567, 10.6099416 ], [ -66.8522226, 10.6099647 ], [ -66.8522912, 10.6099918 ], [ -66.8523435, 10.61003 ], [ -66.8523604, 10.6100799 ], [ -66.8523317, 10.6101346 ], [ -66.8522878, 10.6101845 ], [ -66.8520004, 10.6103708 ], [ -66.8523248, 10.6107182 ], [ -66.8523801, 10.6108101 ], [ -66.8524236, 10.6109327 ], [ -66.8524423, 10.6110751 ], [ -66.8524456, 10.6113044 ], [ -66.8524393, 10.6113902 ], [ -66.8524148, 10.6114557 ], [ -66.8523578, 10.6114893 ], [ -66.8518623, 10.6116266 ], [ -66.8519156, 10.6119049 ], [ -66.8519411, 10.6121874 ], [ -66.8519084, 10.6127527 ], [ -66.8518612, 10.6134156 ], [ -66.8517779, 10.6140239 ], [ -66.8517419, 10.6140266 ], [ -66.851709, 10.6140411 ], [ -66.8516829, 10.6140654 ], [ -66.8516665, 10.614097 ], [ -66.8516618, 10.6141312 ], [ -66.8516687, 10.6141651 ], [ -66.8516861, 10.6141946 ], [ -66.8517122, 10.6142169 ], [ -66.8517442, 10.6142299 ], [ -66.8516155, 10.6148481 ], [ -66.8514528, 10.6155279 ], [ -66.851263, 10.6162335 ], [ -66.8511962, 10.6168721 ], [ -66.8511313, 10.6175433 ], [ -66.8511054, 10.6181756 ], [ -66.8513072, 10.6181658 ], [ -66.85173, 10.6181206 ], [ -66.8519624, 10.6180665 ] ], [ [ -66.8489729, 10.5961717 ], [ -66.8492156, 10.5963212 ], [ -66.8492824, 10.5963742 ], [ -66.8493242, 10.5964173 ], [ -66.8493765, 10.5964314 ], [ -66.8494315, 10.5964496 ], [ -66.8494852, 10.596501 ], [ -66.8495362, 10.5965511 ], [ -66.8495724, 10.5966395 ], [ -66.8496569, 10.5969466 ], [ -66.8497185, 10.5971852 ], [ -66.8497776, 10.5973869 ], [ -66.8498084, 10.5975794 ], [ -66.8498607, 10.5977534 ], [ -66.8499103, 10.5978601 ], [ -66.8499988, 10.598108 ], [ -66.8500713, 10.5983334 ], [ -66.8501504, 10.5984362 ], [ -66.8502148, 10.5984968 ], [ -66.8502738, 10.5985825 ], [ -66.8502793, 10.5987485 ], [ -66.8503194, 10.5989055 ], [ -66.8503046, 10.5990835 ], [ -66.8503381, 10.5992285 ], [ -66.8504119, 10.5994671 ], [ -66.8504897, 10.5996674 ], [ -66.8505889, 10.5999403 ], [ -66.8506828, 10.6002356 ], [ -66.8507458, 10.6005612 ], [ -66.8508974, 10.6010858 ], [ -66.850935515824844, 10.601560114462169 ] ], [ [ -66.827337726196362, 10.608600156691491 ], [ -66.8274113, 10.6086053 ], [ -66.8275078, 10.6087318 ], [ -66.8275829, 10.6088795 ], [ -66.8277224, 10.6091115 ], [ -66.8279048, 10.6093118 ], [ -66.8280979, 10.6095122 ], [ -66.8283447, 10.6096282 ], [ -66.8286129, 10.6097548 ], [ -66.8289133, 10.6098075 ], [ -66.8292137, 10.6098286 ], [ -66.8294794, 10.6097915 ], [ -66.8297711, 10.6097287 ], [ -66.8300776, 10.6096283 ], [ -66.830265, 10.6095906 ], [ -66.8303778, 10.609599 ], [ -66.8304715, 10.6096492 ], [ -66.8306418, 10.6097539 ], [ -66.8307611, 10.6098872 ], [ -66.8311003, 10.6098548 ], [ -66.8313047, 10.6098301 ], [ -66.8316985, 10.6098169 ], [ -66.8322399, 10.6099027 ], [ -66.8326419, 10.6100224 ], [ -66.8330546, 10.6101216 ], [ -66.8332441, 10.6101593 ], [ -66.8334925, 10.6101866 ], [ -66.8338519, 10.6101801 ], [ -66.8341658, 10.6101484 ], [ -66.8344863, 10.6101392 ], [ -66.8345757, 10.6101143 ], [ -66.8346425, 10.6100395 ], [ -66.8347284, 10.6098813 ], [ -66.8347927, 10.6095966 ], [ -66.8348035, 10.6093118 ], [ -66.8348171, 10.6089885 ], [ -66.8357154, 10.6085737 ], [ -66.8357397, 10.6085325 ], [ -66.8360158, 10.6085315 ], [ -66.8380757, 10.6086686 ], [ -66.8393763, 10.6087432 ], [ -66.8398905, 10.6087795 ], [ -66.8400713, 10.6087529 ], [ -66.8405965, 10.6086075 ], [ -66.8412661, 10.6083601 ], [ -66.8413766, 10.6083194 ], [ -66.8416215, 10.608222 ], [ -66.8418683, 10.6081426 ], [ -66.8419522, 10.6081421 ], [ -66.8420387, 10.608165 ], [ -66.8423673, 10.6082678 ], [ -66.8425604, 10.6083311 ], [ -66.8429681, 10.6084366 ], [ -66.8433114, 10.6085209 ], [ -66.8435367, 10.6086369 ], [ -66.8440088, 10.6089322 ], [ -66.8448731, 10.6094693 ], [ -66.8448671, 10.6093329 ], [ -66.8448993, 10.6089111 ], [ -66.8448971, 10.6087175 ], [ -66.8449529, 10.6084893 ], [ -66.8450924, 10.6081308 ], [ -66.8452212, 10.6078988 ], [ -66.845425, 10.6076773 ], [ -66.8456503, 10.6075191 ], [ -66.8458542, 10.6074348 ], [ -66.8459861, 10.6077093 ], [ -66.8461868, 10.6078506 ], [ -66.8464927, 10.607921 ], [ -66.8467654, 10.6080427 ], [ -66.8469046, 10.6081523 ], [ -66.8470014, 10.6082597 ], [ -66.847076, 10.6083686 ], [ -66.847318, 10.6079919 ], [ -66.8473957, 10.6079299 ], [ -66.8474635, 10.6078988 ], [ -66.8476781, 10.6079198 ], [ -66.8479248, 10.6079093 ], [ -66.8481384, 10.6078752 ], [ -66.8482279, 10.6078261 ], [ -66.8484194, 10.6076559 ], [ -66.8485215, 10.6075144 ], [ -66.8486503, 10.6072993 ], [ -66.8488772, 10.6068928 ], [ -66.8491372, 10.6064013 ], [ -66.849313, 10.6060083 ], [ -66.8494189, 10.6057136 ], [ -66.8495234, 10.6054522 ], [ -66.8497273, 10.6049355 ], [ -66.8498989, 10.6046955 ] ], [ [ -66.8498989, 10.6046955 ], [ -66.8501135, 10.6042922 ], [ -66.8501886, 10.604134 ], [ -66.8501993, 10.6039125 ], [ -66.8501779, 10.6037016 ], [ -66.8499365, 10.6030399 ], [ -66.8498721, 10.6027156 ], [ -66.8499418, 10.6024151 ], [ -66.8500599, 10.6021725 ], [ -66.8501779, 10.6019616 ], [ -66.8502422, 10.6017085 ], [ -66.8502959, 10.6014343 ], [ -66.8502637, 10.6009914 ], [ -66.8501993, 10.6006961 ], [ -66.8501054, 10.6003363 ], [ -66.8500277, 10.6000106 ], [ -66.849974, 10.5997259 ], [ -66.8497058, 10.5992724 ], [ -66.8495771, 10.5989139 ], [ -66.8493633, 10.5984845 ], [ -66.8489904, 10.5981643 ], [ -66.8489155, 10.5978412 ], [ -66.8488924, 10.597578 ], [ -66.848818, 10.5974333 ], [ -66.8487221, 10.5973553 ], [ -66.8486725, 10.5972907 ], [ -66.8486255, 10.5970732 ], [ -66.8486162, 10.5969506 ], [ -66.8486336, 10.5967568 ], [ -66.8485893, 10.596592 ], [ -66.8485665, 10.5965103 ], [ -66.8485518, 10.5963824 ], [ -66.8486012, 10.5962922 ], [ -66.8486818, 10.5962224 ], [ -66.848733, 10.5961898 ], [ -66.8487929, 10.5961914 ], [ -66.8488501, 10.5962129 ], [ -66.848903, 10.5962173 ], [ -66.8489401, 10.5962002 ], [ -66.8489729, 10.5961717 ] ], [ [ -66.8489729, 10.5961717 ], [ -66.8490382, 10.5960692 ], [ -66.8490767, 10.596018 ], [ -66.8491268, 10.5959768 ], [ -66.8491878, 10.595925 ], [ -66.8492212, 10.5958905 ], [ -66.8492387, 10.5958361 ], [ -66.8492573, 10.5955885 ], [ -66.8492991, 10.5951711 ] ] ] } }
]
}
