{
"type": "FeatureCollection",
"name": "r5_line",
"crs": { "type": "name", "properties": { "name": "urn:ogc:def:crs:OGC:1.3:CRS84" } },
"features": [
{ "type": "Feature", "properties": { "trip": "R5 — Airport Loop", "start": "Simón Bolívar Airport", "end": "Simón Bolívar Airport", "km": 33.1 }, "geometry": { "type": "MultiLineString", "coordinates": [ [ [ -66.9717121, 10.570482 ], [ -66.9715954, 10.5703013 ], [ -66.9714546, 10.570068 ], [ -66.9711998, 10.5697094 ], [ -66.9710925, 10.5695736 ], [ -66.9708297, 10.5692691 ], [ -66.970595, 10.5690212 ], [ -66.9704917, 10.5688999 ], [ -66.9704756, 10.5688749 ], [ -66.9704689, 10.5688432 ], [ -66.9704689, 10.5688169 ], [ -66.9704796, 10.5687523 ], [ -66.9704998, 10.5686732 ], [ -66.9705226, 10.5686376 ], [ -66.970548, 10.5686231 ], [ -66.9705936, 10.5686086 ], [ -66.9707237, 10.568598 ], [ -66.9707921, 10.5685848 ], [ -66.9708565, 10.5685585 ], [ -66.9709128, 10.5685229 ], [ -66.9709812, 10.5684688 ], [ -66.9710684, 10.56837 ], [ -66.9711207, 10.5683304 ], [ -66.971173, 10.5683159 ], [ -66.9712146, 10.5683159 ], [ -66.9712561, 10.5683291 ], [ -66.9713044, 10.568362 ], [ -66.9716343, 10.5686837 ], [ -66.9716853, 10.5687285 ], [ -66.9717282, 10.5687523 ], [ -66.9717899, 10.5687734 ], [ -66.971857, 10.5687905 ], [ -66.971928, 10.5687971 ], [ -66.9719951, 10.5687945 ], [ -66.9720595, 10.5687813 ], [ -66.9721547, 10.5687431 ], [ -66.9723263, 10.5686587 ], [ -66.9725329, 10.5685809 ], [ -66.9726804, 10.5685453 ], [ -66.9727448, 10.5685348 ], [ -66.9728172, 10.5685348 ], [ -66.9728869, 10.56854 ], [ -66.9731605, 10.5686244 ], [ -66.9732705, 10.5686613 ], [ -66.9733939, 10.5687272 ], [ -66.9737211, 10.5689342 ], [ -66.9737734, 10.5689474 ], [ -66.9738512, 10.56895 ], [ -66.9739021, 10.5689448 ], [ -66.9739518, 10.5689237 ], [ -66.9739947, 10.568896 ], [ -66.9740577, 10.5688419 ], [ -66.9740886, 10.5687997 ], [ -66.9741046, 10.5687681 ], [ -66.9741127, 10.568722 ], [ -66.9741167, 10.5686798 ], [ -66.9741046, 10.5684438 ], [ -66.9740966, 10.5682684 ], [ -66.9740993, 10.5682236 ], [ -66.974114, 10.5681762 ], [ -66.9741985, 10.5679982 ], [ -66.97422, 10.5679415 ], [ -66.9742307, 10.5678888 ], [ -66.9742629, 10.5675829 ], [ -66.9742763, 10.5674642 ], [ -66.9742937, 10.5673772 ], [ -66.9743192, 10.5672981 ], [ -66.9743648, 10.5671913 ], [ -66.9744386, 10.5670582 ], [ -66.9744882, 10.5670041 ], [ -66.9745284, 10.5669685 ], [ -66.9745807, 10.5669461 ], [ -66.974629, 10.5669343 ], [ -66.9746827, 10.5669316 ], [ -66.974747, 10.5669382 ], [ -66.9747765, 10.566962 ], [ -66.974798, 10.5670055 ], [ -66.9748101, 10.5670608 ], [ -66.9748168, 10.5671386 ], [ -66.9748302, 10.5673509 ], [ -66.974849, 10.5674181 ], [ -66.9748825, 10.5674867 ], [ -66.9750582, 10.5676989 ], [ -66.9751708, 10.5678255 ], [ -66.9752634, 10.5679059 ], [ -66.9753385, 10.5679613 ], [ -66.9754069, 10.5679995 ], [ -66.9754846, 10.5680245 ], [ -66.9755772, 10.5680391 ], [ -66.975667, 10.5680404 ], [ -66.9757234, 10.5680496 ], [ -66.9761136, 10.568188 ], [ -66.9762035, 10.5682223 ], [ -66.9762571, 10.5682526 ], [ -66.976292, 10.5682829 ], [ -66.9763188, 10.5683172 ], [ -66.9763322, 10.5683541 ], [ -66.9763912, 10.5687391 ], [ -66.9763926, 10.5688077 ], [ -66.9763832, 10.5688617 ], [ -66.9763215, 10.5691122 ], [ -66.9763108, 10.5691689 ], [ -66.9763094, 10.5692084 ], [ -66.9763175, 10.5692519 ], [ -66.9763282, 10.5692968 ], [ -66.9764569, 10.5696949 ], [ -66.9764972, 10.5698597 ], [ -66.9765052, 10.5699269 ], [ -66.9765079, 10.5700139 ], [ -66.9765066, 10.570097 ], [ -66.9764918, 10.5701748 ], [ -66.9764248, 10.570387 ], [ -66.9764127, 10.570453 ], [ -66.9764087, 10.5705347 ], [ -66.9764113, 10.5706243 ], [ -66.976418, 10.5707061 ], [ -66.9764368, 10.5708142 ], [ -66.9764717, 10.5709711 ], [ -66.9765066, 10.5710858 ], [ -66.9765347, 10.571153 ], [ -66.9765589, 10.5711925 ], [ -66.9766045, 10.5712426 ], [ -66.9766594, 10.5712835 ], [ -66.9767104, 10.5712993 ], [ -66.9767828, 10.5713072 ], [ -66.9768418, 10.5713059 ], [ -66.9769022, 10.5712967 ], [ -66.9769786, 10.5712782 ], [ -66.9770618, 10.5712519 ], [ -66.9771543, 10.5712176 ], [ -66.9775218, 10.5710383 ], [ -66.977676, 10.570975 ], [ -66.9777283, 10.5709605 ], [ -66.9777672, 10.5709592 ], [ -66.9778195, 10.5709671 ], [ -66.978018, 10.5710198 ], [ -66.9781132, 10.5710409 ], [ -66.9782272, 10.5710475 ], [ -66.9785289, 10.5710475 ], [ -66.9786926, 10.5710488 ], [ -66.9787945, 10.5710568 ], [ -66.9788937, 10.5710778 ], [ -66.9789729, 10.5711055 ], [ -66.979052, 10.5711411 ], [ -66.9791324, 10.5711833 ], [ -66.9793296, 10.5713244 ], [ -66.9794141, 10.5713797 ], [ -66.9794758, 10.5714048 ], [ -66.9796045, 10.5714338 ], [ -66.9797587, 10.5714628 ], [ -66.9800229, 10.571501 ], [ -66.980172, 10.5715209 ], [ -66.9805663, 10.5715735 ], [ -66.9806063, 10.5715788 ], [ -66.9806425, 10.571588 ], [ -66.9806734, 10.5716078 ], [ -66.9807109, 10.5716434 ], [ -66.9807525, 10.5717133 ], [ -66.9808128, 10.5718398 ], [ -66.9810113, 10.5722986 ], [ -66.9811454, 10.5725583 ], [ -66.9812393, 10.5727416 ], [ -66.9813345, 10.5729749 ], [ -66.9813721, 10.5730527 ], [ -66.9814298, 10.5731358 ], [ -66.9815236, 10.5732834 ], [ -66.9815545, 10.5733533 ], [ -66.9816242, 10.5735735 ], [ -66.9816524, 10.5736671 ], [ -66.9816805, 10.5737356 ], [ -66.9818039, 10.573965 ], [ -66.9818361, 10.5740059 ], [ -66.9818737, 10.5740415 ], [ -66.9819286, 10.5740744 ], [ -66.9821365, 10.5741667 ], [ -66.9823283, 10.5742405 ], [ -66.9824088, 10.574259 ], [ -66.9825308, 10.5742801 ], [ -66.9826341, 10.574284 ], [ -66.9827507, 10.5742748 ], [ -66.9829023, 10.5742498 ], [ -66.9830485, 10.5742142 ], [ -66.9829975, 10.574052 ], [ -66.9829814, 10.5739861 ], [ -66.9829761, 10.57394 ], [ -66.9829774, 10.5739004 ], [ -66.9829895, 10.5738371 ], [ -66.9831115, 10.5734008 ], [ -66.9833368, 10.5726704 ], [ -66.9833623, 10.5725979 ], [ -66.9835031, 10.5722512 ], [ -66.9835299, 10.5722143 ], [ -66.9835621, 10.5721813 ], [ -66.9835943, 10.5721628 ], [ -66.98366, 10.5721312 ], [ -66.984053, 10.5720112 ], [ -66.9841898, 10.5719585 ], [ -66.9843104, 10.5718926 ], [ -66.9843829, 10.5718623 ], [ -66.9844942, 10.5718346 ], [ -66.9848362, 10.5717673 ], [ -66.9849421, 10.5717594 ], [ -66.9850548, 10.5717581 ], [ -66.9851486, 10.5717581 ], [ -66.9852559, 10.5717673 ], [ -66.9853726, 10.5717818 ], [ -66.9855322, 10.5718201 ], [ -66.9856247, 10.5718346 ], [ -66.9856958, 10.5718372 ], [ -66.9857615, 10.5718201 ], [ -66.985964, 10.5717423 ], [ -66.9860432, 10.5717186 ], [ -66.9862041, 10.5716935 ] ], [ [ -66.9862041, 10.5716935 ], [ -66.9863637, 10.5716711 ], [ -66.9864428, 10.5716526 ], [ -66.9865179, 10.5716236 ], [ -66.9866212, 10.5715617 ], [ -66.9867325, 10.5714813 ], [ -66.9868451, 10.5713903 ], [ -66.9870155, 10.5712532 ], [ -66.9870637, 10.5712242 ], [ -66.9870959, 10.5712176 ], [ -66.9871201, 10.5712189 ], [ -66.9871496, 10.5712347 ], [ -66.9872998, 10.5713296 ], [ -66.9873306, 10.5713455 ], [ -66.9873695, 10.57136 ], [ -66.9876565, 10.5714193 ], [ -66.9877678, 10.5714364 ], [ -66.9878268, 10.5714391 ], [ -66.9878805, 10.5714338 ], [ -66.987921, 10.5714219 ], [ -66.9879529, 10.5714008 ], [ -66.9879851, 10.5713692 ], [ -66.9880427, 10.5712756 ], [ -66.9881138, 10.571153 ], [ -66.9881581, 10.5710726 ], [ -66.9882171, 10.5710027 ], [ -66.9882855, 10.5709355 ], [ -66.9883753, 10.5708564 ], [ -66.9885001, 10.570743 ], [ -66.9885631, 10.5706744 ], [ -66.9885926, 10.5706283 ], [ -66.9886315, 10.5705597 ], [ -66.9886838, 10.5704319 ], [ -66.9887187, 10.5703528 ], [ -66.9887602, 10.5702974 ], [ -66.9888139, 10.5702473 ], [ -66.9888648, 10.570217 ], [ -66.9889265, 10.5701893 ], [ -66.9896199, 10.5699797 ], [ -66.990281, 10.5697911 ], [ -66.9903307, 10.5697714 ], [ -66.9903816, 10.5697424 ], [ -66.9904929, 10.5696857 ], [ -66.9905734, 10.569654 ], [ -66.9906378, 10.5696422 ], [ -66.9907236, 10.5696382 ], [ -66.9907987, 10.5696408 ], [ -66.9909288, 10.5696659 ], [ -66.9910549, 10.5697028 ], [ -66.9911166, 10.5697345 ], [ -66.9911487, 10.5697608 ], [ -66.9912386, 10.5698782 ], [ -66.9912815, 10.5699401 ], [ -66.991315, 10.5699836 ], [ -66.9913593, 10.5700192 ], [ -66.991421, 10.5700627 ], [ -66.9916382, 10.5701814 ], [ -66.9917187, 10.5702209 ], [ -66.9917764, 10.5702605 ], [ -66.991877, 10.5703659 ], [ -66.9919252, 10.5704266 ], [ -66.9919816, 10.5704767 ], [ -66.9920285, 10.570507 ], [ -66.9920754, 10.5705255 ], [ -66.9926012, 10.5706863 ], [ -66.9926628, 10.5706955 ], [ -66.9927232, 10.5706995 ], [ -66.9927835, 10.5706995 ], [ -66.9928385, 10.5706929 ], [ -66.9933146, 10.5705874 ], [ -66.9933803, 10.5705742 ], [ -66.9934326, 10.5705558 ], [ -66.9934809, 10.5705347 ], [ -66.99356, 10.5704833 ], [ -66.9936821, 10.5704187 ], [ -66.9938618, 10.570333 ], [ -66.9939624, 10.5702802 ], [ -66.9940683, 10.5702091 ], [ -66.99413, 10.5701497 ], [ -66.9941501, 10.570126 ], [ -66.9941702, 10.5700825 ], [ -66.9942695, 10.5698399 ], [ -66.9943151, 10.5697687 ], [ -66.994358, 10.5697265 ], [ -66.9943875, 10.5697054 ], [ -66.9944371, 10.5696883 ], [ -66.9944827, 10.5696791 ], [ -66.9945323, 10.5696659 ], [ -66.9945659, 10.5696461 ], [ -66.9946477, 10.5695815 ], [ -66.9946919, 10.5695525 ], [ -66.9947536, 10.5695222 ], [ -66.9948113, 10.5695077 ], [ -66.9948569, 10.5694998 ], [ -66.9949079, 10.5695024 ], [ -66.9949575, 10.5695169 ], [ -66.9950755, 10.5695644 ], [ -66.9951211, 10.5695762 ], [ -66.995168, 10.5695789 ], [ -66.995561, 10.5695617 ], [ -66.9956522, 10.5695604 ], [ -66.9959861, 10.5695828 ], [ -66.9960853, 10.5695934 ], [ -66.9961564, 10.5696158 ], [ -66.9962195, 10.5696408 ], [ -66.9964126, 10.5697542 ], [ -66.9965038, 10.5698109 ], [ -66.9965494, 10.5698307 ], [ -66.9965976, 10.5698439 ], [ -66.9966701, 10.5698518 ], [ -66.9968551, 10.5698597 ], [ -66.9970067, 10.5698729 ], [ -66.997122, 10.5698979 ], [ -66.9972695, 10.5699546 ], [ -66.9973795, 10.570006 ], [ -66.9974493, 10.5700429 ], [ -66.9975485, 10.5701141 ], [ -66.9976048, 10.5701497 ], [ -66.9976786, 10.570184 ], [ -66.9978113, 10.5702275 ], [ -66.9979401, 10.5702829 ], [ -66.9980313, 10.570333 ], [ -66.9981466, 10.5703818 ], [ -66.9984551, 10.5704609 ], [ -66.9985409, 10.570474 ], [ -66.9986053, 10.5704714 ], [ -66.9986616, 10.5704648 ], [ -66.9987246, 10.5704503 ], [ -66.9988064, 10.5704121 ], [ -66.9989245, 10.5703514 ], [ -66.9990116, 10.5703145 ], [ -66.9991015, 10.5702882 ], [ -66.9991753, 10.5702737 ], [ -66.9992276, 10.5702723 ], [ -66.999355, 10.5702868 ], [ -66.999481, 10.5703066 ], [ -66.9995655, 10.5703106 ], [ -66.9996433, 10.570304 ], [ -66.9996983, 10.5702895 ], [ -66.9997466, 10.5702723 ], [ -66.9998793, 10.5702156 ], [ -67.0000443, 10.5701379 ], [ -67.0001301, 10.5700878 ], [ -67.0001744, 10.5700416 ], [ -67.0002066, 10.5699955 ], [ -67.0003608, 10.5696527 ], [ -67.0004278, 10.5695182 ], [ -67.0004708, 10.5694523 ], [ -67.000515, 10.5694075 ], [ -67.0005499, 10.5693864 ], [ -67.0006008, 10.5693719 ], [ -67.0006612, 10.569368 ], [ -67.0007497, 10.5693759 ], [ -67.0010193, 10.569426 ], [ -67.0015115, 10.5695196 ], [ -67.0017327, 10.5695433 ], [ -67.0018521, 10.5695472 ], [ -67.0019339, 10.5695472 ], [ -67.0020881, 10.5695327 ], [ -67.0023027, 10.5695077 ], [ -67.002406, 10.5694985 ], [ -67.0024851, 10.5695011 ], [ -67.0026635, 10.5695288 ], [ -67.0028526, 10.5695617 ], [ -67.00298, 10.5695855 ], [ -67.0030336, 10.5695855 ], [ -67.0030779, 10.5695789 ], [ -67.0031154, 10.5695552 ], [ -67.0031369, 10.5695222 ], [ -67.0031503, 10.5694708 ], [ -67.0032039, 10.5691056 ], [ -67.0032187, 10.5690278 ], [ -67.0032214, 10.5689593 ], [ -67.0032187, 10.5688538 ], [ -67.0032187, 10.5687786 ], [ -67.0032348, 10.5685057 ], [ -67.003267, 10.568134 ], [ -67.0032763, 10.5680641 ], [ -67.0032951, 10.5679731 ], [ -67.0033313, 10.56784 ], [ -67.0033877, 10.5676686 ], [ -67.0034091, 10.5675737 ], [ -67.0034212, 10.5674946 ], [ -67.0034373, 10.5672995 ], [ -67.003444, 10.5669237 ], [ -67.003448, 10.5668011 ], [ -67.0034507, 10.5666891 ], [ -67.0034641, 10.5666416 ], [ -67.0034842, 10.5665968 ], [ -67.0035285, 10.566544 ], [ -67.0037256, 10.5663502 ], [ -67.0037927, 10.5662711 ], [ -67.0038356, 10.5662026 ], [ -67.0038758, 10.5661274 ], [ -67.0038879, 10.5660523 ], [ -67.0038879, 10.5660048 ], [ -67.0038852, 10.5659758 ], [ -67.0038611, 10.5658994 ], [ -67.003676, 10.5653878 ], [ -67.0036612, 10.5653206 ], [ -67.0036599, 10.5652824 ], [ -67.0036626, 10.5652428 ], [ -67.0037484, 10.5648974 ], [ -67.0037994, 10.5647603 ], [ -67.0038329, 10.5646851 ], [ -67.0038597, 10.5646416 ], [ -67.0042259, 10.5641354 ], [ -67.0043559, 10.5639403 ], [ -67.0044056, 10.563873 ], [ -67.0045182, 10.5637491 ], [ -67.0051163, 10.5631202 ], [ -67.0052142, 10.5630029 ], [ -67.0052531, 10.5629462 ], [ -67.0053309, 10.5628078 ], [ -67.0054047, 10.5626522 ], [ -67.0054489, 10.5625401 ], [ -67.0054905, 10.5623991 ], [ -67.0055133, 10.5622633 ], [ -67.005512, 10.562171 ], [ -67.0054986, 10.562113 ], [ -67.0054744, 10.5620563 ], [ -67.0054463, 10.5620194 ], [ -67.0054047, 10.5619825 ], [ -67.0053537, 10.5619508 ], [ -67.0052853, 10.5619179 ], [ -67.0051807, 10.5618862 ], [ -67.0050426, 10.5618533 ], [ -67.004883, 10.5618098 ], [ -67.0042446, 10.5616199 ], [ -67.0041709, 10.5615935 ], [ -67.0041387, 10.5615724 ], [ -67.0040944, 10.5615355 ], [ -67.0039576, 10.5614076 ], [ -67.0038463, 10.5613022 ], [ -67.0038034, 10.5612771 ], [ -67.0037457, 10.5612534 ], [ -67.0037028, 10.5612442 ], [ -67.0031986, 10.5612283 ], [ -67.0030671, 10.5612244 ], [ -67.002992, 10.5612178 ], [ -67.002929, 10.5612007 ], [ -67.0023108, 10.5609106 ], [ -67.0021351, 10.560817 ], [ -67.0020667, 10.5607722 ], [ -67.0019983, 10.5607194 ], [ -67.0018266, 10.5605744 ], [ -67.0017716, 10.5605428 ], [ -67.0017193, 10.5605204 ], [ -67.00138, 10.5604254 ], [ -67.0011547, 10.5603582 ], [ -67.0010676, 10.5603239 ], [ -67.0010152, 10.5602923 ], [ -67.0009844, 10.5602686 ], [ -67.00089097808511, 10.560158739734229 ], [ -67.0006974, 10.5599311 ], [ -67.0006612, 10.559873 ], [ -67.0006478, 10.5598216 ], [ -67.0006451, 10.5597531 ], [ -67.0006545, 10.5596898 ], [ -67.0006867, 10.5595408 ], [ -67.0006934, 10.5594788 ], [ -67.000692, 10.5594208 ], [ -67.0006759, 10.5593483 ], [ -67.0006491, 10.5592969 ], [ -67.0006049, 10.5592429 ], [ -67.0005472, 10.5591914 ], [ -67.0004761, 10.5591545 ], [ -67.0004091, 10.5591321 ], [ -67.0003112, 10.5591189 ], [ -67.0002146, 10.559111 ], [ -67.0001341, 10.5591031 ], [ -67.0001006, 10.5590952 ], [ -67.0000577, 10.5590728 ], [ -66.9999625, 10.5590134 ], [ -66.9998807, 10.5589686 ], [ -66.9998136, 10.5589423 ], [ -66.9997425, 10.5589264 ], [ -66.9996406, 10.5589225 ], [ -66.9993536, 10.5589278 ], [ -66.9992785, 10.558937 ], [ -66.9991954, 10.5589594 ], [ -66.9990465, 10.5590174 ], [ -66.9989821, 10.5590438 ], [ -66.9989459, 10.5590438 ], [ -66.998899, 10.5590332 ], [ -66.9988453, 10.5589963 ], [ -66.9986589, 10.5588421 ], [ -66.9984041, 10.5586324 ], [ -66.9983304, 10.5585876 ], [ -66.9982861, 10.5585652 ], [ -66.9982351, 10.558552 ], [ -66.9980916, 10.5585177 ], [ -66.998034, 10.5584927 ], [ -66.9979736, 10.5584505 ], [ -66.9979173, 10.5583991 ], [ -66.9978006, 10.5582514 ], [ -66.9977081, 10.5581183 ], [ -66.997342, 10.5574907 ], [ -66.9971623, 10.5571176 ], [ -66.997059, 10.5569264 ], [ -66.9970268, 10.5568539 ], [ -66.996996, 10.5567695 ], [ -66.9969584, 10.5566561 ], [ -66.9969356, 10.5565915 ], [ -66.9968726, 10.5564755 ], [ -66.9965923, 10.5560088 ], [ -66.9963951, 10.5556858 ], [ -66.9963563, 10.5556238 ], [ -66.996312, 10.5555658 ], [ -66.9961377, 10.5553826 ], [ -66.9959405, 10.5551874 ], [ -66.9958413, 10.5550793 ], [ -66.9956844, 10.554875 ], [ -66.9956294, 10.5548143 ], [ -66.9955757, 10.5547866 ], [ -66.9955207, 10.5547721 ], [ -66.9954631, 10.5547761 ], [ -66.9954121, 10.5547906 ], [ -66.9953357, 10.5548236 ], [ -66.9951828, 10.5549 ], [ -66.9951399, 10.5549145 ], [ -66.9944184, 10.55502 ], [ -66.9936901, 10.5551097 ], [ -66.993615, 10.5551097 ], [ -66.9935493, 10.5550952 ], [ -66.9934903, 10.5550661 ], [ -66.9933938, 10.5549923 ], [ -66.9933549, 10.5549462 ], [ -66.9933307, 10.5548921 ], [ -66.9933066, 10.5548196 ], [ -66.993265, 10.5546166 ], [ -66.9932489, 10.5545375 ], [ -66.9932047, 10.5544109 ], [ -66.9931135, 10.5542197 ], [ -66.9930638, 10.5541261 ], [ -66.9930317, 10.5540628 ], [ -66.9930008, 10.5539692 ], [ -66.9929445, 10.5537952 ], [ -66.9929042, 10.553637 ], [ -66.9928801, 10.5535091 ], [ -66.9928546, 10.5532823 ], [ -66.9928412, 10.5531769 ], [ -66.992809, 10.5530028 ], [ -66.9927876, 10.552896 ], [ -66.9927809, 10.5528367 ], [ -66.9927621, 10.5525335 ], [ -66.9927433, 10.5524056 ], [ -66.9927192, 10.5523001 ], [ -66.9926374, 10.5519863 ], [ -66.992569, 10.5517793 ], [ -66.9925328, 10.5516778 ], [ -66.9924188, 10.5514365 ], [ -66.9923973, 10.5513733 ], [ -66.9923826, 10.5512876 ], [ -66.9923705, 10.5511148 ], [ -66.9923665, 10.550979 ], [ -66.9923651, 10.5509144 ], [ -66.9923705, 10.5508551 ], [ -66.9924054, 10.5506679 ], [ -66.9924791, 10.5503238 ], [ -66.9924805, 10.5502724 ], [ -66.9924684, 10.550213 ], [ -66.9924469, 10.5501708 ], [ -66.9924094, 10.55013 ], [ -66.9923571, 10.5500931 ], [ -66.9923115, 10.5500746 ], [ -66.9922484, 10.5500588 ], [ -66.9921774, 10.5500522 ], [ -66.9921076, 10.5500482 ], [ -66.9920419, 10.5500377 ], [ -66.9916664, 10.5499559 ], [ -66.9915015, 10.549923 ], [ -66.9914585, 10.5499098 ], [ -66.9914143, 10.5498847 ], [ -66.9913888, 10.5498597 ], [ -66.9913204, 10.5497608 ], [ -66.9912922, 10.5497292 ], [ -66.9912453, 10.5496923 ], [ -66.9911554, 10.5496408 ], [ -66.9908081, 10.5494773 ], [ -66.9907504, 10.5494536 ], [ -66.9906981, 10.5494483 ], [ -66.9906351, 10.5494563 ], [ -66.990564, 10.5494721 ], [ -66.9905211, 10.5494945 ], [ -66.9904594, 10.5495327 ], [ -66.990387, 10.5495921 ], [ -66.990269, 10.5496804 ], [ -66.99021, 10.5497186 ], [ -66.9901362, 10.5497397 ], [ -66.9900504, 10.5497516 ], [ -66.9899645, 10.5497542 ], [ -66.9898988, 10.5497371 ], [ -66.9898438, 10.5497094 ], [ -66.989817, 10.5496886 ], [ -66.9897936, 10.5496646 ], [ -66.9897751, 10.5496389 ], [ -66.9897594, 10.5496092 ], [ -66.9897419, 10.5495551 ], [ -66.9897339, 10.5495103 ], [ -66.9897272, 10.5494286 ], [ -66.9897285, 10.5493534 ], [ -66.9897392, 10.5493152 ], [ -66.9897741, 10.5492664 ], [ -66.989817, 10.5492176 ], [ -66.9900075, 10.5490713 ], [ -66.9900274338125, 10.549054373152442 ], [ -66.9900665, 10.5490212 ], [ -66.9901228, 10.5489434 ], [ -66.9901711, 10.5488564 ], [ -66.9902502, 10.5487746 ], [ -66.9904621, 10.5485927 ], [ -66.9904929, 10.5485544 ], [ -66.9905077, 10.5485215 ], [ -66.9905157, 10.5484859 ], [ -66.9905144, 10.5484424 ], [ -66.9904353, 10.5477067 ], [ -66.9904259, 10.5476526 ], [ -66.9904111, 10.5476104 ], [ -66.990391, 10.5475696 ], [ -66.9903615, 10.547534 ], [ -66.990324, 10.5474799 ], [ -66.9902824, 10.547414 ], [ -66.9902301, 10.5473177 ], [ -66.9901805, 10.5472241 ], [ -66.9900437, 10.5468892 ], [ -66.9900236, 10.5468563 ], [ -66.9899954, 10.5468299 ], [ -66.9899713, 10.5468154 ], [ -66.9898948, 10.5467943 ], [ -66.9897915, 10.5467706 ], [ -66.9897285, 10.5467363 ], [ -66.989691, 10.5467073 ], [ -66.9896628, 10.5466691 ], [ -66.9896333, 10.546615 ], [ -66.9895327, 10.5463764 ], [ -66.9895019, 10.5463184 ], [ -66.989463, 10.5462814 ], [ -66.9893999, 10.5462248 ], [ -66.9893517, 10.546172 ], [ -66.989302, 10.5460929 ], [ -66.9892725, 10.546023 ], [ -66.9892605, 10.5459782 ], [ -66.9892578, 10.5459321 ], [ -66.9892631, 10.5458872 ], [ -66.9893155, 10.5456328 ], [ -66.9893128, 10.5455972 ], [ -66.9893007, 10.5455589 ], [ -66.9892739, 10.5455022 ], [ -66.9892149, 10.545373 ], [ -66.9891813, 10.5452992 ], [ -66.9891585, 10.5452293 ], [ -66.9891197, 10.5450619 ], [ -66.9890888, 10.544959 ], [ -66.9890673, 10.5449155 ], [ -66.9890378, 10.5448773 ], [ -66.9889654, 10.5448232 ], [ -66.9888461, 10.5447402 ], [ -66.9887294, 10.5446756 ], [ -66.9886328, 10.5446321 ], [ -66.988433, 10.5445569 ], [ -66.9883485, 10.5445279 ], [ -66.9882962, 10.5445226 ], [ -66.9881661, 10.5445081 ], [ -66.9881044, 10.5444923 ], [ -66.9880696, 10.5444699 ], [ -66.9880267, 10.5444185 ], [ -66.9879971, 10.5443684 ], [ -66.9879837, 10.5443288 ], [ -66.9879811, 10.5442866 ], [ -66.9879811, 10.5442392 ], [ -66.9879878, 10.5441284 ], [ -66.9880039, 10.5438331 ], [ -66.9879998, 10.5436353 ], [ -66.9879904, 10.5435509 ], [ -66.98798320509357, 10.543522523826979 ], [ -66.9879797, 10.5435087 ], [ -66.9879569, 10.5434705 ], [ -66.9879314, 10.5434375 ], [ -66.9878684, 10.5433901 ], [ -66.9877946, 10.5433413 ], [ -66.9877262, 10.5432872 ], [ -66.9875774, 10.5431185 ], [ -66.986998, 10.5424988 ], [ -66.9867982, 10.5422707 ], [ -66.9864951, 10.5420439 ], [ -66.9863597, 10.5419424 ], [ -66.9863221, 10.5419002 ], [ -66.986298, 10.5418593 ], [ -66.9862416, 10.5417486 ], [ -66.9861934, 10.5416655 ], [ -66.9861236, 10.5415561 ], [ -66.9860539, 10.5414664 ], [ -66.9859989, 10.5414097 ], [ -66.9859144, 10.5413359 ], [ -66.9856945, 10.5411632 ], [ -66.9854209, 10.5409694 ], [ -66.985213, 10.5408138 ], [ -66.9851044, 10.5407347 ], [ -66.9850454, 10.5407096 ], [ -66.9849783, 10.5406978 ], [ -66.984926, 10.5407004 ], [ -66.984867, 10.5407215 ], [ -66.9848093, 10.5407492 ], [ -66.984686, 10.5408507 ], [ -66.9846229, 10.5408982 ], [ -66.9843842, 10.5410472 ], [ -66.9843279, 10.5410722 ], [ -66.9842796, 10.5410762 ], [ -66.9842246, 10.5410617 ], [ -66.9841777, 10.5410366 ], [ -66.9841388, 10.541001 ], [ -66.9841053, 10.5409522 ], [ -66.98388, 10.5403747 ], [ -66.983837, 10.5402693 ], [ -66.9837257, 10.5399528 ], [ -66.9837002, 10.5399106 ], [ -66.98366, 10.539879 ], [ -66.9836158, 10.5398618 ], [ -66.9835219, 10.5398368 ], [ -66.9830525, 10.5397867 ], [ -66.9829251, 10.5397827 ], [ -66.9825549, 10.539788 ], [ -66.9824986, 10.5397814 ], [ -66.9821794, 10.5396944 ], [ -66.982168, 10.5396852 ], [ -66.9821627, 10.539672 ], [ -66.9820681, 10.5392698 ], [ -66.9820493, 10.5392092 ], [ -66.9820252, 10.5391565 ], [ -66.9819635, 10.5390694 ], [ -66.9817543, 10.5388374 ], [ -66.981647, 10.5387477 ], [ -66.9815719, 10.5386963 ], [ -66.9814941, 10.5386541 ], [ -66.9813962, 10.5386251 ], [ -66.9812541, 10.5385882 ], [ -66.9811361, 10.5385447 ], [ -66.9809148, 10.5384194 ], [ -66.980845, 10.5383733 ], [ -66.9807351, 10.5382994 ], [ -66.9806908, 10.5382744 ], [ -66.9806331, 10.5382559 ], [ -66.9804923, 10.5382243 ], [ -66.9803368, 10.5381781 ], [ -66.9802402, 10.5381412 ], [ -66.980157, 10.5380938 ], [ -66.9800578, 10.5380212 ], [ -66.9799277, 10.5379013 ], [ -66.9798747, 10.5378386 ], [ -66.9798298, 10.5377734 ], [ -66.9798097, 10.5377272 ], [ -66.9797775, 10.5376283 ], [ -66.9797534, 10.5375716 ], [ -66.9797239, 10.5375176 ], [ -66.979681, 10.5374622 ], [ -66.9796112, 10.537395 ], [ -66.9795415, 10.5373383 ], [ -66.9793805, 10.5372433 ], [ -66.9793282, 10.5372236 ], [ -66.9792773, 10.5372117 ], [ -66.9792277, 10.5372117 ], [ -66.9791298, 10.5372302 ], [ -66.9790245, 10.5372585 ], [ -66.9785853, 10.5373765 ], [ -66.9784987, 10.5374049 ], [ -66.9784136, 10.5374424 ], [ -66.9783331, 10.5374859 ], [ -66.9778946, 10.537751 ], [ -66.9777726, 10.537805 ], [ -66.9777069, 10.5378248 ], [ -66.9776465, 10.5378287 ], [ -66.9774091, 10.5378287 ], [ -66.9773179, 10.5378222 ], [ -66.9772955, 10.5378175 ], [ -66.977275, 10.537809 ], [ -66.9772556, 10.5377955 ], [ -66.9772401, 10.5377786 ], [ -66.9772026, 10.5377167 ], [ -66.9771944, 10.5376956 ], [ -66.9771892, 10.5376732 ], [ -66.9771873, 10.5376484 ], [ -66.9771878, 10.537627 ], [ -66.9772187, 10.5372302 ], [ -66.9772348, 10.5371827 ], [ -66.9772549, 10.5371445 ], [ -66.9772884, 10.5371036 ], [ -66.9775097, 10.5368768 ], [ -66.9776532, 10.5367212 ], [ -66.9778074, 10.5365432 ], [ -66.9778678, 10.5364654 ], [ -66.9779322, 10.5363586 ], [ -66.9779791, 10.5362729 ], [ -66.9780394, 10.5361793 ], [ -66.9780998, 10.5361002 ], [ -66.9781414, 10.5360409 ], [ -66.9782098, 10.5359618 ], [ -66.978427, 10.5357574 ], [ -66.9784713, 10.5357047 ], [ -66.9784954, 10.5356598 ], [ -66.9785129, 10.535611 ], [ -66.9785182, 10.5355702 ], [ -66.9785169, 10.5355346 ], [ -66.9785061, 10.5355069 ], [ -66.9784807, 10.535466 ], [ -66.9780636, 10.5350204 ], [ -66.9777793, 10.5347303 ], [ -66.9776733, 10.5346168 ] ], [ [ -66.9776733, 10.5346168 ], [ -66.977668, 10.5346617 ], [ -66.9776706, 10.5347079 ], [ -66.9776908, 10.5347936 ], [ -66.9777176, 10.5348793 ], [ -66.9777833, 10.535027 ], [ -66.9778235, 10.5350929 ], [ -66.9778638, 10.5351575 ], [ -66.9779255, 10.535234 ], [ -66.9779684, 10.5352801 ], [ -66.9780126, 10.5353117 ], [ -66.978073, 10.5353447 ], [ -66.9781427, 10.535379 ], [ -66.9781856, 10.5354133 ], [ -66.9782098, 10.5354647 ], [ -66.9782192, 10.5354871 ], [ -66.9782192, 10.5355069 ], [ -66.9782071, 10.5355359 ], [ -66.9781736, 10.5355754 ], [ -66.9780716, 10.5356348 ], [ -66.9780287, 10.5356532 ], [ -66.9779791, 10.5356598 ], [ -66.9779482, 10.5356532 ], [ -66.9779027, 10.5356348 ], [ -66.9776827, 10.5354476 ], [ -66.9775553, 10.5353368 ], [ -66.9775178, 10.5353012 ], [ -66.9774668, 10.5352445 ], [ -66.9773595, 10.5350955 ], [ -66.9772401, 10.5349162 ], [ -66.9772147, 10.5348938 ], [ -66.977047, 10.5348226 ], [ -66.9769532, 10.5347791 ], [ -66.9767922, 10.5346828 ], [ -66.9766541, 10.5345932 ], [ -66.976418, 10.5344613 ], [ -66.9763054, 10.5344086 ], [ -66.976237, 10.5343862 ], [ -66.9761525, 10.5343743 ], [ -66.9760734, 10.5343717 ], [ -66.9760523, 10.5343717 ], [ -66.9760104, 10.5343717 ], [ -66.9759605, 10.5343775 ], [ -66.975942, 10.5343796 ], [ -66.9758923, 10.5343743 ], [ -66.9758306, 10.5343532 ], [ -66.9756929, 10.5342747 ], [ -66.9756456, 10.5342477 ], [ -66.975494, 10.5341778 ], [ -66.9754229, 10.5341541 ], [ -66.9753847, 10.5341443 ], [ -66.9753666, 10.5341396 ], [ -66.9753367, 10.5341353 ], [ -66.9752929, 10.5341291 ], [ -66.9748583, 10.5341027 ], [ -66.9747497, 10.5340869 ], [ -66.9746706, 10.5340658 ], [ -66.9743796, 10.5339682 ], [ -66.9741583, 10.5339023 ], [ -66.9739638, 10.5338627 ], [ -66.973827, 10.5338495 ], [ -66.9737667, 10.5338508 ], [ -66.9737117, 10.5338649 ], [ -66.9736765, 10.5338767 ], [ -66.9736514, 10.5338851 ], [ -66.9736205, 10.533901 ], [ -66.973583, 10.5339234 ], [ -66.9735387, 10.5339471 ], [ -66.9734958, 10.533959 ], [ -66.9734771, 10.5339604 ], [ -66.9734623, 10.5339616 ], [ -66.9734019, 10.533959 ], [ -66.9732745, 10.53393 ], [ -66.9731981, 10.5339049 ], [ -66.9731659, 10.5338891 ], [ -66.9731323, 10.5338561 ], [ -66.9730747, 10.5337638 ], [ -66.9729942, 10.533657 ], [ -66.9729513, 10.5336214 ], [ -66.9729111, 10.5335964 ], [ -66.97284, 10.5335173 ], [ -66.9727153, 10.533479 ], [ -66.9725704, 10.5334579 ], [ -66.9724846, 10.5334527 ], [ -66.9724001, 10.5334672 ], [ -66.9722915, 10.5335001 ], [ -66.9721936, 10.5335489 ], [ -66.97203, 10.5336227 ], [ -66.971928, 10.5336557 ], [ -66.9718207, 10.533686 ], [ -66.9717255, 10.5336992 ], [ -66.9716337, 10.5337183 ], [ -66.9715177, 10.5337546 ], [ -66.971637, 10.5337638 ], [ -66.9717792, 10.5337638 ], [ -66.971983, 10.5337493 ], [ -66.9721748, 10.5337164 ], [ -66.9722673, 10.5336926 ], [ -66.972329, 10.53369 ], [ -66.9723947, 10.5337071 ], [ -66.9724913, 10.5337493 ], [ -66.9725624, 10.5337942 ], [ -66.972616, 10.5338456 ], [ -66.9726469, 10.533897 ], [ -66.9726737, 10.5339695 ], [ -66.9726925, 10.534046 ], [ -66.972722, 10.5341726 ], [ -66.9727354, 10.5342082 ], [ -66.9727957, 10.5342939 ], [ -66.9728708, 10.5343624 ], [ -66.9729741, 10.5344323 ], [ -66.9730666, 10.5344745 ], [ -66.9734851, 10.5346024 ], [ -66.9738297, 10.5347138 ], [ -66.9738847, 10.5347316 ], [ -66.9739772, 10.5347672 ], [ -66.9742892, 10.5349304 ], [ -66.9746679, 10.5351285 ], [ -66.9750984, 10.5353526 ], [ -66.97514, 10.5353677 ], [ -66.9751896, 10.5353856 ], [ -66.9752862, 10.5354067 ], [ -66.9755034, 10.5354423 ], [ -66.9756214, 10.5354673 ], [ -66.975718, 10.5355082 ], [ -66.9757432, 10.535525 ], [ -66.9758213, 10.5355768 ], [ -66.9758521, 10.535615 ], [ -66.9758722, 10.5356611 ], [ -66.9759125, 10.5357824 ], [ -66.975942, 10.5358471 ], [ -66.9759768, 10.5358945 ], [ -66.9760264, 10.5359591 ], [ -66.9760399, 10.5360013 ], [ -66.9760372, 10.5360738 ], [ -66.9760224, 10.53612 ], [ -66.9759996, 10.5361609 ], [ -66.9758092, 10.5363534 ], [ -66.9756925, 10.5364641 ], [ -66.9755772, 10.5365314 ], [ -66.9754739, 10.5365854 ], [ -66.9753854, 10.5366527 ], [ -66.9752781, 10.5367357 ], [ -66.9751762, 10.5368465 ], [ -66.9751252, 10.5369111 ], [ -66.9750863, 10.5369717 ], [ -66.9750568, 10.5370324 ], [ -66.9750461, 10.5371023 ], [ -66.9750434, 10.5371642 ], [ -66.9750555, 10.5372091 ], [ -66.9751263, 10.5373437 ], [ -66.9751547, 10.5373976 ], [ -66.9751923, 10.5374767 ], [ -66.9752017, 10.5375347 ], [ -66.9752017, 10.5376191 ], [ -66.9751923, 10.5377206 ], [ -66.9751748, 10.5378011 ], [ -66.9751266, 10.5379144 ], [ -66.9750972, 10.5379951 ], [ -66.9750743, 10.5380582 ], [ -66.9750582, 10.5381083 ], [ -66.9750206, 10.5384221 ], [ -66.9750179, 10.5384827 ], [ -66.975022, 10.5385447 ], [ -66.97503, 10.5385987 ], [ -66.9750394, 10.5386673 ], [ -66.9750421, 10.5388532 ], [ -66.9750381, 10.5390536 ], [ -66.975026, 10.5391762 ], [ -66.9750153, 10.539229 ], [ -66.975006925127317, 10.539256792170089 ], [ -66.9750018, 10.5392738 ], [ -66.9749509, 10.5393911 ], [ -66.9749402, 10.5394544 ], [ -66.9749334, 10.5396733 ], [ -66.9749348, 10.5397392 ], [ -66.9749241, 10.5397735 ], [ -66.9748972, 10.5398144 ], [ -66.9748355, 10.5398803 ], [ -66.9746384, 10.5401031 ], [ -66.9746076, 10.5401506 ], [ -66.9745968, 10.5401862 ], [ -66.9745955, 10.5402402 ], [ -66.9746237, 10.5405198 ], [ -66.974625, 10.5405923 ], [ -66.9746196, 10.5406503 ], [ -66.9745968, 10.540736 ], [ -66.9745794, 10.5407993 ], [ -66.9745713, 10.5408467 ], [ -66.9746076, 10.5411935 ], [ -66.974621, 10.5412898 ], [ -66.9746357, 10.5413372 ], [ -66.9746666, 10.5413675 ], [ -66.9747269, 10.5413979 ], [ -66.9747873, 10.5414084 ], [ -66.9748302, 10.5414045 ], [ -66.9748718, 10.5413834 ], [ -66.9749066, 10.5413399 ], [ -66.9750153, 10.5411052 ], [ -66.9750635, 10.5410089 ], [ -66.9751172, 10.5409351 ], [ -66.9751628, 10.5408916 ], [ -66.9752124, 10.5408626 ], [ -66.975262, 10.5408494 ], [ -66.9753157, 10.5408454 ], [ -66.9753774, 10.5408547 ], [ -66.9755772, 10.540914 ], [ -66.9757569, 10.5409575 ], [ -66.9758293, 10.5409575 ], [ -66.975891, 10.5409549 ], [ -66.9760934, 10.5409187 ], [ -66.9763416, 10.5408744 ], [ -66.9764261, 10.5408612 ], [ -66.9764851, 10.5408573 ], [ -66.9765441, 10.5408744 ], [ -66.9768646, 10.5410933 ], [ -66.9769599, 10.5411737 ], [ -66.9770108, 10.5412001 ], [ -66.9770497, 10.5412093 ], [ -66.9773944, 10.5412476 ], [ -66.9774614, 10.5412436 ], [ -66.9775325, 10.5412344 ], [ -66.9775969, 10.5412397 ], [ -66.9777404, 10.5412792 ], [ -66.9780099, 10.5413517 ], [ -66.9780529, 10.5413557 ], [ -66.9780971, 10.5413504 ], [ -66.9781414, 10.5413399 ], [ -66.9782674, 10.541295 ], [ -66.9783144, 10.5412898 ], [ -66.9783975, 10.5412963 ], [ -66.9785102, 10.5413135 ], [ -66.9785799, 10.5413188 ], [ -66.9786698, 10.5413174 ], [ -66.978765, 10.5413095 ], [ -66.9788307, 10.5412963 ], [ -66.9788843, 10.5412739 ], [ -66.9789916, 10.5412146 ], [ -66.9791284, 10.5411249 ], [ -66.9792129, 10.5410814 ], [ -66.9793175, 10.5410379 ], [ -66.9793873, 10.5410247 ], [ -66.9794382, 10.54103 ], [ -66.9794825, 10.5410485 ], [ -66.9795415, 10.5410893 ], [ -66.9795831, 10.5411434 ], [ -66.9796005, 10.5412014 ], [ -66.9796045, 10.5412581 ], [ -66.9795884, 10.5416655 ], [ -66.9795831, 10.5417473 ], [ -66.9795777, 10.5418026 ], [ -66.9795643, 10.5418475 ], [ -66.9795053, 10.542011 ], [ -66.9794208, 10.5422259 ], [ -66.979398, 10.5422944 ], [ -66.9793591, 10.5424619 ], [ -66.9793484, 10.5425186 ], [ -66.9793336, 10.5425634 ], [ -66.9793095, 10.5425977 ], [ -66.9791378, 10.5427862 ], [ -66.9791056, 10.5428429 ], [ -66.97906, 10.5429312 ], [ -66.9789943, 10.5431158 ], [ -66.9789541, 10.5432793 ], [ -66.9789474, 10.5433466 ], [ -66.9789527, 10.5434033 ], [ -66.9789621, 10.5434468 ], [ -66.9789836, 10.5434903 ], [ -66.9790091, 10.5435206 ], [ -66.9790372, 10.5435325 ], [ -66.9790936, 10.5435377 ], [ -66.9791405, 10.5435285 ], [ -66.9792062, 10.5434969 ], [ -66.9794597, 10.5432543 ], [ -66.9795187, 10.5432081 ], [ -66.979571, 10.5431791 ], [ -66.9796313, 10.543158 ], [ -66.9797681, 10.5431303 ], [ -66.9798821, 10.5430855 ], [ -66.9799747, 10.5430314 ], [ -66.9800109, 10.5430064 ], [ -66.9800484, 10.5429603 ], [ -66.9801195, 10.5428363 ], [ -66.9801517, 10.5428073 ], [ -66.9801919, 10.5427849 ], [ -66.9802348, 10.542777 ], [ -66.9802791, 10.5427757 ], [ -66.9803274, 10.542802 ], [ -66.9803689, 10.542839 ], [ -66.9805272, 10.5430631 ], [ -66.9805942, 10.543158 ], [ -66.9806291, 10.5431963 ], [ -66.9806667, 10.5432213 ], [ -66.9810677, 10.543452 ], [ -66.9811307, 10.5434876 ], [ -66.981183, 10.5435074 ], [ -66.981234, 10.5435114 ], [ -66.9813305, 10.5435074 ], [ -66.9814056, 10.5435114 ], [ -66.9814432, 10.5435232 ], [ -66.9815062, 10.5435667 ], [ -66.9817208, 10.5437698 ], [ -66.9817597, 10.5438133 ], [ -66.9817838, 10.5438568 ], [ -66.981816, 10.543924 ], [ -66.9818495, 10.5439913 ], [ -66.9818817, 10.5440427 ], [ -66.9819179, 10.5440915 ], [ -66.9819649, 10.5441416 ], [ -66.9821633, 10.5442893 ], [ -66.9825563, 10.5445833 ], [ -66.9826233, 10.5446268 ], [ -66.9826716, 10.5446452 ], [ -66.9827078, 10.5446492 ], [ -66.9827507, 10.5446413 ], [ -66.9830391, 10.5445319 ], [ -66.9831048, 10.5445147 ], [ -66.9831745, 10.5445042 ], [ -66.9832322, 10.5445081 ], [ -66.9832926, 10.5445187 ], [ -66.9833475, 10.5445477 ], [ -66.9833811, 10.5445833 ], [ -66.9833998, 10.5446176 ], [ -66.9834508, 10.5447573 ], [ -66.9834682, 10.5447916 ], [ -66.9835004, 10.5448206 ], [ -66.9835407, 10.5448311 ], [ -66.9835822, 10.5448311 ], [ -66.9837767, 10.5448048 ], [ -66.9838384, 10.544814 ], [ -66.9838853, 10.5448325 ], [ -66.9839242, 10.5448602 ], [ -66.9842139, 10.545228 ], [ -66.9842407, 10.5452715 ], [ -66.9842501, 10.5453269 ], [ -66.9842447, 10.5453994 ], [ -66.98423, 10.5454561 ], [ -66.9841468, 10.5456169 ], [ -66.9841214, 10.5456842 ], [ -66.9841146, 10.5457382 ], [ -66.9841146, 10.5457936 ], [ -66.9841214, 10.5458384 ], [ -66.9841495, 10.545907 ], [ -66.9842139, 10.5460164 ], [ -66.9842702, 10.5460784 ], [ -66.9843332, 10.5461232 ], [ -66.9843936, 10.5461522 ], [ -66.9848509, 10.54623 ], [ -66.984918, 10.5462327 ], [ -66.9850735, 10.5462168 ], [ -66.9851446, 10.5462142 ], [ -66.9852076, 10.5462248 ], [ -66.9852586, 10.5462432 ], [ -66.9853525, 10.5463118 ], [ -66.9855322, 10.5464713 ], [ -66.9856006, 10.5465188 ], [ -66.9856542, 10.5465491 ], [ -66.9857588, 10.5465821 ], [ -66.9859037, 10.5466308 ], [ -66.9859935, 10.5466875 ], [ -66.9860485, 10.5467363 ], [ -66.9860968, 10.5467996 ], [ -66.9861625, 10.5468787 ], [ -66.9862229, 10.5469446 ], [ -66.9862792, 10.5469934 ], [ -66.9865032, 10.5471463 ], [ -66.9866507, 10.5472531 ], [ -66.9866896, 10.5472914 ], [ -66.9867407, 10.5473591 ], [ -66.9867633, 10.5473889 ], [ -66.9868062, 10.547439 ], [ -66.9868384, 10.547472 ], [ -66.9868867, 10.5475089 ], [ -66.9870423, 10.5475999 ], [ -66.9870892, 10.5476421 ], [ -66.9871375, 10.547704 ], [ -66.987167, 10.5477476 ], [ -66.9871844, 10.5477937 ], [ -66.9871871, 10.5478293 ], [ -66.9871804, 10.5478754 ], [ -66.9871616, 10.5479269 ], [ -66.9871295, 10.5479737 ], [ -66.9870879, 10.5480126 ], [ -66.9870114, 10.5480693 ], [ -66.9869176, 10.5481141 ], [ -66.9867969, 10.5481536 ], [ -66.9867057, 10.5481879 ], [ -66.9866587, 10.5482182 ], [ -66.9866145, 10.5482578 ], [ -66.986589, 10.5482908 ], [ -66.9865273, 10.5484213 ], [ -66.9864106, 10.5487456 ], [ -66.9863798, 10.5488234 ], [ -66.9863556, 10.5488748 ], [ -66.9863074, 10.5489276 ], [ -66.9862524, 10.5489856 ], [ -66.9860096, 10.549182 ], [ -66.9859654, 10.5492242 ], [ -66.9859292, 10.5492664 ], [ -66.985669, 10.5496632 ], [ -66.9856529, 10.5497041 ], [ -66.9856448, 10.5497476 ], [ -66.9856395, 10.5498742 ], [ -66.9856395, 10.5499599 ], [ -66.9856247, 10.5500337 ], [ -66.9856086, 10.5500931 ], [ -66.9855657, 10.550188 ], [ -66.9853941, 10.5505281 ], [ -66.9853713, 10.5505901 ], [ -66.9853579, 10.5506336 ], [ -66.9853565, 10.5506666 ], [ -66.9853579, 10.550809 ], [ -66.9853538, 10.5509237 ], [ -66.9853471, 10.5509856 ], [ -66.9853096, 10.5511531 ], [ -66.9852841, 10.5512256 ], [ -66.9852506, 10.5512941 ], [ -66.9851446, 10.5514629 ], [ -66.9849998, 10.5516739 ], [ -66.9849461, 10.5517187 ], [ -66.9848858, 10.5517516 ], [ -66.9847342, 10.5518057 ], [ -66.9846229, 10.5518439 ], [ -66.9845438, 10.5518808 ], [ -66.9841549, 10.5521037 ], [ -66.9841173, 10.55213 ], [ -66.9840704, 10.5521749 ], [ -66.983711, 10.5526376 ], [ -66.9836828, 10.5526851 ], [ -66.9836748, 10.5527233 ], [ -66.9836721, 10.5527629 ], [ -66.9836855, 10.5527998 ], [ -66.983711, 10.5528301 ], [ -66.9837378, 10.5528446 ], [ -66.9837861, 10.5528512 ], [ -66.9838451, 10.5528446 ], [ -66.9840194, 10.5528051 ], [ -66.9842716, 10.5527352 ], [ -66.9843654, 10.5527167 ], [ -66.9844271, 10.5527141 ], [ -66.9845009, 10.5527273 ], [ -66.9845854, 10.552751 ], [ -66.9846538, 10.5527932 ], [ -66.9846953, 10.5528301 ], [ -66.9847342, 10.5528776 ], [ -66.9849126, 10.5532441 ], [ -66.9849716, 10.5533469 ], [ -66.9849864, 10.5533667 ], [ -66.9850038, 10.5533786 ], [ -66.9850333, 10.5533825 ], [ -66.9850642, 10.5533812 ], [ -66.9851124, 10.5533707 ], [ -66.9852465, 10.5533232 ], [ -66.9853176, 10.5533008 ], [ -66.985378, 10.5532942 ], [ -66.9854343, 10.5532955 ], [ -66.9855201, 10.5533113 ], [ -66.9856945, 10.5533575 ], [ -66.9858018, 10.5533997 ], [ -66.9858755, 10.5534379 ], [ -66.9860727, 10.5535908 ], [ -66.9861142, 10.5536185 ], [ -66.9861491, 10.5536304 ], [ -66.9861826, 10.5536344 ], [ -66.9862215, 10.5536278 ], [ -66.9862551, 10.5536172 ], [ -66.9867459, 10.5533614 ], [ -66.9867982, 10.5533443 ], [ -66.9868626, 10.5533311 ], [ -66.9874218, 10.5532797 ], [ -66.9874781, 10.5532665 ], [ -66.9875291, 10.5532428 ], [ -66.9875895, 10.5531993 ], [ -66.9877128, 10.5531017 ], [ -66.9877839, 10.5530424 ], [ -66.9879422, 10.5528881 ], [ -66.9880548, 10.5527629 ], [ -66.9881071, 10.5527194 ], [ -66.9881661, 10.5526917 ], [ -66.9882305, 10.5526706 ], [ -66.9882922, 10.552664 ], [ -66.9883673, 10.5526785 ], [ -66.9884196, 10.552697 ], [ -66.9884786, 10.5527352 ], [ -66.9885175, 10.5527787 ], [ -66.9885443, 10.5528275 ], [ -66.9885577, 10.5528894 ], [ -66.9885738, 10.5530345 ], [ -66.9885778, 10.5530859 ], [ -66.9885939, 10.5531386 ], [ -66.9886221, 10.5531993 ], [ -66.9887562, 10.5534023 ], [ -66.9887951, 10.5534485 ], [ -66.9888394, 10.5534801 ], [ -66.9888917, 10.5535078 ], [ -66.9890003, 10.5535447 ], [ -66.9892685, 10.5535935 ], [ -66.9893409, 10.553608 ], [ -66.9893879, 10.5536238 ], [ -66.9894308, 10.5536502 ], [ -66.9894804, 10.5536897 ], [ -66.9896561, 10.553898 ], [ -66.9897111, 10.5539613 ], [ -66.9897486, 10.5539956 ], [ -66.9897969, 10.5540286 ], [ -66.9899498, 10.5540932 ], [ -66.9900987, 10.5541367 ], [ -66.9901644, 10.5541433 ], [ -66.9902368, 10.5541433 ], [ -66.9903561, 10.5541288 ], [ -66.9904165, 10.5541248 ], [ -66.9904795, 10.5541314 ], [ -66.9905104, 10.5541433 ], [ -66.9905506, 10.5541868 ], [ -66.9905922, 10.5542527 ], [ -66.9906257, 10.5543542 ], [ -66.9906472, 10.5544386 ], [ -66.9906686, 10.5545414 ], [ -66.9907182, 10.5549673 ], [ -66.990729, 10.5551123 ], [ -66.9907317, 10.5552191 ], [ -66.9907317, 10.5552982 ], [ -66.990737, 10.5553522 ], [ -66.9908175, 10.5557583 ], [ -66.9908389, 10.5558321 ], [ -66.9908537, 10.5558796 ], [ -66.991071, 10.5562343 ], [ -66.9910964, 10.5562751 ], [ -66.9911246, 10.5563055 ], [ -66.9911756, 10.5563384 ], [ -66.9913217, 10.5564083 ], [ -66.9914532, 10.5564716 ], [ -66.9915189, 10.5565124 ], [ -66.9915698, 10.5565599 ], [ -66.9916356, 10.5566456 ], [ -66.9917724, 10.5568552 ], [ -66.9918019, 10.5568829 ], [ -66.9918327, 10.5569053 ], [ -66.9923812, 10.557169 ], [ -66.9924979, 10.5572125 ], [ -66.9925784, 10.5572336 ], [ -66.99264, 10.5572428 ], [ -66.9926977, 10.5572455 ], [ -66.9931671, 10.5572323 ], [ -66.9932207, 10.5572349 ], [ -66.9932798, 10.5572468 ], [ -66.9933441, 10.5572666 ], [ -66.9934206, 10.5573035 ], [ -66.9934769, 10.5573351 ], [ -66.9935252, 10.5573602 ], [ -66.9936687, 10.5574169 ], [ -66.99378, 10.5574617 ], [ -66.9938484, 10.5574973 ], [ -66.9939128, 10.5575382 ], [ -66.9939584, 10.5575777 ], [ -66.9940241, 10.5576463 ], [ -66.9941515, 10.5578322 ], [ -66.9941689, 10.5578796 ], [ -66.994177, 10.557939 ], [ -66.9941783, 10.5579956 ], [ -66.9941649, 10.5580392 ], [ -66.9941166, 10.5581143 ], [ -66.9940656, 10.5581921 ], [ -66.9940482, 10.5582659 ], [ -66.9940388, 10.558345 ], [ -66.9940361, 10.5584465 ], [ -66.9940402, 10.5585191 ], [ -66.9940549, 10.55861 ], [ -66.9940723, 10.5586799 ], [ -66.9941086, 10.5587616 ], [ -66.9941448, 10.5588421 ], [ -66.9941542, 10.5588816 ], [ -66.9941756, 10.5590372 ], [ -66.9941957, 10.5590991 ], [ -66.9942118, 10.5591268 ], [ -66.9942427, 10.5591651 ], [ -66.9943929, 10.5593101 ], [ -66.9944733, 10.5593852 ], [ -66.9945243, 10.5594591 ], [ -66.994582, 10.5595566 ], [ -66.9946128, 10.559637 ], [ -66.9946329, 10.5597267 ], [ -66.994641, 10.559819 ], [ -66.9946437, 10.5598955 ], [ -66.994649, 10.5599258 ], [ -66.9946638, 10.5599561 ], [ -66.9947134, 10.5600339 ], [ -66.9948059, 10.5601684 ], [ -66.9948797, 10.5602712 ], [ -66.9949508, 10.5604241 ], [ -66.9949682, 10.5604795 ], [ -66.9949816, 10.560552 ], [ -66.9950031, 10.5606707 ], [ -66.9950272, 10.5607458 ], [ -66.9950701, 10.5608196 ], [ -66.9951117, 10.5608632 ], [ -66.9954577, 10.5610965 ], [ -66.9955261, 10.5611321 ], [ -66.9955771, 10.5611479 ], [ -66.995683, 10.5611651 ], [ -66.9958319, 10.5611848 ], [ -66.9959405, 10.5612086 ], [ -66.9961189, 10.5612626 ], [ -66.9962047, 10.5612943 ], [ -66.9962637, 10.5613114 ], [ -66.9963442, 10.5613285 ], [ -66.9965225, 10.5613668 ], [ -66.9965896, 10.5613866 ], [ -66.9968484, 10.5615013 ], [ -66.9969128, 10.561525 ], [ -66.9969799, 10.5615395 ], [ -66.9973809, 10.5615883 ], [ -66.9974989, 10.5616054 ], [ -66.9975887, 10.5616265 ], [ -66.9977322, 10.5616819 ], [ -66.9978301, 10.5617346 ], [ -66.9978797, 10.5617649 ], [ -66.9979897, 10.5618836 ], [ -66.998093, 10.5619996 ], [ -66.9981319, 10.5620392 ], [ -66.9981708, 10.5620537 ], [ -66.998211, 10.562055 ], [ -66.9982807, 10.562051 ], [ -66.9984604, 10.5620286 ], [ -66.9985288, 10.5620273 ], [ -66.998612, 10.5620405 ], [ -66.9988319, 10.5620972 ], [ -66.9989312, 10.5621183 ], [ -66.9992866, 10.5621565 ], [ -66.9993483, 10.5621591 ], [ -66.9994032, 10.5621565 ], [ -66.9995199, 10.562138 ], [ -66.9996446, 10.5621235 ], [ -67.0001636, 10.5621103 ], [ -67.0002843, 10.5621077 ], [ -67.0003849, 10.5621275 ], [ -67.0004466, 10.5621473 ], [ -67.0005164, 10.5621868 ], [ -67.0006236, 10.5622554 ], [ -67.0007846, 10.5623463 ], [ -67.001038, 10.5624439 ], [ -67.001176447777866, 10.562494557481729 ], [ -67.001211, 10.5625072 ], [ -67.0013197, 10.5625533 ], [ -67.0013934, 10.5625929 ], [ -67.0015115, 10.5626812 ], [ -67.0016523, 10.5628289 ], [ -67.001714, 10.5628908 ], [ -67.0017716, 10.5629291 ], [ -67.0018226, 10.5629488 ], [ -67.0022866, 10.563053 ], [ -67.0025696, 10.5631031 ], [ -67.0026273, 10.5631281 ], [ -67.0026554, 10.5631545 ], [ -67.0026635, 10.5631822 ], [ -67.0026608, 10.5632165 ], [ -67.0026299, 10.5634815 ], [ -67.0026152, 10.563579 ], [ -67.0025937, 10.5636476 ], [ -67.002579, 10.5636898 ], [ -67.0025294, 10.563761 ], [ -67.0022719, 10.5641116 ], [ -67.0022303, 10.564167 ], [ -67.0022035, 10.5642092 ], [ -67.0021606, 10.5643015 ], [ -67.0020895, 10.5644083 ], [ -67.0020144, 10.5645045 ], [ -67.0019285, 10.5646073 ], [ -67.0018508, 10.564755 ], [ -67.0017716, 10.5649277 ], [ -67.0016013, 10.5653799 ], [ -67.0015825, 10.5654867 ], [ -67.0015812, 10.5656278 ], [ -67.0015892, 10.5656897 ], [ -67.0016013, 10.5657359 ], [ -67.0016402, 10.5658229 ], [ -67.0018213, 10.5662013 ], [ -67.001832, 10.566254 ], [ -67.0018347, 10.5663094 ], [ -67.001832, 10.5663581 ], [ -67.0018145, 10.5664175 ], [ -67.0016804, 10.5667326 ], [ -67.001667, 10.5667774 ], [ -67.001659, 10.5668538 ], [ -67.0016509, 10.5670411 ], [ -67.0016469, 10.5671202 ], [ -67.0016389, 10.5672072 ], [ -67.0015933, 10.5676027 ], [ -67.0015825, 10.5676857 ], [ -67.0015638, 10.567753 ], [ -67.001541, 10.5678097 ], [ -67.0015155, 10.5678637 ], [ -67.0014873, 10.5679059 ], [ -67.0014229, 10.5679771 ], [ -67.0012929, 10.5680681 ], [ -67.0012204, 10.5681023 ], [ -67.0011681, 10.5681129 ], [ -67.0011038, 10.5681155 ], [ -67.0010528, 10.5681102 ], [ -67.0009911, 10.5680918 ], [ -67.0009549, 10.568072 ], [ -67.0009227, 10.5680391 ], [ -67.0009026, 10.5680035 ], [ -67.0008275, 10.5678202 ], [ -67.000802, 10.5677846 ], [ -67.0007685, 10.5677569 ], [ -67.0007323, 10.5677451 ], [ -67.0007055, 10.5677424 ], [ -67.0006639, 10.5677477 ], [ -67.0006156, 10.5677543 ], [ -67.0004292, 10.5678044 ], [ -67.000346, 10.5678242 ], [ -67.0002937, 10.5678307 ], [ -67.0001999, 10.5678149 ], [ -67.0001395, 10.5678004 ], [ -67.000102, 10.5677978 ], [ -67.0000456, 10.5678031 ], [ -66.999874, 10.5678505 ], [ -66.9997962, 10.5678677 ], [ -66.9997385, 10.5678729 ], [ -66.9996741, 10.567869 ], [ -66.9995092, 10.5678439 ], [ -66.9989821, 10.56772 ], [ -66.9988869, 10.5676989 ], [ -66.9988105, 10.567687 ], [ -66.998671, 10.5676778 ], [ -66.9985878, 10.567662 ], [ -66.9985154, 10.5676435 ], [ -66.998435, 10.5676132 ], [ -66.998333, 10.5675658 ], [ -66.9982298, 10.5675078 ], [ -66.9981587, 10.5674669 ], [ -66.9980836, 10.5674036 ], [ -66.9979857, 10.5673205 ], [ -66.9979508, 10.5672995 ], [ -66.9979133, 10.5672902 ], [ -66.9978797, 10.5672889 ], [ -66.9978382, 10.5672929 ], [ -66.9976357, 10.5673271 ], [ -66.9975874, 10.5673285 ], [ -66.9975418, 10.5673232 ], [ -66.9974694, 10.5673008 ], [ -66.9973795, 10.5672757 ], [ -66.9973339, 10.5672704 ], [ -66.9972669, 10.567277 ], [ -66.9971341, 10.5673008 ], [ -66.9970711, 10.5673021 ], [ -66.9970161, 10.5672995 ], [ -66.9969611, 10.5672889 ], [ -66.996654, 10.5671913 ], [ -66.9964877, 10.5671347 ], [ -66.9964072, 10.5671043 ], [ -66.9961551, 10.5669738 ], [ -66.9960907, 10.5669395 ], [ -66.9959955, 10.5669013 ], [ -66.9958882, 10.5668591 ], [ -66.9957796, 10.5668103 ], [ -66.9952203, 10.5665098 ], [ -66.9951117, 10.5664597 ], [ -66.9950634, 10.5664504 ], [ -66.9950259, 10.5664504 ], [ -66.9949856, 10.566461 ], [ -66.9948234, 10.5665453 ], [ -66.9947791, 10.5665572 ], [ -66.9947241, 10.5665612 ], [ -66.9946785, 10.5665572 ], [ -66.9944398, 10.5664807 ], [ -66.9943017, 10.5664465 ], [ -66.9942386, 10.5664425 ], [ -66.9941086, 10.5664386 ], [ -66.9924992, 10.566461 ], [ -66.9924282, 10.5664623 ], [ -66.9923678, 10.5664676 ], [ -66.9923075, 10.5664794 ], [ -66.9918971, 10.5665889 ], [ -66.9918354, 10.5665954 ], [ -66.9917724, 10.5665954 ], [ -66.9916905, 10.5665796 ], [ -66.9916114, 10.5665533 ], [ -66.9913499, 10.5664531 ], [ -66.9913057, 10.5664399 ], [ -66.991248, 10.5664372 ], [ -66.9911943, 10.5664372 ], [ -66.9908644, 10.5664742 ], [ -66.9908188, 10.5664755 ], [ -66.9907665, 10.5664623 ], [ -66.9907223, 10.5664452 ], [ -66.9906458, 10.5664056 ], [ -66.9902636, 10.566225 ], [ -66.9902006, 10.5662065 ], [ -66.9901443, 10.5661986 ], [ -66.9900973, 10.5661973 ], [ -66.9900517, 10.5662039 ], [ -66.9899873, 10.5662184 ], [ -66.9898425, 10.5662711 ], [ -66.9897905, 10.5662947 ], [ -66.9893302, 10.566515 ], [ -66.9892403, 10.5665625 ], [ -66.9885068, 10.5669844 ], [ -66.9884276, 10.56702 ], [ -66.9883485, 10.5670424 ], [ -66.9882533, 10.5670556 ], [ -66.9881742, 10.5670595 ], [ -66.9880521, 10.5670476 ], [ -66.9879676, 10.5670437 ], [ -66.9879127, 10.5670476 ], [ -66.9878523, 10.5670687 ], [ -66.9878174, 10.5670925 ], [ -66.9877866, 10.5671241 ], [ -66.9877665, 10.5671637 ], [ -66.9876592, 10.5675592 ], [ -66.9876538, 10.5676172 ], [ -66.9876592, 10.5676712 ], [ -66.9876793, 10.5677147 ], [ -66.9878939, 10.5679771 ], [ -66.9879314, 10.5680219 ], [ -66.9879475, 10.5680615 ], [ -66.9879529, 10.5680957 ], [ -66.9879529, 10.5681353 ], [ -66.987918, 10.5685822 ], [ -66.9879033, 10.5686692 ], [ -66.9878925, 10.5687088 ], [ -66.9878778, 10.5687562 ], [ -66.9878389, 10.5688077 ], [ -66.9877718, 10.5688775 ], [ -66.9876994, 10.5689368 ], [ -66.9876216, 10.5689922 ], [ -66.9875331, 10.5690463 ], [ -66.9874339, 10.5690964 ], [ -66.9873641, 10.5691214 ], [ -66.9872823, 10.5691451 ], [ -66.9872247, 10.5691544 ], [ -66.9871522, 10.5691531 ], [ -66.9866788, 10.5690634 ], [ -66.9865434, 10.5690331 ], [ -66.986483, 10.5690094 ], [ -66.9864294, 10.5689777 ], [ -66.9863355, 10.5689078 ], [ -66.9862872, 10.5688775 ], [ -66.9862443, 10.5688657 ], [ -66.986192, 10.5688604 ], [ -66.9861424, 10.5688591 ], [ -66.9860874, 10.568867 ], [ -66.9860378, 10.5688828 ], [ -66.9859895, 10.5689105 ], [ -66.9858541, 10.5690318 ], [ -66.9852532, 10.5696422 ], [ -66.9852117, 10.5696778 ], [ -66.9851768, 10.5697028 ], [ -66.9851165, 10.5697345 ], [ -66.984517, 10.5699757 ], [ -66.9844553, 10.5699902 ], [ -66.9844016, 10.5699968 ], [ -66.9842917, 10.570006 ], [ -66.9842112, 10.5700192 ], [ -66.9841093, 10.5700482 ], [ -66.9840489, 10.5700746 ], [ -66.9840047, 10.5701036 ], [ -66.9838223, 10.5702921 ], [ -66.983766, 10.5703369 ], [ -66.9837163, 10.5703673 ], [ -66.9834951, 10.5704635 ], [ -66.9833811, 10.5704912 ], [ -66.9833046, 10.5705017 ], [ -66.9832376, 10.5704978 ], [ -66.9831584, 10.5704912 ], [ -66.9831035, 10.5704767 ], [ -66.9830458, 10.5704582 ], [ -66.982972, 10.5704174 ], [ -66.9828473, 10.570333 ], [ -66.9827347, 10.5702315 ], [ -66.9826984, 10.5701853 ], [ -66.9826823, 10.570151 ], [ -66.9826716, 10.5701102 ], [ -66.9826327, 10.5698452 ], [ -66.9826233, 10.56977 ], [ -66.9826153, 10.56972 ], [ -66.9824235, 10.5691821 ], [ -66.9823967, 10.5691214 ], [ -66.9823766, 10.5690858 ], [ -66.9823164, 10.5690105 ], [ -66.9822733, 10.5689566 ], [ -66.9822438, 10.5689092 ], [ -66.9822317, 10.5688683 ], [ -66.9822197, 10.5688261 ], [ -66.9821835, 10.5685387 ], [ -66.9821727, 10.5684926 ], [ -66.9821566, 10.5684583 ], [ -66.9821338, 10.5684293 ], [ -66.982107, 10.5684042 ], [ -66.9820708, 10.5683831 ], [ -66.9818563, 10.5683341 ], [ -66.9816247, 10.5682812 ], [ -66.9814244, 10.5682355 ], [ -66.9813506, 10.5682118 ], [ -66.9812863, 10.5681775 ], [ -66.9812514, 10.5681498 ], [ -66.9812246, 10.5681089 ], [ -66.9811374, 10.5679125 ], [ -66.9811173, 10.5678835 ], [ -66.9810824, 10.5678518 ], [ -66.9810368, 10.5678242 ], [ -66.9805446, 10.5675974 ], [ -66.9804709, 10.5675776 ], [ -66.9804212, 10.5675684 ], [ -66.9803555, 10.5675644 ], [ -66.9803126, 10.5675644 ], [ -66.9802415, 10.5675697 ], [ -66.9797051, 10.5676317 ], [ -66.9796555, 10.5676475 ], [ -66.9796219, 10.5676739 ], [ -66.9796018, 10.5677042 ], [ -66.9795978, 10.5677345 ], [ -66.9796072, 10.5677741 ], [ -66.9796206, 10.5677991 ], [ -66.9796434, 10.5678097 ], [ -66.9796769, 10.567811 ], [ -66.9802912, 10.5677569 ], [ -66.9803663, 10.5677569 ], [ -66.9804212, 10.5677701 ], [ -66.9804534, 10.5677899 ], [ -66.9806653, 10.5680008 ], [ -66.9807163, 10.5680707 ], [ -66.9807377, 10.5681142 ], [ -66.9807471, 10.5681656 ], [ -66.9807699, 10.5683265 ], [ -66.980778, 10.5683845 ], [ -66.9807927, 10.5684319 ], [ -66.9808155, 10.5684715 ], [ -66.9808665, 10.5685242 ], [ -66.9809161, 10.5685572 ], [ -66.9809738, 10.5685862 ], [ -66.9813667, 10.5687272 ], [ -66.9814754, 10.5687747 ], [ -66.981529, 10.568805 ], [ -66.9815726, 10.5688419 ], [ -66.9816309, 10.5688999 ], [ -66.9818629, 10.5691306 ], [ -66.981981, 10.5692559 ], [ -66.9820279, 10.5693403 ], [ -66.9821312, 10.5696145 ], [ -66.9821888, 10.5698979 ], [ -66.9822049, 10.5700153 ], [ -66.9822086, 10.5700706 ], [ -66.9822076, 10.5701194 ], [ -66.9822022, 10.5701669 ], [ -66.9821835, 10.5702592 ], [ -66.9821003, 10.5705848 ], [ -66.9820909, 10.5706467 ], [ -66.9820909, 10.5707008 ], [ -66.9821084, 10.5707641 ], [ -66.9821298, 10.5708076 ], [ -66.9821787, 10.5708721 ], [ -66.9822358, 10.5709473 ], [ -66.9822706, 10.5710093 ], [ -66.9822921, 10.5710739 ], [ -66.9823015, 10.5711279 ], [ -66.9823001, 10.5711728 ], [ -66.9822961, 10.5712347 ], [ -66.98228, 10.571298 ], [ -66.9822183, 10.5714628 ], [ -66.9821258, 10.5717054 ], [ -66.9821177, 10.5717397 ], [ -66.9821151, 10.5717766 ], [ -66.9821177, 10.5718781 ], [ -66.982111, 10.5719163 ], [ -66.9820936, 10.571998 ], [ -66.9820789, 10.5720666 ], [ -66.9820815, 10.5720982 ], [ -66.9820923, 10.5721417 ], [ -66.9821177, 10.5721932 ], [ -66.9821486, 10.5722327 ], [ -66.9821982, 10.5722775 ], [ -66.9822492, 10.5723131 ], [ -66.9822961, 10.5723276 ], [ -66.9823444, 10.572329 ], [ -66.982394, 10.5723197 ], [ -66.9828554, 10.5721286 ], [ -66.9828983, 10.5721009 ], [ -66.9829251, 10.5720719 ], [ -66.9829358, 10.5720416 ], [ -66.9830082, 10.5717397 ], [ -66.9830337, 10.5716619 ], [ -66.9830552, 10.5716223 ], [ -66.9830941, 10.5715841 ], [ -66.983137, 10.5715485 ], [ -66.9831866, 10.5715221 ], [ -66.9832456, 10.571505 ], [ -66.9833127, 10.571501 ], [ -66.983432, 10.5715037 ], [ -66.9835688, 10.5715261 ], [ -66.9839229, 10.5716078 ], [ -66.9839712, 10.5716144 ], [ -66.9840141, 10.5716105 ], [ -66.9840731, 10.5715973 ], [ -66.9843413, 10.5715037 ], [ -66.9844499, 10.5714747 ], [ -66.9845009, 10.5714668 ], [ -66.9845465, 10.5714654 ], [ -66.9845974, 10.571476 ], [ -66.9846404, 10.5714813 ], [ -66.984698, 10.5714753 ], [ -66.9847986, 10.5714588 ], [ -66.9848469, 10.5714562 ], [ -66.9848804, 10.5714615 ], [ -66.9849367, 10.5714799 ], [ -66.9850239, 10.5715116 ], [ -66.9850869, 10.5715248 ], [ -66.9851567, 10.57153 ], [ -66.9853149, 10.5715195 ], [ -66.9853619, 10.5715234 ], [ -66.9854088, 10.5715406 ], [ -66.9854705, 10.5715735 ], [ -66.9855684, 10.5716342 ], [ -66.9856328, 10.5716652 ], [ -66.9856703, 10.5716734 ], [ -66.9857025, 10.5716724 ], [ -66.9857629, 10.5716632 ], [ -66.9858514, 10.5716447 ], [ -66.9860056, 10.5715775 ], [ -66.986078, 10.571559 ], [ -66.986129, 10.5715577 ], [ -66.9861692, 10.5715788 ], [ -66.986184, 10.5716052 ], [ -66.9862041, 10.5716935 ] ], [ [ -66.986137236600257, 10.599754012585308 ], [ -66.986095, 10.5997617 ], [ -66.9858709, 10.5998082 ], [ -66.9855958, 10.5998458 ], [ -66.9853727, 10.5998679 ], [ -66.985264, 10.5998757 ], [ -66.9850883, 10.59989 ], [ -66.9849468, 10.5999082 ], [ -66.9848052, 10.599932 ], [ -66.9831169, 10.6003265 ], [ -66.9822479, 10.600518 ], [ -66.9819582, 10.6005862 ], [ -66.9814679, 10.600701 ], [ -66.9804445, 10.600936 ], [ -66.9794439, 10.6012232 ], [ -66.979405, 10.6011491 ], [ -66.9793667, 10.6010966 ], [ -66.9793136, 10.6010694 ], [ -66.978889, 10.6008518 ], [ -66.9788232, 10.6008387 ], [ -66.9786635, 10.6008692 ], [ -66.9783565, 10.6009428 ], [ -66.9770101, 10.6012656 ], [ -66.9769658, 10.6012133 ], [ -66.9768717, 10.6010268 ], [ -66.9776344, 10.6008486 ], [ -66.9778812, 10.6007695 ], [ -66.9779858, 10.6007299 ], [ -66.9788733, 10.6003968 ], [ -66.9789796, 10.6003478 ], [ -66.9790526, 10.6003032 ], [ -66.9790996, 10.6002481 ], [ -66.9791366, 10.6001948 ], [ -66.9791583, 10.6001394 ], [ -66.9791678, 10.600071 ], [ -66.9791657, 10.5999974 ], [ -66.9791385, 10.5995757 ], [ -66.9791177, 10.5992535 ], [ -66.979107, 10.5991783 ], [ -66.9791029, 10.5991304 ], [ -66.97906, 10.5988646 ], [ -66.9787819, 10.5986663 ], [ -66.9786725, 10.5984602 ], [ -66.9786351, 10.5983792 ], [ -66.9785438, 10.5981786 ], [ -66.978496, 10.5980924 ], [ -66.9784448, 10.5979821 ], [ -66.9783493, 10.5977446 ], [ -66.9783223, 10.5976001 ], [ -66.9782822, 10.5974196 ], [ -66.9780316, 10.5968041 ], [ -66.9779423, 10.596574 ], [ -66.9778918, 10.5964531 ], [ -66.9778281, 10.5963094 ], [ -66.9777162, 10.5961339 ], [ -66.9776677, 10.5960619 ], [ -66.9775614, 10.5959305 ], [ -66.9775222, 10.5956905 ], [ -66.9775146, 10.5956063 ], [ -66.9775004, 10.5955352 ], [ -66.9774749, 10.5954438 ], [ -66.9774521, 10.595385 ], [ -66.9774177, 10.5953213 ], [ -66.9773718, 10.5952455 ], [ -66.9773159, 10.595173 ], [ -66.9772133, 10.595092 ], [ -66.9770658, 10.5950077 ], [ -66.9767407, 10.5948791 ], [ -66.9764045, 10.5947555 ], [ -66.9763344, 10.5946822 ], [ -66.976275, 10.5946213 ], [ -66.9762254, 10.5945613 ], [ -66.9761664, 10.5944282 ], [ -66.9762399, 10.594186 ], [ -66.9762945, 10.5940401 ], [ -66.976543, 10.5933055 ], [ -66.9767325, 10.5927734 ], [ -66.976761, 10.5926925 ], [ -66.9768793, 10.5923775 ], [ -66.9770038, 10.5920806 ], [ -66.9775031, 10.591064 ], [ -66.9775121, 10.5910456 ], [ -66.9774279, 10.5910132 ], [ -66.977381, 10.5910033 ], [ -66.9773427, 10.5910026 ], [ -66.9773099, 10.5910106 ], [ -66.9772864, 10.5910257 ], [ -66.977267, 10.5910514 ], [ -66.9771429, 10.5913131 ], [ -66.9770242, 10.5915669 ], [ -66.9769464, 10.5917369 ], [ -66.9768734, 10.5918944 ], [ -66.9768378, 10.5919597 ], [ -66.9768208, 10.5920115 ], [ -66.976803, 10.5920416 ], [ -66.9767524, 10.5921104 ], [ -66.9766713, 10.5921742 ], [ -66.9765956, 10.5922359 ], [ -66.9764955, 10.5922903 ], [ -66.9762934, 10.5923647 ], [ -66.9761945, 10.5924068 ], [ -66.9761148, 10.5924431 ], [ -66.9760281, 10.5924885 ], [ -66.975885, 10.5926046 ], [ -66.9757706, 10.5926907 ], [ -66.9756829, 10.5927197 ], [ -66.975626, 10.5927181 ], [ -66.9755732, 10.5926887 ], [ -66.9755396, 10.5926821 ], [ -66.9755068, 10.592665 ], [ -66.9753331, 10.5925279 ], [ -66.9752882, 10.5924857 ], [ -66.9752406, 10.5924323 ], [ -66.9751554, 10.5923235 ], [ -66.9751118, 10.5922767 ], [ -66.9750796, 10.5922491 ], [ -66.9750521, 10.5922378 ], [ -66.9750079, 10.5922313 ], [ -66.9749663, 10.5922313 ], [ -66.9749274, 10.5922365 ], [ -66.9748865, 10.5922464 ], [ -66.9748543, 10.5922649 ], [ -66.9748141, 10.5923005 ], [ -66.9747832, 10.592338 ], [ -66.9747504, 10.5923967 ], [ -66.9747269, 10.5924455 ], [ -66.9747021, 10.5925239 ], [ -66.9746914, 10.5925839 ], [ -66.9746863, 10.5926571 ], [ -66.974686, 10.5926617 ], [ -66.974676, 10.5927599 ], [ -66.9746672, 10.592806 ], [ -66.9746578, 10.5928383 ], [ -66.9746485, 10.592864 ], [ -66.9746357, 10.5928825 ], [ -66.9746196, 10.5929003 ], [ -66.9745901, 10.5929174 ], [ -66.9745418, 10.5929345 ], [ -66.9744553, 10.5929596 ], [ -66.9743963, 10.5929695 ], [ -66.9742206, 10.5929774 ], [ -66.9741549, 10.592982 ], [ -66.9741053, 10.5929952 ], [ -66.9740531, 10.593008 ], [ -66.9740255, 10.5930196 ], [ -66.9739987, 10.5930338 ], [ -66.9739597, 10.5930573 ], [ -66.9739363, 10.5930843 ], [ -66.9739114, 10.5931298 ], [ -66.9739139, 10.5931808 ], [ -66.9739358, 10.5932227 ], [ -66.9739845, 10.593303 ], [ -66.9740265, 10.5933497 ], [ -66.9740436, 10.5934082 ], [ -66.9740478, 10.5934312 ], [ -66.9740465, 10.5934626 ], [ -66.9740271, 10.5935078 ], [ -66.9739569, 10.5935434 ], [ -66.9738494, 10.593557 ], [ -66.9735494, 10.5935693 ], [ -66.9733375, 10.5935923 ], [ -66.9732074, 10.5936062 ], [ -66.9729278, 10.5936431 ], [ -66.9728608, 10.5936517 ], [ -66.9727501, 10.5936714 ], [ -66.972679, 10.5936945 ], [ -66.9726328, 10.5937143 ], [ -66.9725899, 10.5937407 ], [ -66.972559, 10.5937683 ], [ -66.9725309, 10.5937987 ], [ -66.9725181, 10.5938178 ], [ -66.9725114, 10.5938481 ], [ -66.9725107, 10.5938804 ], [ -66.9725222, 10.5939279 ], [ -66.9725637, 10.5939852 ], [ -66.972608, 10.5940485 ], [ -66.9726388, 10.5941012 ], [ -66.9726583, 10.5941486 ], [ -66.9726824, 10.5942508 ], [ -66.9726978, 10.5943424 ], [ -66.9727099, 10.5944815 ], [ -66.9727092, 10.5945237 ], [ -66.9727039, 10.5945639 ], [ -66.9726938, 10.5945942 ], [ -66.9726616, 10.5946469 ], [ -66.9725885, 10.5947465 ], [ -66.9725496, 10.594788 ], [ -66.9724913, 10.5948361 ], [ -66.9724652, 10.5948589 ], [ -66.9724222, 10.594886 ], [ -66.9723567, 10.5949195 ], [ -66.9722905, 10.5949586 ], [ -66.9722527, 10.5949859 ], [ -66.9722123, 10.59508 ], [ -66.9721933, 10.5951248 ], [ -66.972166, 10.5952302 ], [ -66.9721415, 10.5952847 ], [ -66.9721207, 10.5953443 ], [ -66.9720979, 10.5953943 ], [ -66.9720615, 10.5954432 ], [ -66.972036, 10.5954811 ], [ -66.9719688, 10.5955233 ], [ -66.9718819, 10.5955553 ], [ -66.9718052, 10.5955404 ], [ -66.9717485, 10.5955074 ], [ -66.9717296, 10.5954936 ], [ -66.9717098, 10.5954791 ], [ -66.9716761, 10.5954421 ], [ -66.9716408, 10.5954023 ], [ -66.9716133, 10.5953582 ], [ -66.9715726, 10.5953094 ], [ -66.9715237, 10.5952553 ], [ -66.9714828, 10.595223 ], [ -66.9714345, 10.5951934 ], [ -66.9713272, 10.5951334 ], [ -66.9712736, 10.5951044 ], [ -66.9712421, 10.5950833 ], [ -66.9712119, 10.5950523 ], [ -66.9711877, 10.5950167 ], [ -66.971114, 10.5948987 ], [ -66.9710825, 10.5948546 ], [ -66.9710543, 10.5948216 ], [ -66.9710255, 10.5947939 ], [ -66.9710054, 10.5947662 ], [ -66.9709966, 10.5947445 ], [ -66.9709926, 10.5947221 ], [ -66.9709926, 10.5946964 ], [ -66.9709993, 10.5946726 ], [ -66.9710161, 10.5946549 ], [ -66.9710355, 10.5946463 ], [ -66.9710704, 10.594643 ], [ -66.9711153, 10.5946489 ], [ -66.9711381, 10.5946588 ], [ -66.971167, 10.5946806 ], [ -66.9711951, 10.5947135 ], [ -66.9712654, 10.5948033 ], [ -66.9713001, 10.594842 ], [ -66.9713172, 10.5948687 ], [ -66.971352, 10.5949211 ], [ -66.9713925, 10.5949596 ], [ -66.9714336, 10.5949829 ], [ -66.9715149, 10.5949943 ], [ -66.9716157, 10.5949666 ], [ -66.9716732, 10.594879 ], [ -66.9717007, 10.5947939 ], [ -66.9717227, 10.5947241 ], [ -66.97173, 10.5946545 ], [ -66.9717314, 10.5945024 ], [ -66.9717205, 10.5944372 ], [ -66.971699, 10.5943298 ], [ -66.9716707, 10.5942069 ], [ -66.9716316, 10.5939977 ], [ -66.971633, 10.5937591 ], [ -66.9716357, 10.5936998 ], [ -66.9716437, 10.5936391 ], [ -66.9717222, 10.5933215 ], [ -66.9717175, 10.5931758 ], [ -66.9717155, 10.5931105 ], [ -66.9717396, 10.5930743 ], [ -66.9717517, 10.5930466 ], [ -66.9717664, 10.5930255 ], [ -66.9717993, 10.5929972 ], [ -66.9718342, 10.592982 ], [ -66.971873, 10.5929767 ], [ -66.9719099, 10.5929767 ], [ -66.9719609, 10.5929827 ], [ -66.9720481, 10.5929952 ], [ -66.9721346, 10.5930018 ], [ -66.9721842, 10.5930018 ], [ -66.9722311, 10.5929972 ], [ -66.9722935, 10.5929827 ], [ -66.9723491, 10.5929655 ], [ -66.9723994, 10.5929405 ], [ -66.9724356, 10.5929148 ], [ -66.9724732, 10.5928844 ], [ -66.9725362, 10.5928133 ], [ -66.9725577, 10.592779 ], [ -66.9725671, 10.5927487 ], [ -66.9725704, 10.592723 ], [ -66.9725677, 10.5926926 ], [ -66.9725577, 10.5926577 ], [ -66.9725295, 10.5925845 ], [ -66.9723431, 10.5921765 ], [ -66.9723324, 10.5921462 ], [ -66.9723277, 10.5921199 ], [ -66.9723284, 10.5920889 ], [ -66.9723337, 10.5920612 ], [ -66.9723505, 10.5920309 ], [ -66.9723807, 10.5919986 ], [ -66.9724222, 10.5919722 ], [ -66.9724672, 10.5919426 ], [ -66.9725128, 10.5919169 ], [ -66.9725543, 10.5919004 ], [ -66.9726046, 10.5918826 ], [ -66.9726824, 10.5918707 ], [ -66.9727555, 10.5918608 ], [ -66.9728219, 10.5918628 ], [ -66.9728715, 10.5918575 ], [ -66.9729104, 10.591843 ], [ -66.9729614, 10.5918154 ], [ -66.9730144, 10.5917725 ], [ -66.9730499, 10.5917455 ], [ -66.9730901, 10.5917171 ], [ -66.973126, 10.5917091 ], [ -66.973168, 10.591703 ], [ -66.9732157, 10.591701 ], [ -66.9733717, 10.5917375 ], [ -66.9734898, 10.5917732 ], [ -66.9735682, 10.5918042 ], [ -66.9736929, 10.5918318 ], [ -66.9737619, 10.5918331 ], [ -66.9738452, 10.5917949 ], [ -66.9738613, 10.5917487 ], [ -66.9738578, 10.5916551 ], [ -66.9738257, 10.5915642 ], [ -66.973815, 10.5914917 ], [ -66.9738169, 10.5914245 ], [ -66.9738184, 10.5913546 ], [ -66.973821, 10.5912716 ], [ -66.9738115, 10.5912194 ], [ -66.9737955, 10.5911701 ], [ -66.9737828, 10.5911331 ], [ -66.9737747, 10.5910639 ], [ -66.9737687, 10.5910072 ], [ -66.9737694, 10.5909242 ], [ -66.973766, 10.5907456 ], [ -66.9737526, 10.5906875 ], [ -66.973699, 10.5906097 ], [ -66.9736729, 10.5905537 ], [ -66.9736043, 10.590423 ], [ -66.9735662, 10.5902802 ], [ -66.9735695, 10.5902183 ], [ -66.9735869, 10.5901531 ], [ -66.9736265, 10.5901115 ], [ -66.9737023, 10.590068 ], [ -66.973752, 10.5900463 ], [ -66.9738364, 10.5900238 ], [ -66.9738915, 10.5900199 ], [ -66.9739444, 10.5900173 ], [ -66.9740014, 10.5900212 ], [ -66.974053, 10.5900271 ], [ -66.9741415, 10.590037 ], [ -66.9742146, 10.5900456 ], [ -66.9742622, 10.5900581 ], [ -66.9743253, 10.5900733 ], [ -66.9744158, 10.5901075 ], [ -66.9746874, 10.590242 ], [ -66.9751018, 10.5904503 ], [ -66.9751782, 10.5904846 ], [ -66.9752191, 10.5904971 ], [ -66.9752573, 10.590501 ], [ -66.9752888, 10.5904984 ], [ -66.9753311, 10.5904892 ], [ -66.9753693, 10.590474 ], [ -66.9754042, 10.590449 ], [ -66.9754283, 10.5904239 ], [ -66.9754484, 10.5903824 ], [ -66.9754605, 10.5903363 ], [ -66.9754605, 10.590304 ], [ -66.9754565, 10.5902802 ], [ -66.9754424, 10.590242 ], [ -66.975427, 10.5902005 ], [ -66.9754209, 10.5901728 ], [ -66.9754196, 10.5901372 ], [ -66.975427, 10.5900495 ], [ -66.9754283, 10.5899889 ], [ -66.975425, 10.5899368 ], [ -66.9754189, 10.5899006 ], [ -66.9754069, 10.589861 ], [ -66.9753338, 10.5896995 ], [ -66.9753002, 10.5896178 ], [ -66.9752801, 10.5895611 ], [ -66.9752613, 10.5894939 ], [ -66.9752513, 10.5894379 ], [ -66.9752486, 10.5894102 ], [ -66.9752499, 10.5893832 ], [ -66.975254, 10.5893495 ], [ -66.9752647, 10.5892599 ], [ -66.9752701, 10.5892019 ], [ -66.9752714, 10.5891465 ], [ -66.975262, 10.5890912 ], [ -66.9752312, 10.5889633 ], [ -66.9752258, 10.5889092 ], [ -66.9752271, 10.5888539 ], [ -66.9752365, 10.5887629 ], [ -66.9752392, 10.5886733 ], [ -66.9752432, 10.5884703 ], [ -66.9752459, 10.588403 ], [ -66.975262, 10.5883173 ], [ -66.9752774, 10.588262 ], [ -66.975311, 10.5881849 ], [ -66.9753344, 10.5881565 ], [ -66.9753586, 10.58814 ], [ -66.9753827, 10.5881315 ], [ -66.9754203, 10.5881288 ], [ -66.9754659, 10.5881341 ], [ -66.9755557, 10.5881565 ], [ -66.9758159, 10.5882672 ], [ -66.9761431, 10.5884268 ], [ -66.9764851, 10.5885915 ], [ -66.9765696, 10.5886271 ], [ -66.9766326, 10.5886522 ], [ -66.9766849, 10.5886627 ], [ -66.976748, 10.5886654 ], [ -66.9768056, 10.5886588 ], [ -66.9768754, 10.5886377 ], [ -66.9771919, 10.5884426 ], [ -66.9772281, 10.5884096 ], [ -66.9772616, 10.5883595 ], [ -66.9772951, 10.5882883 ], [ -66.977322, 10.5882251 ], [ -66.9773608, 10.5881657 ], [ -66.9773984, 10.5881236 ], [ -66.9774534, 10.5880761 ], [ -66.9775325, 10.5880352 ], [ -66.9776291, 10.5879799 ], [ -66.9776626, 10.5879482 ], [ -66.9776867, 10.5879126 ], [ -66.977739, 10.5877768 ], [ -66.9777565, 10.5877307 ], [ -66.977794, 10.5876938 ], [ -66.9778343, 10.5876687 ], [ -66.9779147, 10.5876252 ], [ -66.9779871, 10.5875791 ], [ -66.9781373, 10.5874552 ], [ -66.9784123, 10.5871876 ], [ -66.9784968, 10.5870834 ], [ -66.9785182, 10.5870413 ], [ -66.9785316, 10.5869951 ], [ -66.9785397, 10.5869107 ], [ -66.978545, 10.5868303 ], [ -66.9785558, 10.586771 ], [ -66.9785759, 10.5867222 ], [ -66.9786081, 10.5866655 ], [ -66.97871, 10.5865535 ], [ -66.9787864, 10.5864678 ], [ -66.9788267, 10.5864032 ], [ -66.9788602, 10.586336 ], [ -66.9788803, 10.5862503 ], [ -66.9788843, 10.5861844 ], [ -66.9788763, 10.586133 ], [ -66.9788522, 10.5860881 ], [ -66.9788159, 10.5860565 ], [ -66.9787757, 10.5860354 ], [ -66.978659, 10.5860024 ], [ -66.9785906, 10.5859814 ], [ -66.9785544, 10.5859589 ], [ -66.9785357, 10.5859286 ], [ -66.9785196, 10.5858851 ], [ -66.9785142, 10.5858298 ], [ -66.9785236, 10.5856201 ], [ -66.9785249, 10.5854765 ], [ -66.9785196, 10.5853881 ], [ -66.9785075, 10.5853262 ], [ -66.978486, 10.585251 ], [ -66.9784445, 10.5851469 ], [ -66.9784176, 10.5850915 ], [ -66.9783881, 10.5850454 ], [ -66.9783452, 10.5850124 ], [ -66.9781843, 10.5849162 ], [ -66.9781105, 10.5848661 ], [ -66.9780689, 10.584816 ], [ -66.978018, 10.5847448 ], [ -66.9779509, 10.5846631 ], [ -66.9778195, 10.5845405 ], [ -66.9777954, 10.5845049 ], [ -66.9777833, 10.5844627 ], [ -66.9777793, 10.5844218 ], [ -66.9777873, 10.5843889 ], [ -66.9778115, 10.5843559 ], [ -66.9781682, 10.5840369 ], [ -66.9782057, 10.5839828 ], [ -66.9782487, 10.5839077 ], [ -66.9782835, 10.5838616 ], [ -66.9785021, 10.5836427 ], [ -66.9785424, 10.58359 ], [ -66.9785678, 10.5835452 ], [ -66.9785799, 10.5835069 ], [ -66.978588, 10.5834516 ], [ -66.9785839, 10.5833158 ], [ -66.9785826, 10.5832209 ], [ -66.9785853, 10.5830838 ], [ -66.9785933, 10.5829388 ], [ -66.9786014, 10.5828425 ], [ -66.9786416, 10.5826039 ], [ -66.978655, 10.5824998 ], [ -66.9786564, 10.5824404 ], [ -66.9786483, 10.5823798 ], [ -66.9786336, 10.5823165 ], [ -66.9785652, 10.5821359 ], [ -66.9783526, 10.5817101 ], [ -66.9783217, 10.5816791 ], [ -66.9782983, 10.5816593 ], [ -66.9782755, 10.5816501 ], [ -66.9782513, 10.5816501 ], [ -66.9782232, 10.5816475 ], [ -66.9781923, 10.5816534 ], [ -66.9777739, 10.5819896 ], [ -66.9776934, 10.5820476 ], [ -66.9776411, 10.5820766 ], [ -66.9776063, 10.5820805 ], [ -66.9775741, 10.5820779 ], [ -66.9775365, 10.5820674 ], [ -66.9773327, 10.5819685 ], [ -66.9772415, 10.5819171 ], [ -66.9771919, 10.5818749 ], [ -66.9771664, 10.581838 ], [ -66.9771436, 10.5817773 ], [ -66.9771329, 10.5816956 ], [ -66.9771329, 10.5816402 ], [ -66.9771369, 10.581577 ], [ -66.9771543, 10.5814939 ], [ -66.9771959, 10.5812896 ], [ -66.9772187, 10.5811722 ], [ -66.9772334, 10.5810127 ], [ -66.9772388, 10.5809125 ], [ -66.9772401, 10.5808202 ], [ -66.9772294, 10.5806541 ], [ -66.9772187, 10.5805777 ], [ -66.9771999, 10.5805091 ], [ -66.9771718, 10.5804353 ] ], [ [ -66.9776733, 10.5346168 ], [ -66.9774239, 10.5343499 ], [ -66.9774802, 10.5342833 ], [ -66.9775835, 10.534191 ], [ -66.9776118, 10.5341749 ], [ -66.9776988, 10.5341541 ], [ -66.9780783, 10.5340895 ], [ -66.9784257, 10.5340434 ], [ -66.9786966, 10.5340183 ], [ -66.9790627, 10.5339801 ], [ -66.9791217, 10.5339682 ], [ -66.9791552, 10.5339563 ], [ -66.9791995, 10.5339247 ], [ -66.9793725, 10.5337942 ], [ -66.9795978, 10.5335845 ], [ -66.9796568, 10.5335331 ], [ -66.9796997, 10.5335001 ], [ -66.9800457, 10.533272 ], [ -66.98009, 10.5332325 ], [ -66.9801275, 10.5331876 ], [ -66.9801517, 10.5331362 ], [ -66.9801664, 10.5330769 ], [ -66.9802174, 10.5329028 ], [ -66.9802375, 10.5328422 ], [ -66.980263, 10.5327947 ], [ -66.9803663, 10.5326207 ], [ -66.9804105, 10.53256 ], [ -66.9804575, 10.5325139 ], [ -66.9804896, 10.5324941 ], [ -66.980554, 10.5324598 ], [ -66.9806345, 10.5324269 ], [ -66.980719, 10.5324005 ], [ -66.9807887, 10.5323913 ], [ -66.9808625, 10.5323834 ], [ -66.9809201, 10.5323847 ], [ -66.9809979, 10.5323992 ], [ -66.9810645, 10.5324128 ], [ -66.9810945, 10.532419 ], [ -66.9812299, 10.532473 ], [ -66.9814124, 10.5325432 ], [ -66.9815692, 10.5326035 ], [ -66.9816068, 10.5326115 ], [ -66.9816497, 10.5326115 ], [ -66.9817007, 10.5326088 ], [ -66.9817597, 10.5325969 ], [ -66.9818133, 10.5325824 ], [ -66.9820333, 10.5325007 ], [ -66.9821679, 10.5324479 ], [ -66.9823323, 10.5323834 ], [ -66.9824144, 10.5323482 ], [ -66.9826461, 10.5322489 ], [ -66.9827239, 10.532204 ], [ -66.9827533, 10.5321846 ], [ -66.9828835, 10.5320986 ], [ -66.9829435, 10.5320561 ], [ -66.9830082, 10.5320102 ], [ -66.9831692, 10.531885 ], [ -66.9832456, 10.5318217 ], [ -66.9832738, 10.5318098 ], [ -66.9833247, 10.5318032 ], [ -66.9833757, 10.5318164 ], [ -66.983432, 10.5318467 ], [ -66.9836721, 10.5320129 ], [ -66.9838773, 10.5321908 ], [ -66.9839913, 10.5322713 ], [ -66.9840261, 10.5322805 ] ], [ [ -66.9771718, 10.5804353 ], [ -66.9770913, 10.5802758 ], [ -66.9770001, 10.5801136 ], [ -66.9769478, 10.5800306 ], [ -66.976874, 10.5799357 ], [ -66.9768217, 10.5798829 ], [ -66.9767681, 10.579846 ], [ -66.9767131, 10.5798183 ], [ -66.9766474, 10.5797959 ], [ -66.9765079, 10.5797643 ], [ -66.9764234, 10.5797419 ], [ -66.9763322, 10.5797129 ], [ -66.9761163, 10.5796325 ], [ -66.976009, 10.5795982 ], [ -66.9759125, 10.5795758 ], [ -66.9758534, 10.5795731 ], [ -66.9757757, 10.5795771 ], [ -66.9756724, 10.5795903 ], [ -66.9755718, 10.5796087 ], [ -66.9755061, 10.57961 ], [ -66.9754498, 10.5796087 ], [ -66.9752982, 10.5795916 ], [ -66.9751547, 10.5795718 ], [ -66.9750635, 10.5795547 ], [ -66.9749938, 10.5795362 ], [ -66.9749267, 10.5795085 ], [ -66.9743796, 10.5792449 ], [ -66.9740416, 10.5790722 ], [ -66.9739544, 10.5790155 ], [ -66.9738995, 10.578972 ], [ -66.9737265, 10.5788112 ], [ -66.9736889, 10.578769 ], [ -66.9736674, 10.5787281 ], [ -66.9736044, 10.578529 ], [ -66.9735749, 10.5784091 ], [ -66.9735682, 10.5783563 ], [ -66.9735655, 10.5782996 ], [ -66.9735695, 10.5782205 ], [ -66.9735776, 10.5781573 ], [ -66.9736326, 10.5779068 ], [ -66.9736379, 10.5778725 ], [ -66.9736353, 10.5778422 ], [ -66.9736192, 10.5778092 ], [ -66.9734998, 10.5776497 ], [ -66.9733925, 10.5775469 ], [ -66.9733281, 10.5775007 ], [ -66.9732584, 10.5774599 ], [ -66.9731887, 10.5774256 ], [ -66.9731136, 10.5773953 ], [ -66.9728749, 10.577332 ], [ -66.9727837, 10.577307 ], [ -66.9727515, 10.5772832 ], [ -66.9727381, 10.5772529 ], [ -66.9727327, 10.577212 ], [ -66.9727407, 10.5771738 ], [ -66.9727635, 10.577129 ], [ -66.9728306, 10.5770407 ], [ -66.9728588, 10.5769958 ], [ -66.9728668, 10.5769563 ], [ -66.9728681, 10.5769154 ], [ -66.9728628, 10.5768759 ], [ -66.9728413, 10.5768297 ], [ -66.9728118, 10.5767836 ], [ -66.972777, 10.5767506 ], [ -66.972722, 10.5767098 ], [ -66.972671, 10.5766781 ], [ -66.9726388, 10.5766478 ], [ -66.9726214, 10.5766148 ], [ -66.9726133, 10.5765792 ], [ -66.9726039, 10.5765252 ], [ -66.9725919, 10.5763419 ], [ -66.9725838, 10.5762721 ], [ -66.9725704, 10.576222 ], [ -66.9725557, 10.5761903 ], [ -66.9724028, 10.5760269 ], [ -66.9723424, 10.575957 ], [ -66.9723009, 10.5759029 ], [ -66.9722003, 10.5757368 ], [ -66.9721681, 10.5756907 ], [ -66.9721439, 10.5756604 ], [ -66.9720903, 10.5756169 ], [ -66.9717537, 10.5753914 ], [ -66.9717161, 10.5753532 ], [ -66.9716907, 10.5753202 ], [ -66.9716518, 10.5752543 ], [ -66.9716102, 10.5751739 ], [ -66.9715659, 10.5750447 ], [ -66.9714828, 10.5747665 ], [ -66.971456, 10.5747059 ], [ -66.9714291, 10.5746611 ], [ -66.9713715, 10.5745859 ], [ -66.9712789, 10.574466 ], [ -66.9712642, 10.5744238 ], [ -66.9712642, 10.5743856 ], [ -66.9712883, 10.5742854 ], [ -66.9713111, 10.5742471 ], [ -66.9713366, 10.5742181 ], [ -66.9713755, 10.5741918 ], [ -66.9714439, 10.5741641 ], [ -66.9715297, 10.574143 ], [ -66.9715941, 10.574114 ], [ -66.9716477, 10.5740757 ], [ -66.9719844, 10.5737422 ], [ -66.972046, 10.5736829 ], [ -66.972097, 10.5736104 ], [ -66.9721212, 10.5735695 ], [ -66.9722405, 10.5732597 ], [ -66.9722633, 10.5731529 ], [ -66.9722687, 10.573091 ], [ -66.9722646, 10.5730145 ], [ -66.9722472, 10.5727917 ], [ -66.9722459, 10.5727284 ], [ -66.9722539, 10.5726783 ], [ -66.9722794, 10.5726388 ], [ -66.972321, 10.5725953 ], [ -66.97238, 10.5725583 ], [ -66.9726174, 10.5724542 ], [ -66.972726, 10.5723975 ], [ -66.972785, 10.5723553 ], [ -66.9728293, 10.5723171 ], [ -66.9728775, 10.5722604 ], [ -66.9729339, 10.5721734 ], [ -66.9730143, 10.5720139 ], [ -66.9730398, 10.5719453 ], [ -66.9730505, 10.5718926 ], [ -66.9730479, 10.5718451 ], [ -66.9730371, 10.5717805 ], [ -66.9730049, 10.5716606 ], [ -66.9729714, 10.5715933 ], [ -66.9729392, 10.5715472 ], [ -66.9729003, 10.5715089 ], [ -66.9728373, 10.5714562 ], [ -66.9727394, 10.5713982 ], [ -66.9726455, 10.5713428 ], [ -66.9721641, 10.5711134 ], [ -66.9721051, 10.5710713 ], [ -66.9720581, 10.5710304 ], [ -66.9720206, 10.5709882 ], [ -66.9719897, 10.5709381 ], [ -66.9719267, 10.5708168 ], [ -66.9718838, 10.5707404 ], [ -66.9718368, 10.5706639 ] ], [ [ -66.9771718, 10.5804353 ], [ -66.97709977582852, 10.58029259372236 ] ], [ [ -66.9718368, 10.5706639 ], [ -66.971743491276328, 10.570527790482458 ], [ -66.9717121, 10.570482 ] ], [ [ -66.9717121, 10.570482 ], [ -66.9718368, 10.5706639 ] ] ] } }
]
}
