{"type": "FeatureCollection", "features": [{"type": "Feature", "properties": {"site_no": 88, "location": "populated", "slope_deg": 27.4, "aspect_dir": "SE"}, "geometry": {"type": "Point", "coordinates": [-66.98361752245721, 10.491744752353334]}}, {"type": "Feature", "properties": {"site_no": 94, "location": "populated", "slope_deg": 29.1, "aspect_dir": "S"}, "geometry": {"type": "Point", "coordinates": [-66.97301374749055, 10.494426182245027]}}, {"type": "Feature", "properties": {"site_no": 93, "location": null, "slope_deg": 27.2, "aspect_dir": "N"}, "geometry": {"type": "Point", "coordinates": [-66.96224335790606, 10.496251277603877]}}, {"type": "Feature", "properties": {"site_no": 86, "location": "remote", "slope_deg": 29.6, "aspect_dir": "NW"}, "geometry": {"type": "Point", "coordinates": [-67.02348562908671, 10.493808463636942]}}, {"type": "Feature", "properties": {"site_no": 25, "location": "populated", "slope_deg": 29.3, "aspect_dir": "S"}, "geometry": {"type": "Point", "coordinates": [-66.970339, 10.525799]}}, {"type": "Feature", "properties": {"site_no": 97, "location": "populated", "slope_deg": 45.4, "aspect_dir": "S"}, "geometry": {"type": "Point", "coordinates": [-66.96883229266054, 10.525736262547216]}}, {"type": "Feature", "properties": {"site_no": 26, "location": "populated", "slope_deg": 31.7, "aspect_dir": "N"}, "geometry": {"type": "Point", "coordinates": [-66.966552, 10.523204]}}, {"type": "Feature", "properties": {"site_no": 4, "location": "populated", "slope_deg": 23.8, "aspect_dir": "SW"}, "geometry": {"type": "Point", "coordinates": [-66.983632, 10.533847]}}, {"type": "Feature", "properties": {"site_no": 98, "location": "populated", "slope_deg": 21.0, "aspect_dir": "SE"}, "geometry": {"type": "Point", "coordinates": [-66.96443433470031, 10.524559965191367]}}, {"type": "Feature", "properties": {"site_no": 99, "location": "populated", "slope_deg": 23.5, "aspect_dir": "NW"}, "geometry": {"type": "Point", "coordinates": [-66.96326753480864, 10.524086938208253]}}, {"type": "Feature", "properties": {"site_no": 100, "location": "populated", "slope_deg": 26.4, "aspect_dir": "NW"}, "geometry": {"type": "Point", "coordinates": [-66.96411447835935, 10.523321084997498]}}, {"type": "Feature", "properties": {"site_no": 101, "location": "populated", "slope_deg": 26.5, "aspect_dir": "N"}, "geometry": {"type": "Point", "coordinates": [-66.9621502901247, 10.524195058661537]}}, {"type": "Feature", "properties": {"site_no": 102, "location": "populated", "slope_deg": 25.0, "aspect_dir": "N"}, "geometry": {"type": "Point", "coordinates": [-66.9618439488404, 10.523834657150593]}}, {"type": "Feature", "properties": {"site_no": 57, "location": "remote", "slope_deg": 38.0, "aspect_dir": "W"}, "geometry": {"type": "Point", "coordinates": [-66.97673570851883, 10.580476339292444]}}, {"type": "Feature", "properties": {"site_no": 58, "location": "remote", "slope_deg": 41.8, "aspect_dir": "NE"}, "geometry": {"type": "Point", "coordinates": [-66.97954336127471, 10.579687859455664]}}, {"type": "Feature", "properties": {"site_no": 55, "location": "remote", "slope_deg": 35.8, "aspect_dir": "SW"}, "geometry": {"type": "Point", "coordinates": [-66.97163195046691, 10.570604256336964]}}, {"type": "Feature", "properties": {"site_no": 48, "location": "remote", "slope_deg": 26.8, "aspect_dir": "S"}, "geometry": {"type": "Point", "coordinates": [-67.00134174784083, 10.562042789537138]}}, {"type": "Feature", "properties": {"site_no": 49, "location": "remote", "slope_deg": 19.0, "aspect_dir": "SW"}, "geometry": {"type": "Point", "coordinates": [-67.00061986140335, 10.560389289327293]}}, {"type": "Feature", "properties": {"site_no": 1, "location": "remote", "slope_deg": 25.8, "aspect_dir": "SW"}, "geometry": {"type": "Point", "coordinates": [-66.989994, 10.549015]}}, {"type": "Feature", "properties": {"site_no": 2, "location": "remote", "slope_deg": 26.5, "aspect_dir": "SW"}, "geometry": {"type": "Point", "coordinates": [-66.987934, 10.543535]}}, {"type": "Feature", "properties": {"site_no": 24, "location": "populated", "slope_deg": 37.8, "aspect_dir": "W"}, "geometry": {"type": "Point", "coordinates": [-66.97522, 10.539321]}}, {"type": "Feature", "properties": {"site_no": 124, "location": "populated", "slope_deg": null, "aspect_dir": null}, "geometry": {"type": "Point", "coordinates": [-66.8274164052904, 10.60747467098443]}}, {"type": "Feature", "properties": {"site_no": 81, "location": null, "slope_deg": 30.1, "aspect_dir": "E"}, "geometry": {"type": "Point", "coordinates": [-66.85163060479849, 10.601504257237298]}}, {"type": "Feature", "properties": {"site_no": 80, "location": null, "slope_deg": 31.9, "aspect_dir": "NE"}, "geometry": {"type": "Point", "coordinates": [-66.8526753222265, 10.60349610859729]}}, {"type": "Feature", "properties": {"site_no": 79, "location": null, "slope_deg": 25.0, "aspect_dir": "NE"}, "geometry": {"type": "Point", "coordinates": [-66.85365115718673, 10.60225622417724]}}, {"type": "Feature", "properties": {"site_no": 105, "location": "remote", "slope_deg": 53.0, "aspect_dir": "E"}, "geometry": {"type": "Point", "coordinates": [-66.85068794469188, 10.59332977365561]}}, {"type": "Feature", "properties": {"site_no": 78, "location": "populated", "slope_deg": 27.4, "aspect_dir": "NE"}, "geometry": {"type": "Point", "coordinates": [-66.87333539978404, 10.606582411384785]}}, {"type": "Feature", "properties": {"site_no": 125, "location": null, "slope_deg": null, "aspect_dir": null}, "geometry": {"type": "Point", "coordinates": [-66.90634071231601, 10.583775579248357]}}]}