{
"type": "FeatureCollection",
"name": "la-guaira_20260626_150535_17_3010",
"crs": { "type": "name", "properties": { "name": "urn:ogc:def:crs:OGC:1.3:CRS84" } },
"features": [
{ "type": "Feature", "properties": { "site_no": 1, "category": null, "note": null, "perishability": "med", "location": "remote", "extent": "small" }, "geometry": { "type": "Point", "coordinates": [ -66.989994, 10.549015 ] } },
{ "type": "Feature", "properties": { "site_no": 2, "category": null, "note": null, "perishability": "med", "location": "remote", "extent": "small" }, "geometry": { "type": "Point", "coordinates": [ -66.987934, 10.543535 ] } },
{ "type": "Feature", "properties": { "site_no": 3, "category": null, "note": "mixed sources", "perishability": "med", "location": "populated", "extent": "large" }, "geometry": { "type": "Point", "coordinates": [ -66.981432, 10.536763 ] } },
{ "type": "Feature", "properties": { "site_no": 4, "category": null, "note": "mixed sources", "perishability": "med", "location": "populated", "extent": "medium" }, "geometry": { "type": "Point", "coordinates": [ -66.983632, 10.533847 ] } },
{ "type": "Feature", "properties": { "site_no": 5, "category": null, "note": null, "perishability": "med", "location": "remote", "extent": "medium", "group": "quarry", "road_dist_m": null }, "geometry": { "type": "Point", "coordinates": [ -66.996785, 10.526221 ] } },
{ "type": "Feature", "properties": { "site_no": 6, "category": null, "note": null, "perishability": "med", "location": "remote", "extent": "large", "group": "quarry" }, "geometry": { "type": "Point", "coordinates": [ -66.994221, 10.526389 ] } },
{ "type": "Feature", "properties": { "site_no": 7, "category": null, "note": null, "perishability": "med", "location": "remote", "extent": "medium", "group": "quarry" }, "geometry": { "type": "Point", "coordinates": [ -66.999274, 10.524607 ] } },
{ "type": "Feature", "properties": { "site_no": 8, "category": null, "note": null, "perishability": "med", "location": "remote", "extent": "medium", "group": "quarry" }, "geometry": { "type": "Point", "coordinates": [ -67.002386, 10.521115 ] } },
{ "type": "Feature", "properties": { "site_no": 9, "category": null, "note": "low confidence", "perishability": "med", "location": "populated", "extent": "small", "group": null }, "geometry": { "type": "Point", "coordinates": [ -66.994715, 10.496652 ] } },
{ "type": "Feature", "properties": { "site_no": 10, "category": null, "note": "low confidence", "perishability": "med", "location": "populated", "extent": "small" }, "geometry": { "type": "Point", "coordinates": [ -66.989404, 10.491947 ] } },
{ "type": "Feature", "properties": { "site_no": 11, "category": null, "note": "low confidence", "perishability": "med", "location": "populated", "extent": "small" }, "geometry": { "type": "Point", "coordinates": [ -66.988374, 10.490523 ] } },
{ "type": "Feature", "properties": { "site_no": 12, "category": null, "note": "low confidence", "perishability": "med", "location": "populated", "extent": "small" }, "geometry": { "type": "Point", "coordinates": [ -66.989761, 10.493675 ] } },
{ "type": "Feature", "properties": { "site_no": 13, "category": null, "note": "low confidence", "perishability": "med", "location": "populated", "extent": "large" }, "geometry": { "type": "Point", "coordinates": [ -66.988068, 10.493311 ] } },
{ "type": "Feature", "properties": { "site_no": 14, "category": null, "note": "low confidence", "perishability": "med", "location": "populated", "extent": "medium" }, "geometry": { "type": "Point", "coordinates": [ -66.990536, 10.491451 ] } },
{ "type": "Feature", "properties": { "site_no": 15, "category": null, "note": "low confidence", "perishability": "med", "location": "populated", "extent": "small" }, "geometry": { "type": "Point", "coordinates": [ -66.98662, 10.493593 ] } },
{ "type": "Feature", "properties": { "site_no": 16, "category": null, "note": "low confidence", "perishability": "med", "location": "populated", "extent": "medium" }, "geometry": { "type": "Point", "coordinates": [ -66.979045, 10.494105 ] } },
{ "type": "Feature", "properties": { "site_no": 17, "category": null, "note": "low confidence", "perishability": "med", "location": "populated", "extent": "medium" }, "geometry": { "type": "Point", "coordinates": [ -66.977704, 10.493994 ] } },
{ "type": "Feature", "properties": { "site_no": 18, "category": null, "note": "low confidence", "perishability": "med", "location": "populated", "extent": "medium" }, "geometry": { "type": "Point", "coordinates": [ -66.978348, 10.493867 ] } },
{ "type": "Feature", "properties": { "site_no": 19, "category": null, "note": "low confidence", "perishability": "med", "location": "remote", "extent": "medium" }, "geometry": { "type": "Point", "coordinates": [ -67.000669, 10.502982 ] } },
{ "type": "Feature", "properties": { "site_no": 20, "category": null, "note": "low confidence", "perishability": "med", "location": "populated", "extent": "medium" }, "geometry": { "type": "Point", "coordinates": [ -66.998883, 10.500724 ] } },
{ "type": "Feature", "properties": { "site_no": 21, "category": null, "note": "low confidence", "perishability": "med", "location": "populated", "extent": "medium" }, "geometry": { "type": "Point", "coordinates": [ -66.995525, 10.500614 ] } },
{ "type": "Feature", "properties": { "site_no": 22, "category": null, "note": "low confidence", "perishability": "med", "location": "remote", "extent": "small" }, "geometry": { "type": "Point", "coordinates": [ -66.997102, 10.503457 ] } },
{ "type": "Feature", "properties": { "site_no": 23, "category": null, "note": null, "perishability": "high", "location": "populated", "extent": "medium" }, "geometry": { "type": "Point", "coordinates": [ -66.971101, 10.515788 ] } },
{ "type": "Feature", "properties": { "site_no": 24, "category": null, "note": "reactivation", "perishability": "high", "location": "populated", "extent": "medium" }, "geometry": { "type": "Point", "coordinates": [ -66.97522, 10.539321 ] } },
{ "type": "Feature", "properties": { "site_no": 25, "category": null, "note": "low confidence", "perishability": "med", "location": "populated", "extent": "small" }, "geometry": { "type": "Point", "coordinates": [ -66.970339, 10.525799 ] } },
{ "type": "Feature", "properties": { "site_no": 26, "category": null, "note": null, "perishability": "low", "location": "populated", "extent": "medium", "group": "Trocha" }, "geometry": { "type": "Point", "coordinates": [ -66.966552, 10.523204 ] } },
{ "type": "Feature", "properties": { "site_no": 27, "category": "", "note": null, "perishability": "low", "location": "populated", "extent": "small", "group": "Radiofaro" }, "geometry": { "type": "Point", "coordinates": [ -66.989478445483442, 10.605921411560388 ] } },
{ "type": "Feature", "properties": { "site_no": 28, "category": null, "note": "low confidence", "perishability": "low", "location": "populated", "extent": "small", "group": "Radiofaro" }, "geometry": { "type": "Point", "coordinates": [ -66.987902956609275, 10.608386759891252 ] } },
{ "type": "Feature", "properties": { "site_no": 29, "category": null, "note": null, "perishability": "low", "location": "populated", "extent": "small", "group": "Radiofaro" }, "geometry": { "type": "Point", "coordinates": [ -66.98605794413541, 10.607322460969607 ] } },
{ "type": "Feature", "properties": { "site_no": 30, "category": null, "note": null, "perishability": "low", "location": "populated", "extent": "medium", "group": "Radiofaro" }, "geometry": { "type": "Point", "coordinates": [ -66.986993072231982, 10.609115118542398 ] } },
{ "type": "Feature", "properties": { "site_no": 31, "category": null, "note": "low confidence", "perishability": "med", "location": "populated", "extent": "small" }, "geometry": { "type": "Point", "coordinates": [ -66.979917429675268, 10.606935503024795 ] } },
{ "type": "Feature", "properties": { "site_no": 32, "category": null, "note": null, "perishability": "low", "location": "populated", "extent": "small" }, "geometry": { "type": "Point", "coordinates": [ -66.970429531174929, 10.600988572100984 ] } },
{ "type": "Feature", "properties": { "site_no": 33, "category": null, "note": null, "perishability": "low", "location": "populated", "extent": "small", "group": "CRPV" }, "geometry": { "type": "Point", "coordinates": [ -67.010851754118889, 10.611560235613691 ] } },
{ "type": "Feature", "properties": { "site_no": 34, "category": null, "note": null, "perishability": "low", "location": "populated", "extent": "small", "group": "CRPV" }, "geometry": { "type": "Point", "coordinates": [ -67.012680087832123, 10.611417659131465 ] } },
{ "type": "Feature", "properties": { "site_no": 35, "category": null, "note": null, "perishability": "low", "location": "populated", "extent": "small", "group": "CRPV" }, "geometry": { "type": "Point", "coordinates": [ -67.01387102080129, 10.611342177464406 ] } },
{ "type": "Feature", "properties": { "site_no": 36, "category": null, "note": null, "perishability": "low", "location": "populated", "extent": "small", "group": "CRPV" }, "geometry": { "type": "Point", "coordinates": [ -67.009613416342404, 10.610985557485378 ] } },
{ "type": "Feature", "properties": { "site_no": 37, "category": null, "note": null, "perishability": "high", "location": "populated", "extent": "medium", "group": "CRPV" }, "geometry": { "type": "Point", "coordinates": [ -67.007701758790432, 10.610618081012746 ] } },
{ "type": "Feature", "properties": { "site_no": 38, "category": null, "note": "low confidence", "perishability": "low", "location": "populated", "extent": "small" }, "geometry": { "type": "Point", "coordinates": [ -67.003255657617757, 10.607797755045134 ] } },
{ "type": "Feature", "properties": { "site_no": 39, "category": null, "note": null, "perishability": "low", "location": "populated", "extent": "medium", "group": "Radiofaro" }, "geometry": { "type": "Point", "coordinates": [ -66.994007020639572, 10.607565057127577 ] } },
{ "type": "Feature", "properties": { "site_no": 40, "category": null, "note": null, "perishability": "low", "location": "populated", "extent": "medium", "group": "Radiofaro" }, "geometry": { "type": "Point", "coordinates": [ -66.992759079161672, 10.608400903334964 ] } },
{ "type": "Feature", "properties": { "site_no": 41, "category": null, "note": "low confidence", "perishability": "low", "location": "populated", "extent": "small" }, "geometry": { "type": "Point", "coordinates": [ -67.01586883702565, 10.605983549032885 ] } },
{ "type": "Feature", "properties": { "site_no": 42, "category": null, "note": null, "perishability": "low", "location": "populated", "extent": "small" }, "geometry": { "type": "Point", "coordinates": [ -66.987827645477537, 10.59228039511529 ] } },
{ "type": "Feature", "properties": { "site_no": 43, "category": null, "note": "low confidence" }, "geometry": { "type": "Point", "coordinates": [ -66.991120172485381, 10.591077525248426 ] } },
{ "type": "Feature", "properties": { "site_no": 44, "category": null, "note": "head scarp", "perishability": "med", "location": "remote", "extent": "medium" }, "geometry": { "type": "Point", "coordinates": [ -66.953700718291685, 10.583176444576608 ] } },
{ "type": "Feature", "properties": { "site_no": 45, "category": null, "note": "low confidence", "perishability": "med", "location": "populated", "extent": "small", "group": "CRPV" }, "geometry": { "type": "Point", "coordinates": [ -67.019406896960646, 10.612157422060369 ] } },
{ "type": "Feature", "properties": { "site_no": 46, "category": null, "note": "low confidence" }, "geometry": { "type": "Point", "coordinates": [ -67.04194054804374, 10.588677588737777 ] } },
{ "type": "Feature", "properties": { "site_no": 47, "category": null, "note": null, "perishability": "low", "location": "populated", "extent": "small" }, "geometry": { "type": "Point", "coordinates": [ -67.008288809814928, 10.548911350517567 ] } },
{ "type": "Feature", "properties": { "site_no": 48, "category": null, "note": "low confidence", "perishability": "low", "location": "remote", "extent": "medium", "group": "Túnel Boquerón I, II" }, "geometry": { "type": "Point", "coordinates": [ -67.001341747840826, 10.562042789537138 ] } },
{ "type": "Feature", "properties": { "site_no": 49, "category": null, "note": null, "perishability": "low", "location": "remote", "extent": "small", "group": "Túnel Boquerón I, II" }, "geometry": { "type": "Point", "coordinates": [ -67.000619861403351, 10.560389289327293 ] } },
{ "type": "Feature", "properties": { "site_no": 50, "category": null, "note": "landslide dam potential", "perishability": "high", "location": "remote", "extent": "medium", "group": "Túnel Boquerón I, II" }, "geometry": { "type": "Point", "coordinates": [ -67.008423283769218, 10.562322836456961 ] } },
{ "type": "Feature", "properties": { "site_no": 51, "category": null, "note": "landslide dam potential", "perishability": "high", "location": "remote", "extent": "small", "group": "Túnel Boquerón I, II" }, "geometry": { "type": "Point", "coordinates": [ -67.008356422299059, 10.560657378018377 ] } },
{ "type": "Feature", "properties": { "site_no": 52, "category": null, "note": "landslide dam potential; reactivation", "perishability": "med", "location": "remote", "extent": "large", "group": "Túnel Boquerón I, II" }, "geometry": { "type": "Point", "coordinates": [ -67.008395972032432, 10.570683467964257 ] } },
{ "type": "Feature", "properties": { "site_no": 53, "category": null, "note": "low confidence", "perishability": "low", "location": "remote", "extent": "medium", "group": "Túnel Boquerón I, II" }, "geometry": { "type": "Point", "coordinates": [ -67.009081389759743, 10.574528522046077 ] } },
{ "type": "Feature", "properties": { "site_no": 54, "category": null, "note": null, "perishability": "low", "location": "remote", "extent": "small", "group": "Túnel Boquerón I, II" }, "geometry": { "type": "Point", "coordinates": [ -67.004175000932662, 10.571243100620739 ] } },
{ "type": "Feature", "properties": { "site_no": 55, "category": null, "note": null, "perishability": "high", "location": "remote", "extent": "medium" }, "geometry": { "type": "Point", "coordinates": [ -66.971631950466914, 10.570604256336964 ] } },
{ "type": "Feature", "properties": { "site_no": 56, "category": null, "note": "low confidence", "perishability": "med", "location": "remote", "extent": "small" }, "geometry": { "type": "Point", "coordinates": [ -66.974014913047711, 10.572117197875558 ] } },
{ "type": "Feature", "properties": { "site_no": 57, "category": null, "note": null, "perishability": "med", "location": "remote", "extent": "medium", "group": "A" }, "geometry": { "type": "Point", "coordinates": [ -66.976735708518831, 10.580476339292444 ] } },
{ "type": "Feature", "properties": { "site_no": 58, "category": null, "note": null, "perishability": "med", "location": "remote", "extent": "medium", "group": "A" }, "geometry": { "type": "Point", "coordinates": [ -66.979543361274708, 10.579687859455664 ] } },
{ "type": "Feature", "properties": { "site_no": 59, "category": null, "note": null, "perishability": "low", "location": "remote", "extent": "medium" }, "geometry": { "type": "Point", "coordinates": [ -66.95705448166342, 10.578601930261257 ] } },
{ "type": "Feature", "properties": { "site_no": 60, "category": null, "note": "head scarp", "perishability": "med", "location": "remote", "extent": "medium" }, "geometry": { "type": "Point", "coordinates": [ -67.055987326625768, 10.564116594751194 ] } },
{ "type": "Feature", "properties": { "site_no": 61, "category": null, "note": null, "perishability": "med", "location": "remote", "extent": "small" }, "geometry": { "type": "Point", "coordinates": [ -67.05601284126891, 10.554394989098682 ] } },
{ "type": "Feature", "properties": { "site_no": 62, "category": null, "note": null, "perishability": "med", "location": "remote", "extent": "medium", "group": "QSGJ" }, "geometry": { "type": "Point", "coordinates": [ -66.904938712208903, 10.588029370726007 ] } },
{ "type": "Feature", "properties": { "site_no": 63, "category": null, "note": null, "perishability": "med", "location": "remote", "extent": "medium", "group": "QSGJ" }, "geometry": { "type": "Point", "coordinates": [ -66.904575796109128, 10.583907680735761 ] } },
{ "type": "Feature", "properties": { "site_no": 64, "category": null, "note": null, "perishability": "med", "location": "remote", "extent": "medium", "group": "RM" }, "geometry": { "type": "Point", "coordinates": [ -66.901231783475538, 10.588262673933002 ] } },
{ "type": "Feature", "properties": { "site_no": 65, "category": null, "note": null, "perishability": "med", "location": "remote", "extent": "medium", "group": "RM" }, "geometry": { "type": "Point", "coordinates": [ -66.898250686941708, 10.588677435189881 ] } },
{ "type": "Feature", "properties": { "site_no": 66, "category": null, "note": null, "perishability": "med", "location": "remote", "extent": "medium", "group": "RM" }, "geometry": { "type": "Point", "coordinates": [ -66.896254648392983, 10.587666454626238 ] } },
{ "type": "Feature", "properties": { "site_no": 67, "category": null, "note": null, "perishability": "med", "location": "remote", "extent": "medium", "group": "RM" }, "geometry": { "type": "Point", "coordinates": [ -66.891458971360308, 10.581678338980032 ] } },
{ "type": "Feature", "properties": { "site_no": 68, "category": null, "note": null, "perishability": "med", "location": "remote", "extent": "medium", "group": "RM" }, "geometry": { "type": "Point", "coordinates": [ -66.893740158273147, 10.589610648017862 ] } },
{ "type": "Feature", "properties": { "site_no": 69, "category": null, "note": null, "perishability": "med", "location": "remote", "extent": "medium", "group": "QSGJ" }, "geometry": { "type": "Point", "coordinates": [ -66.906494066922207, 10.593706415429553 ] } },
{ "type": "Feature", "properties": { "site_no": 70, "category": null, "note": null, "perishability": "med", "location": "remote", "extent": "medium", "group": "QSGJ" }, "geometry": { "type": "Point", "coordinates": [ -66.906882905600526, 10.596480131334937 ] } },
{ "type": "Feature", "properties": { "site_no": 71, "category": null, "note": null, "perishability": "med", "location": "remote", "extent": "medium", "group": "RM" }, "geometry": { "type": "Point", "coordinates": [ -66.896358338707202, 10.592047370402032 ] } },
{ "type": "Feature", "properties": { "site_no": 72, "category": null, "note": null, "perishability": "med", "location": "remote", "extent": "medium", "group": "RM" }, "geometry": { "type": "Point", "coordinates": [ -66.899469048133795, 10.595209924985742 ] } },
{ "type": "Feature", "properties": { "site_no": 73, "category": null, "note": null, "perishability": "med", "location": "remote", "extent": "medium", "group": "QC" }, "geometry": { "type": "Point", "coordinates": [ -66.881018149761246, 10.579097973903973 ] } },
{ "type": "Feature", "properties": { "site_no": 74, "category": null, "note": null, "perishability": "med", "location": "remote", "extent": "medium", "group": "QC" }, "geometry": { "type": "Point", "coordinates": [ -66.883892960823843, 10.577003468701225 ] } },
{ "type": "Feature", "properties": { "site_no": 75, "category": null, "note": null, "perishability": "med", "location": "remote", "extent": "medium", "group": "RCC" }, "geometry": { "type": "Point", "coordinates": [ -66.871490204525216, 10.592527448439238 ] } },
{ "type": "Feature", "properties": { "site_no": 76, "category": null, "note": null, "perishability": "med", "location": "remote", "extent": "large", "group": "QC" }, "geometry": { "type": "Point", "coordinates": [ -66.884714335413165, 10.581479960212981 ] } },
{ "type": "Feature", "properties": { "site_no": 77, "category": null, "note": null, "perishability": "low", "location": "populated", "extent": "small" }, "geometry": { "type": "Point", "coordinates": [ -66.875704583539445, 10.607628544471597 ] } },
{ "type": "Feature", "properties": { "site_no": 78, "category": null, "note": null, "perishability": "low", "location": "populated", "extent": "medium" }, "geometry": { "type": "Point", "coordinates": [ -66.87333539978404, 10.606582411384785 ] } },
{ "type": "Feature", "properties": { "site_no": 79, "category": null, "note": "low confidence" }, "geometry": { "type": "Point", "coordinates": [ -66.853651157186732, 10.602256224177239 ] } },
{ "type": "Feature", "properties": { "site_no": 80, "category": null, "note": "low confidence" }, "geometry": { "type": "Point", "coordinates": [ -66.852675322226503, 10.603496108597289 ] } },
{ "type": "Feature", "properties": { "site_no": 81, "category": null, "note": "low confidence" }, "geometry": { "type": "Point", "coordinates": [ -66.851630604798487, 10.601504257237298 ] } },
{ "type": "Feature", "properties": { "site_no": 82, "category": null, "note": null }, "geometry": { "type": "Point", "coordinates": [ -66.801017703599285, 10.514511821412013 ] } },
{ "type": "Feature", "properties": { "site_no": 83, "category": null, "note": null }, "geometry": { "type": "Point", "coordinates": [ -66.875004762714383, 10.558520517831699 ] } },
{ "type": "Feature", "properties": { "site_no": 84, "category": null, "note": null }, "geometry": { "type": "Point", "coordinates": [ -67.014797829044653, 10.485621475630097 ] } },
{ "type": "Feature", "properties": { "site_no": 85, "category": null, "note": null }, "geometry": { "type": "Point", "coordinates": [ -67.019708010958624, 10.490887055469123 ] } },
{ "type": "Feature", "properties": { "site_no": 86, "category": null, "note": null }, "geometry": { "type": "Point", "coordinates": [ -67.023485629086707, 10.493808463636942 ] } },
{ "type": "Feature", "properties": { "site_no": 87, "category": null, "note": null }, "geometry": { "type": "Point", "coordinates": [ -66.995147903707377, 10.520582618915419 ] } },
{ "type": "Feature", "properties": { "site_no": 88, "category": null, "note": null }, "geometry": { "type": "Point", "coordinates": [ -66.983617522457209, 10.491744752353334 ] } },
{ "type": "Feature", "properties": { "site_no": 89, "category": null, "note": null }, "geometry": { "type": "Point", "coordinates": [ -66.988405257528314, 10.492604247490558 ] } },
{ "type": "Feature", "properties": { "site_no": 90, "category": null, "note": null }, "geometry": { "type": "Point", "coordinates": [ -66.978459583755978, 10.501990797679424 ] } },
{ "type": "Feature", "properties": { "site_no": 91, "category": null, "note": null }, "geometry": { "type": "Point", "coordinates": [ -66.976159903076052, 10.496163787641652 ] } },
{ "type": "Feature", "properties": { "site_no": 92, "category": null, "note": null }, "geometry": { "type": "Point", "coordinates": [ -66.976765252509452, 10.498839282622765 ] } },
{ "type": "Feature", "properties": { "site_no": 93, "category": null, "note": null }, "geometry": { "type": "Point", "coordinates": [ -66.962243357906061, 10.496251277603877 ] } },
{ "type": "Feature", "properties": { "site_no": 94, "category": null, "note": null }, "geometry": { "type": "Point", "coordinates": [ -66.973013747490555, 10.494426182245027 ] } },
{ "type": "Feature", "properties": { "site_no": 95, "category": null, "note": null }, "geometry": { "type": "Point", "coordinates": [ -66.946361747490542, 10.499397767566103 ] } },
{ "type": "Feature", "properties": { "site_no": 96, "category": null, "note": null }, "geometry": { "type": "Point", "coordinates": [ -66.970639202320569, 10.513751667188368 ] } },
{ "type": "Feature", "properties": { "site_no": 97, "category": null, "note": null, "perishability": "high", "location": "populated", "extent": "medium", "group": "Trocha" }, "geometry": { "type": "Point", "coordinates": [ -66.968832292660537, 10.525736262547216 ] } },
{ "type": "Feature", "properties": { "site_no": 98, "category": null, "note": null, "perishability": "med", "location": "populated", "extent": "small", "group": "Trocha" }, "geometry": { "type": "Point", "coordinates": [ -66.964434334700314, 10.524559965191367 ] } },
{ "type": "Feature", "properties": { "site_no": 99, "category": null, "note": null, "perishability": "med", "location": "populated", "extent": "small", "group": "Trocha" }, "geometry": { "type": "Point", "coordinates": [ -66.963267534808637, 10.524086938208253 ] } },
{ "type": "Feature", "properties": { "site_no": 100, "category": null, "note": null, "perishability": "med", "location": "populated", "extent": "medium", "group": "Trocha" }, "geometry": { "type": "Point", "coordinates": [ -66.964114478359349, 10.523321084997498 ] } },
{ "type": "Feature", "properties": { "site_no": 101, "category": null, "note": null, "perishability": "med", "location": "populated", "extent": "small", "group": "Trocha" }, "geometry": { "type": "Point", "coordinates": [ -66.962150290124697, 10.524195058661537 ] } },
{ "type": "Feature", "properties": { "site_no": 102, "category": null, "note": null, "perishability": "med", "location": "populated", "extent": "medium", "group": "Trocha" }, "geometry": { "type": "Point", "coordinates": [ -66.961843948840396, 10.523834657150593 ] } },
{ "type": "Feature", "properties": { "site_no": 103, "category": null, "note": "low confidence", "perishability": "med", "location": "populated", "extent": "small" }, "geometry": { "type": "Point", "coordinates": [ -66.961958677226136, 10.520704606961726 ] } },
{ "type": "Feature", "properties": { "site_no": 104, "category": null, "note": null }, "geometry": { "type": "Point", "coordinates": [ -66.9932556, 10.494759 ] } },
{ "type": "Feature", "properties": { "site_no": 105, "category": null, "note": null }, "geometry": { "type": "Point", "coordinates": [ -66.850687944691884, 10.59332977365561 ] } },
{ "type": "Feature", "properties": { "site_no": 106, "category": null, "note": null, "group": "RCC" }, "geometry": { "type": "Point", "coordinates": [ -66.873160465901123, 10.584124689518193 ] } },
{ "type": "Feature", "properties": { "site_no": 107, "category": null, "note": null, "group": "RCC" }, "geometry": { "type": "Point", "coordinates": [ -66.864747653354769, 10.592572122692308 ] } },
{ "type": "Feature", "properties": { "site_no": 108, "category": null, "note": null, "group": "RCC" }, "geometry": { "type": "Point", "coordinates": [ -66.871048607607591, 10.596138047351875 ] } }
]
}
