{"type": "FeatureCollection", "features": [{"type": "Feature", "properties": {"zone": "A1", "place": "san-felipe", "label": "A1 \u00b7 san-felipe", "n_layers": 1}, "geometry": {"type": "Polygon", "coordinates": [[[-69.0, 10.75], [-68.75, 10.75], [-68.75, 11.0], [-69.0, 11.0], [-69.0, 10.75]]]}}, {"type": "Feature", "properties": {"zone": "A2", "place": "moron", "label": "A2 \u00b7 moron", "n_layers": 2}, "geometry": {"type": "Polygon", "coordinates": [[[-68.75, 10.75], [-68.5, 10.75], [-68.5, 11.0], [-68.75, 11.0], [-68.75, 10.75]]]}}, {"type": "Feature", "properties": {"zone": "A3", "place": "moron", "label": "A3 \u00b7 moron", "n_layers": 1}, "geometry": {"type": "Polygon", "coordinates": [[[-68.5, 10.75], [-68.25, 10.75], [-68.25, 11.0], [-68.5, 11.0], [-68.5, 10.75]]]}}, {"type": "Feature", "properties": {"zone": "A6", "place": "choroni", "label": "A6 \u00b7 choroni", "n_layers": 1}, "geometry": {"type": "Polygon", "coordinates": [[[-67.75, 10.75], [-67.5, 10.75], [-67.5, 11.0], [-67.75, 11.0], [-67.75, 10.75]]]}}, {"type": "Feature", "properties": {"zone": "A7", "place": "catia-la-mar", "label": "A7 \u00b7 catia-la-mar", "n_layers": 3}, "geometry": {"type": "Polygon", "coordinates": [[[-67.5, 10.75], [-67.25, 10.75], [-67.25, 11.0], [-67.5, 11.0], [-67.5, 10.75]]]}}, {"type": "Feature", "properties": {"zone": "A8", "place": "caracas", "label": "A8 \u00b7 caracas", "n_layers": 5}, "geometry": {"type": "Polygon", "coordinates": [[[-67.25, 10.75], [-67.0, 10.75], [-67.0, 11.0], [-67.25, 11.0], [-67.25, 10.75]]]}}, {"type": "Feature", "properties": {"zone": "A9", "place": "caracas", "label": "A9 \u00b7 caracas", "n_layers": 4}, "geometry": {"type": "Polygon", "coordinates": [[[-67.0, 10.75], [-66.75, 10.75], [-66.75, 11.0], [-67.0, 11.0], [-67.0, 10.75]]]}}, {"type": "Feature", "properties": {"zone": "B1", "place": "san-felipe", "label": "B1 \u00b7 san-felipe", "n_layers": 3}, "geometry": {"type": "Polygon", "coordinates": [[[-69.0, 10.5], [-68.75, 10.5], [-68.75, 10.75], [-69.0, 10.75], [-69.0, 10.5]]]}}, {"type": "Feature", "properties": {"zone": "B2", "place": "moron", "label": "B2 \u00b7 moron", "n_layers": 4}, "geometry": {"type": "Polygon", "coordinates": [[[-68.75, 10.5], [-68.5, 10.5], [-68.5, 10.75], [-68.75, 10.75], [-68.75, 10.5]]]}}, {"type": "Feature", "properties": {"zone": "B3", "place": "moron", "label": "B3 \u00b7 moron", "n_layers": 7}, "geometry": {"type": "Polygon", "coordinates": [[[-68.5, 10.5], [-68.25, 10.5], [-68.25, 10.75], [-68.5, 10.75], [-68.5, 10.5]]]}}, {"type": "Feature", "properties": {"zone": "B4", "place": "moron", "label": "B4 \u00b7 moron", "n_layers": 9}, "geometry": {"type": "Polygon", "coordinates": [[[-68.25, 10.5], [-68.0, 10.5], [-68.0, 10.75], [-68.25, 10.75], [-68.25, 10.5]]]}}, {"type": "Feature", "properties": {"zone": "B5", "place": "puerto-cabello", "label": "B5 \u00b7 puerto-cabello", "n_layers": 7}, "geometry": {"type": "Polygon", "coordinates": [[[-68.0, 10.5], [-67.75, 10.5], [-67.75, 10.75], [-68.0, 10.75], [-68.0, 10.5]]]}}, {"type": "Feature", "properties": {"zone": "B6", "place": "choroni", "label": "B6 \u00b7 choroni", "n_layers": 7}, "geometry": {"type": "Polygon", "coordinates": [[[-67.75, 10.5], [-67.5, 10.5], [-67.5, 10.75], [-67.75, 10.75], [-67.75, 10.5]]]}}, {"type": "Feature", "properties": {"zone": "B7", "place": "choroni", "label": "B7 \u00b7 choroni", "n_layers": 7}, "geometry": {"type": "Polygon", "coordinates": [[[-67.5, 10.5], [-67.25, 10.5], [-67.25, 10.75], [-67.5, 10.75], [-67.5, 10.5]]]}}, {"type": "Feature", "properties": {"zone": "B8", "place": "la-guaira", "label": "B8 \u00b7 la-guaira", "n_layers": 22}, "geometry": {"type": "Polygon", "coordinates": [[[-67.25, 10.5], [-67.0, 10.5], [-67.0, 10.75], [-67.25, 10.75], [-67.25, 10.5]]]}}, {"type": "Feature", "properties": {"zone": "B9", "place": "caracas", "label": "B9 \u00b7 caracas", "n_layers": 31}, "geometry": {"type": "Polygon", "coordinates": [[[-67.0, 10.5], [-66.75, 10.5], [-66.75, 10.75], [-67.0, 10.75], [-67.0, 10.5]]]}}, {"type": "Feature", "properties": {"zone": "B10", "place": "caracas", "label": "B10 \u00b7 caracas", "n_layers": 6}, "geometry": {"type": "Polygon", "coordinates": [[[-66.75, 10.5], [-66.5, 10.5], [-66.5, 10.75], [-66.75, 10.75], [-66.75, 10.5]]]}}, {"type": "Feature", "properties": {"zone": "B11", "place": "guarenas", "label": "B11 \u00b7 guarenas", "n_layers": 1}, "geometry": {"type": "Polygon", "coordinates": [[[-66.5, 10.5], [-66.25, 10.5], [-66.25, 10.75], [-66.5, 10.75], [-66.5, 10.5]]]}}, {"type": "Feature", "properties": {"zone": "C1", "place": "san-felipe", "label": "C1 \u00b7 san-felipe", "n_layers": 6}, "geometry": {"type": "Polygon", "coordinates": [[[-69.0, 10.25], [-68.75, 10.25], [-68.75, 10.5], [-69.0, 10.5], [-69.0, 10.25]]]}}, {"type": "Feature", "properties": {"zone": "C2", "place": "san-felipe", "label": "C2 \u00b7 san-felipe", "n_layers": 7}, "geometry": {"type": "Polygon", "coordinates": [[[-68.75, 10.25], [-68.5, 10.25], [-68.5, 10.5], [-68.75, 10.5], [-68.75, 10.25]]]}}, {"type": "Feature", "properties": {"zone": "C3", "place": "moron", "label": "C3 \u00b7 moron", "n_layers": 7}, "geometry": {"type": "Polygon", "coordinates": [[[-68.5, 10.25], [-68.25, 10.25], [-68.25, 10.5], [-68.5, 10.5], [-68.5, 10.25]]]}}, {"type": "Feature", "properties": {"zone": "C4", "place": "moron", "label": "C4 \u00b7 moron", "n_layers": 11}, "geometry": {"type": "Polygon", "coordinates": [[[-68.25, 10.25], [-68.0, 10.25], [-68.0, 10.5], [-68.25, 10.5], [-68.25, 10.25]]]}}, {"type": "Feature", "properties": {"zone": "C5", "place": "valencia", "label": "C5 \u00b7 valencia", "n_layers": 13}, "geometry": {"type": "Polygon", "coordinates": [[[-68.0, 10.25], [-67.75, 10.25], [-67.75, 10.5], [-68.0, 10.5], [-68.0, 10.25]]]}}, {"type": "Feature", "properties": {"zone": "C6", "place": "maracay", "label": "C6 \u00b7 maracay", "n_layers": 13}, "geometry": {"type": "Polygon", "coordinates": [[[-67.75, 10.25], [-67.5, 10.25], [-67.5, 10.5], [-67.75, 10.5], [-67.75, 10.25]]]}}, {"type": "Feature", "properties": {"zone": "C7", "place": "maracay", "label": "C7 \u00b7 maracay", "n_layers": 11}, "geometry": {"type": "Polygon", "coordinates": [[[-67.5, 10.25], [-67.25, 10.25], [-67.25, 10.5], [-67.5, 10.5], [-67.5, 10.25]]]}}, {"type": "Feature", "properties": {"zone": "C8", "place": "caracas", "label": "C8 \u00b7 caracas", "n_layers": 16}, "geometry": {"type": "Polygon", "coordinates": [[[-67.25, 10.25], [-67.0, 10.25], [-67.0, 10.5], [-67.25, 10.5], [-67.25, 10.25]]]}}, {"type": "Feature", "properties": {"zone": "C9", "place": "caracas", "label": "C9 \u00b7 caracas", "n_layers": 25}, "geometry": {"type": "Polygon", "coordinates": [[[-67.0, 10.25], [-66.75, 10.25], [-66.75, 10.5], [-67.0, 10.5], [-67.0, 10.25]]]}}, {"type": "Feature", "properties": {"zone": "C10", "place": "caracas", "label": "C10 \u00b7 caracas", "n_layers": 6}, "geometry": {"type": "Polygon", "coordinates": [[[-66.75, 10.25], [-66.5, 10.25], [-66.5, 10.5], [-66.75, 10.5], [-66.75, 10.25]]]}}, {"type": "Feature", "properties": {"zone": "C11", "place": "guarenas", "label": "C11 \u00b7 guarenas", "n_layers": 1}, "geometry": {"type": "Polygon", "coordinates": [[[-66.5, 10.25], [-66.25, 10.25], [-66.25, 10.5], [-66.5, 10.5], [-66.5, 10.25]]]}}, {"type": "Feature", "properties": {"zone": "D1", "place": "san-felipe", "label": "D1 \u00b7 san-felipe", "n_layers": 5}, "geometry": {"type": "Polygon", "coordinates": [[[-69.0, 10.0], [-68.75, 10.0], [-68.75, 10.25], [-69.0, 10.25], [-69.0, 10.0]]]}}, {"type": "Feature", "properties": {"zone": "D2", "place": "san-felipe", "label": "D2 \u00b7 san-felipe", "n_layers": 6}, "geometry": {"type": "Polygon", "coordinates": [[[-68.75, 10.0], [-68.5, 10.0], [-68.5, 10.25], [-68.75, 10.25], [-68.75, 10.0]]]}}, {"type": "Feature", "properties": {"zone": "D3", "place": "moron", "label": "D3 \u00b7 moron", "n_layers": 3}, "geometry": {"type": "Polygon", "coordinates": [[[-68.5, 10.0], [-68.25, 10.0], [-68.25, 10.25], [-68.5, 10.25], [-68.5, 10.0]]]}}, {"type": "Feature", "properties": {"zone": "D4", "place": "valencia", "label": "D4 \u00b7 valencia", "n_layers": 5}, "geometry": {"type": "Polygon", "coordinates": [[[-68.25, 10.0], [-68.0, 10.0], [-68.0, 10.25], [-68.25, 10.25], [-68.25, 10.0]]]}}, {"type": "Feature", "properties": {"zone": "D5", "place": "valencia", "label": "D5 \u00b7 valencia", "n_layers": 9}, "geometry": {"type": "Polygon", "coordinates": [[[-68.0, 10.0], [-67.75, 10.0], [-67.75, 10.25], [-68.0, 10.25], [-68.0, 10.0]]]}}, {"type": "Feature", "properties": {"zone": "D6", "place": "maracay", "label": "D6 \u00b7 maracay", "n_layers": 8}, "geometry": {"type": "Polygon", "coordinates": [[[-67.75, 10.0], [-67.5, 10.0], [-67.5, 10.25], [-67.75, 10.25], [-67.75, 10.0]]]}}, {"type": "Feature", "properties": {"zone": "D7", "place": "maracay", "label": "D7 \u00b7 maracay", "n_layers": 6}, "geometry": {"type": "Polygon", "coordinates": [[[-67.5, 10.0], [-67.25, 10.0], [-67.25, 10.25], [-67.5, 10.25], [-67.5, 10.0]]]}}, {"type": "Feature", "properties": {"zone": "D8", "place": "caracas", "label": "D8 \u00b7 caracas", "n_layers": 8}, "geometry": {"type": "Polygon", "coordinates": [[[-67.25, 10.0], [-67.0, 10.0], [-67.0, 10.25], [-67.25, 10.25], [-67.25, 10.0]]]}}, {"type": "Feature", "properties": {"zone": "D9", "place": "caracas", "label": "D9 \u00b7 caracas", "n_layers": 6}, "geometry": {"type": "Polygon", "coordinates": [[[-67.0, 10.0], [-66.75, 10.0], [-66.75, 10.25], [-67.0, 10.25], [-67.0, 10.0]]]}}, {"type": "Feature", "properties": {"zone": "E4", "place": "valencia", "label": "E4 \u00b7 valencia", "n_layers": 1}, "geometry": {"type": "Polygon", "coordinates": [[[-68.25, 9.75], [-68.0, 9.75], [-68.0, 10.0], [-68.25, 10.0], [-68.25, 9.75]]]}}, {"type": "Feature", "properties": {"zone": "E5", "place": "valencia", "label": "E5 \u00b7 valencia", "n_layers": 3}, "geometry": {"type": "Polygon", "coordinates": [[[-68.0, 9.75], [-67.75, 9.75], [-67.75, 10.0], [-68.0, 10.0], [-68.0, 9.75]]]}}, {"type": "Feature", "properties": {"zone": "E6", "place": "maracay", "label": "E6 \u00b7 maracay", "n_layers": 2}, "geometry": {"type": "Polygon", "coordinates": [[[-67.75, 9.75], [-67.5, 9.75], [-67.5, 10.0], [-67.75, 10.0], [-67.75, 9.75]]]}}, {"type": "Feature", "properties": {"zone": "E7", "place": "maracay", "label": "E7 \u00b7 maracay", "n_layers": 1}, "geometry": {"type": "Polygon", "coordinates": [[[-67.5, 9.75], [-67.25, 9.75], [-67.25, 10.0], [-67.5, 10.0], [-67.5, 9.75]]]}}]}