{
"type": "FeatureCollection",
"name": "imagery_footprints",
"crs": { "type": "name", "properties": { "name": "urn:ogc:def:crs:OGC:1.3:CRS84" } },
"features": [
{ "type": "Feature", "properties": { "layer_name": "BEFORE-1999 — camuri-caraballeda · aerial mosaic 15k · 1999-12-27", "label": "camuri-caraballeda · aerial mosaic · 1999-12-27", "datetime": "1999-12-27", "sensor": "aerial mosaic", "gsd": null, "location": "camuri-caraballeda", "era": "before" }, "geometry": { "type": "Polygon", "coordinates": [ [ [ -66.884324277796154, 10.595191691631635 ], [ -66.815950212719585, 10.595191691631635 ], [ -66.815950212719585, 10.625401146010091 ], [ -66.884324277796154, 10.625401146010091 ], [ -66.884324277796154, 10.595191691631635 ] ] ] } },
{ "type": "Feature", "properties": { "layer_name": "BEFORE-1999 — vargas coast · aerial mosaic 15k · 1999-12-27", "label": "vargas coast · aerial mosaic · 1999-12-27", "datetime": "1999-12-27", "sensor": "aerial mosaic", "gsd": null, "location": "vargas coast", "era": "before" }, "geometry": { "type": "Polygon", "coordinates": [ [ [ -67.108745362467076, 10.564512986361805 ], [ -66.855496150341224, 10.564512986361805 ], [ -66.855496150341224, 10.61985394955061 ], [ -67.108745362467076, 10.61985394955061 ], [ -67.108745362467076, 10.564512986361805 ] ] ] } },
{ "type": "Feature", "properties": { "layer_name": "2025-11-03 · 0.37m legion · caracas · 125633 (Vantor stream)", "label": "caracas · legion 0.37m · 2025-11-03", "datetime": "2025-11-03", "sensor": "legion", "gsd": 0.37, "location": "caracas", "era": "before" }, "geometry": { "type": "Polygon", "coordinates": [ [ [ -66.852631712696592, 10.551240256941197 ], [ -66.744785862348962, 10.551240256941197 ], [ -66.744785862348962, 10.654079458431941 ], [ -66.852631712696592, 10.654079458431941 ], [ -66.852631712696592, 10.551240256941197 ] ] ] } },
{ "type": "Feature", "properties": { "layer_name": "2025-11-04 · 0.35m legion · guarenas · 123929 (Vantor stream)", "label": "guarenas · legion 0.35m · 2025-11-04", "datetime": "2025-11-04", "sensor": "legion", "gsd": 0.35, "location": "guarenas", "era": "before" }, "geometry": { "type": "Polygon", "coordinates": [ [ [ -66.764150428171661, 10.483803238112211 ], [ -66.669806399748794, 10.483803238112211 ], [ -66.669806399748794, 10.7702497502461 ], [ -66.764150428171661, 10.7702497502461 ], [ -66.764150428171661, 10.483803238112211 ] ] ] } },
{ "type": "Feature", "properties": { "layer_name": "2026-01-31 · 0.37m legion · caracas · 151724 (Vantor stream)", "label": "caracas · legion 0.37m · 2026-01-31", "datetime": "2026-01-31", "sensor": "legion", "gsd": 0.37, "location": "caracas", "era": "before" }, "geometry": { "type": "Polygon", "coordinates": [ [ [ -66.874619162946132, 10.344495520335169 ], [ -66.773008847066265, 10.344495520335169 ], [ -66.773008847066265, 10.474120717096794 ], [ -66.874619162946132, 10.474120717096794 ], [ -66.874619162946132, 10.344495520335169 ] ] ] } },
{ "type": "Feature", "properties": { "layer_name": "2026-02-09 · 0.47m legion · caracas · 120336 (Vantor stream)", "label": "caracas · legion 0.47m · 2026-02-09", "datetime": "2026-02-09", "sensor": "legion", "gsd": 0.47, "location": "caracas", "era": "before" }, "geometry": { "type": "Polygon", "coordinates": [ [ [ -66.961531554327451, 10.377132966964538 ], [ -66.844917025357674, 10.377132966964538 ], [ -66.844917025357674, 10.554087687387231 ], [ -66.961531554327451, 10.554087687387231 ], [ -66.961531554327451, 10.377132966964538 ] ] ] } },
{ "type": "Feature", "properties": { "layer_name": "2026-03-19 · 0.42m legion · caracas · 212351 (Vantor stream)", "label": "caracas · legion 0.42m · 2026-03-19", "datetime": "2026-03-19", "sensor": "legion", "gsd": 0.42, "location": "caracas", "era": "before" }, "geometry": { "type": "Polygon", "coordinates": [ [ [ -66.814874244587742, 10.203199503980224 ], [ -66.70520762983486, 10.203199503980224 ], [ -66.70520762983486, 10.337565032814954 ], [ -66.814874244587742, 10.337565032814954 ], [ -66.814874244587742, 10.203199503980224 ] ] ] } },
{ "type": "Feature", "properties": { "layer_name": "2026-03-20 · 0.43m legion · caracas · 210810 (Vantor stream)", "label": "caracas · legion 0.43m · 2026-03-20", "datetime": "2026-03-20", "sensor": "legion", "gsd": 0.43, "location": "caracas", "era": "before" }, "geometry": { "type": "Polygon", "coordinates": [ [ [ -66.893291432683554, 10.410772551036365 ], [ -66.784048931911727, 10.410772551036365 ], [ -66.784048931911727, 10.55031379592598 ], [ -66.893291432683554, 10.55031379592598 ], [ -66.893291432683554, 10.410772551036365 ] ] ] } },
{ "type": "Feature", "properties": { "layer_name": "2026-03-20 · 0.45m legion · caracas · 144655 (Vantor stream)", "label": "caracas · legion 0.45m · 2026-03-20", "datetime": "2026-03-20", "sensor": "legion", "gsd": 0.45, "location": "caracas", "era": "before" }, "geometry": { "type": "Polygon", "coordinates": [ [ [ -66.976896351289952, 10.390375408653703 ], [ -66.839976392169106, 10.390375408653703 ], [ -66.839976392169106, 10.50913683817484 ], [ -66.976896351289952, 10.50913683817484 ], [ -66.976896351289952, 10.390375408653703 ] ] ] } },
{ "type": "Feature", "properties": { "layer_name": "2026-03-21 · 0.45m legion · caracas · 143132 (Vantor stream)", "label": "caracas · legion 0.45m · 2026-03-21", "datetime": "2026-03-21", "sensor": "legion", "gsd": 0.45, "location": "caracas", "era": "before" }, "geometry": { "type": "Polygon", "coordinates": [ [ [ -67.044134217265778, 10.235628681636005 ], [ -66.906868173356031, 10.235628681636005 ], [ -66.906868173356031, 10.691649969683322 ], [ -67.044134217265778, 10.691649969683322 ], [ -67.044134217265778, 10.235628681636005 ] ] ] } },
{ "type": "Feature", "properties": { "layer_name": "2026-04-07 · 0.48m legion · catia-la-mar · 151446 (Vantor stream)", "label": "catia-la-mar · legion 0.48m · 2026-04-07", "datetime": "2026-04-07", "sensor": "legion", "gsd": 0.48, "location": "catia-la-mar", "era": "before" }, "geometry": { "type": "Polygon", "coordinates": [ [ [ -67.085575080371498, 10.518145158486442 ], [ -66.967422114280225, 10.518145158486442 ], [ -66.967422114280225, 10.67982711828431 ], [ -67.085575080371498, 10.67982711828431 ], [ -67.085575080371498, 10.518145158486442 ] ] ] } },
{ "type": "Feature", "properties": { "layer_name": "2026-05-31 · 0.33m wv-3 · caracas · 145727 (Vantor stream)", "label": "caracas · worldview-3 0.33m · 2026-05-31", "datetime": "2026-05-31", "sensor": "worldview-3", "gsd": 0.33, "location": "caracas", "era": "before" }, "geometry": { "type": "Polygon", "coordinates": [ [ [ -67.190687600877553, 9.485856990655082 ], [ -67.051180405403187, 9.485856990655082 ], [ -67.051180405403187, 10.783843574821967 ], [ -67.190687600877553, 10.783843574821967 ], [ -67.190687600877553, 9.485856990655082 ] ] ] } },
{ "type": "Feature", "properties": { "layer_name": "06-25 · 0.46m wv-2 · la-guaira-west · 142038 (Maxar)", "label": "la-guaira-west · worldview-2 0.46m · 2026-06-25", "datetime": "2026-06-25", "sensor": "worldview-2", "gsd": 0.46, "location": "la-guaira-west", "era": "after" }, "geometry": { "type": "Polygon", "coordinates": [ [ [ -67.531646212874605, 10.415680988010564 ], [ -66.961216303454862, 10.412555926035733 ], [ -66.96039225745767, 10.538540585696827 ], [ -67.531052484783601, 10.541704287034532 ], [ -67.531646212874605, 10.415680988010564 ] ] ] } },
{ "type": "Feature", "properties": { "layer_name": "06-25 · 0.35m legion · caracas · 151646 (Vantor stream)", "label": "caracas · legion 0.35m · 2026-06-25", "datetime": "2026-06-25", "sensor": "legion", "gsd": 0.35, "location": "caracas", "era": "after" }, "geometry": { "type": "Polygon", "coordinates": [ [ [ -66.880519334247808, 10.372669000509232 ], [ -66.785274851812176, 10.372669000509232 ], [ -66.785274851812176, 10.535139528443457 ], [ -66.880519334247808, 10.535139528443457 ], [ -66.880519334247808, 10.372669000509232 ] ] ] } },
{ "type": "Feature", "properties": { "layer_name": "06-25 · 0.46m legion · caracas · 151749 (Vantor stream)", "label": "caracas · legion 0.46m · 2026-06-25", "datetime": "2026-06-25", "sensor": "legion", "gsd": 0.46, "location": "caracas", "era": "after" }, "geometry": { "type": "Polygon", "coordinates": [ [ [ -67.053467477858206, 10.378425028751836 ], [ -66.934406655833712, 10.378425028751836 ], [ -66.934406655833712, 10.594600367512577 ], [ -67.053467477858206, 10.594600367512577 ], [ -67.053467477858206, 10.378425028751836 ] ] ] } },
{ "type": "Feature", "properties": { "layer_name": "06-25 · 0.49m legion · caracas · 212947 (Vantor stream)", "label": "caracas · legion 0.49m · 2026-06-25", "datetime": "2026-06-25", "sensor": "legion", "gsd": 0.49, "location": "caracas", "era": "after" }, "geometry": { "type": "Polygon", "coordinates": [ [ [ -67.067406106565826, 10.14954816999283 ], [ -66.936067041646595, 10.14954816999283 ], [ -66.936067041646595, 10.575846976762531 ], [ -67.067406106565826, 10.575846976762531 ], [ -67.067406106565826, 10.14954816999283 ] ] ] } },
{ "type": "Feature", "properties": { "layer_name": "06-25 · 0.53m legion · caracas · 212928 (Vantor stream)", "label": "caracas · legion 0.53m · 2026-06-25", "datetime": "2026-06-25", "sensor": "legion", "gsd": 0.53, "location": "caracas", "era": "after" }, "geometry": { "type": "Polygon", "coordinates": [ [ [ -67.171989162378068, 10.152722621235265 ], [ -67.039127480630128, 10.152722621235265 ], [ -67.039127480630128, 10.588588287859986 ], [ -67.171989162378068, 10.588588287859986 ], [ -67.171989162378068, 10.152722621235265 ] ] ] } },
{ "type": "Feature", "properties": { "layer_name": "06-25 · 0.34m legion · guarenas · 151707 (Vantor stream)", "label": "guarenas · legion 0.34m · 2026-06-25", "datetime": "2026-06-25", "sensor": "legion", "gsd": 0.34, "location": "guarenas", "era": "after" }, "geometry": { "type": "Polygon", "coordinates": [ [ [ -66.804051509231314, 10.378268104325681 ], [ -66.707444803289803, 10.378268104325681 ], [ -66.707444803289803, 10.54122021054782 ], [ -66.804051509231314, 10.54122021054782 ], [ -66.804051509231314, 10.378268104325681 ] ] ] } },
{ "type": "Feature", "properties": { "layer_name": "06-25 · 0.42m vantor · la-guaira · mosaic", "label": "la-guaira · vantor 0.42m · 2026-06-25", "datetime": "2026-06-25", "sensor": "vantor", "gsd": 0.42, "location": "la-guaira", "era": "after" }, "geometry": { "type": "Polygon", "coordinates": [ [ [ -67.141859048564967, 10.51052110643497 ], [ -66.963120537831486, 10.51052110643497 ], [ -66.963120537831486, 10.621437297643089 ], [ -67.141859048564967, 10.621437297643089 ], [ -67.141859048564967, 10.51052110643497 ] ] ] } },
{ "type": "Feature", "properties": { "layer_name": "06-25 · 0.46m wv-2 · la-guaira · 212928 (Maxar)", "label": "la-guaira · worldview-2 0.46m · 2026-06-25", "datetime": "2026-06-25", "sensor": "worldview-2", "gsd": 0.46, "location": "la-guaira", "era": "after" }, "geometry": { "type": "Polygon", "coordinates": [ [ [ -67.17436857070345, 10.162311052827606 ], [ -67.043637761632525, 10.161556583930503 ], [ -67.041000604584298, 10.585759693978002 ], [ -67.171907389831631, 10.586546344894378 ], [ -67.17436857070345, 10.162311052827606 ] ] ] } },
{ "type": "Feature", "properties": { "layer_name": "06-25 · 0.46m wv-2 · la-guaira · 212947 (Maxar)", "label": "la-guaira · worldview-2 0.46m · 2026-06-25", "datetime": "2026-06-25", "sensor": "worldview-2", "gsd": 0.46, "location": "la-guaira", "era": "after" }, "geometry": { "type": "Polygon", "coordinates": [ [ [ -67.069715770762443, 10.160187991067605 ], [ -66.939434111110998, 10.159394719517554 ], [ -66.936727599930208, 10.573030466290659 ], [ -67.067180113556176, 10.573856737723839 ], [ -67.069715770762443, 10.160187991067605 ] ] ] } },
{ "type": "Feature", "properties": { "layer_name": "PS 2026-06-25 150337 · 254f", "label": "planetscope · 2026-06-25", "datetime": "2026-06-25", "sensor": "planetscope", "gsd": null, "location": "", "era": "after" }, "geometry": { "type": "Polygon", "coordinates": [ [ [ -68.561053568947571, 10.600808038136009 ], [ -68.215735334032715, 10.600137147765022 ], [ -68.215111438639241, 10.842326205485987 ], [ -68.560704349878563, 10.843012777952293 ], [ -68.561053568947571, 10.600808038136009 ] ] ] } },
{ "type": "Feature", "properties": { "layer_name": "06-26 · 0.34m wv-3 · caracas · 151004 (Vantor stream)", "label": "caracas · worldview-3 0.34m · 2026-06-26", "datetime": "2026-06-26", "sensor": "worldview-3", "gsd": 0.34, "location": "caracas", "era": "after" }, "geometry": { "type": "Polygon", "coordinates": [ [ [ -66.868374981110634, 10.288272503767393 ], [ -66.730625428121485, 10.288272503767393 ], [ -66.730625428121485, 10.739463009615543 ], [ -66.868374981110634, 10.739463009615543 ], [ -66.868374981110634, 10.288272503767393 ] ] ] } },
{ "type": "Feature", "properties": { "layer_name": "06-26 · 0.87m skysat · caracas · 123541_ssc5_u0001", "label": "caracas · skysat 0.87m · 2026-06-26", "datetime": "2026-06-26", "sensor": "skysat", "gsd": 0.87, "location": "caracas", "era": "after" }, "geometry": { "type": "Polygon", "coordinates": [ [ [ -66.92493992872221, 10.406035110404579 ], [ -66.846871302895011, 10.405519809165115 ], [ -66.845800925843179, 10.560347689901176 ], [ -66.923908292416769, 10.560870826886735 ], [ -66.92493992872221, 10.406035110404579 ] ] ] } },
{ "type": "Feature", "properties": { "layer_name": "06-26 · 0.35m wv-3 · caracas · 150950 (Vantor stream)", "label": "caracas · worldview-3 0.35m · 2026-06-26", "datetime": "2026-06-26", "sensor": "worldview-3", "gsd": 0.35, "location": "caracas", "era": "after" }, "geometry": { "type": "Polygon", "coordinates": [ [ [ -66.985426460665281, 10.265147188814563 ], [ -66.846486074582614, 10.265147188814563 ], [ -66.846486074582614, 10.725155397467798 ], [ -66.985426460665281, 10.725155397467798 ], [ -66.985426460665281, 10.265147188814563 ] ] ] } },
{ "type": "Feature", "properties": { "layer_name": "06-26 · 0.38m wv-3 · caracas · 150937 (Vantor stream)", "label": "caracas · worldview-3 0.38m · 2026-06-26", "datetime": "2026-06-26", "sensor": "worldview-3", "gsd": 0.38, "location": "caracas", "era": "after" }, "geometry": { "type": "Polygon", "coordinates": [ [ [ -67.106883504201406, 10.282676835441402 ], [ -66.964877615089279, 10.282676835441402 ], [ -66.964877615089279, 10.750023227368757 ], [ -67.106883504201406, 10.750023227368757 ], [ -67.106883504201406, 10.282676835441402 ] ] ] } },
{ "type": "Feature", "properties": { "layer_name": "06-26 · 0.81m skysat · catia-la-mar · 112057_ssc4_u0001", "label": "catia-la-mar · skysat 0.81m · 2026-06-26", "datetime": "2026-06-26", "sensor": "skysat", "gsd": 0.81, "location": "catia-la-mar", "era": "after" }, "geometry": { "type": "Polygon", "coordinates": [ [ [ -67.028799090958628, 10.517038237694768 ], [ -66.9514921872305, 10.516548206303973 ], [ -66.950427206597752, 10.6766909712544 ], [ -67.027774235986897, 10.677188632223002 ], [ -67.028799090958628, 10.517038237694768 ] ] ] } },
{ "type": "Feature", "properties": { "layer_name": "06-26 · 0.38m legion · la-guaira · 211346 (Vantor stream)", "label": "la-guaira · legion 0.38m · 2026-06-26", "datetime": "2026-06-26", "sensor": "legion", "gsd": 0.38, "location": "la-guaira", "era": "after" }, "geometry": { "type": "Polygon", "coordinates": [ [ [ -67.11603239358648, 10.543791443884231 ], [ -66.76987903987191, 10.543791443884231 ], [ -66.76987903987191, 10.653609732383943 ], [ -67.11603239358648, 10.653609732383943 ], [ -67.11603239358648, 10.543791443884231 ] ] ] } },
{ "type": "Feature", "properties": { "layer_name": "06-26 · 0.62m pelican · la-guaira · 150535_17_3010", "label": "la-guaira · pelican 0.62m · 2026-06-26", "datetime": "2026-06-26", "sensor": "pelican", "gsd": 0.62, "location": "la-guaira", "era": "after" }, "geometry": { "type": "Polygon", "coordinates": [ [ [ -67.042336304487236, 10.483617812251577 ], [ -66.927110321592096, 10.482887677169158 ], [ -66.926339823456516, 10.598017744525494 ], [ -67.041608567438715, 10.598756076159775 ], [ -67.042336304487236, 10.483617812251577 ] ] ] } },
{ "type": "Feature", "properties": { "layer_name": "06-26 · 0.62m pelican · la-guaira · 150536_68_3010", "label": "la-guaira · pelican 0.62m · 2026-06-26", "datetime": "2026-06-26", "sensor": "pelican", "gsd": 0.62, "location": "la-guaira", "era": "after" }, "geometry": { "type": "Polygon", "coordinates": [ [ [ -67.061415951394977, 10.579303907592193 ], [ -66.945719148125946, 10.578571326711069 ], [ -66.944949353781098, 10.693570997301098 ], [ -67.060689443546053, 10.694311721838536 ], [ -67.061415951394977, 10.579303907592193 ] ] ] } },
{ "type": "Feature", "properties": { "layer_name": "06-26 · 0.32m wv-3 · maracay · 151035 (Vantor stream)", "label": "maracay · worldview-3 0.32m · 2026-06-26", "datetime": "2026-06-26", "sensor": "worldview-3", "gsd": 0.32, "location": "maracay", "era": "after" }, "geometry": { "type": "Polygon", "coordinates": [ [ [ -67.556966544663325, 10.088218762676236 ], [ -67.427285178538298, 10.088218762676236 ], [ -67.427285178538298, 10.368202304035098 ], [ -67.556966544663325, 10.368202304035098 ], [ -67.556966544663325, 10.088218762676236 ] ] ] } },
{ "type": "Feature", "properties": { "layer_name": "06-26 · 0.70m skysat · puerto-cabello · 114759_ssc12_u0002", "label": "puerto-cabello · skysat 0.70m · 2026-06-26", "datetime": "2026-06-26", "sensor": "skysat", "gsd": 0.7, "location": "puerto-cabello", "era": "after" }, "geometry": { "type": "Polygon", "coordinates": [ [ [ -68.299426321492476, 10.458285989897265 ], [ -68.098461242992798, 10.45778115458263 ], [ -68.098236210871121, 10.535457478433225 ], [ -68.29925144060978, 10.535966145720806 ], [ -68.299426321492476, 10.458285989897265 ] ] ] } },
{ "type": "Feature", "properties": { "layer_name": "06-26 · 0.71m skysat · puerto-cabello · 114759_ssc12_u0001", "label": "puerto-cabello · skysat 0.71m · 2026-06-26", "datetime": "2026-06-26", "sensor": "skysat", "gsd": 0.71, "location": "puerto-cabello", "era": "after" }, "geometry": { "type": "Polygon", "coordinates": [ [ [ -68.134204037703796, 10.434412692465012 ], [ -67.948003080552624, 10.433853986397637 ], [ -67.947741889449262, 10.511296336150023 ], [ -68.13398906121013, 10.511859279597211 ], [ -68.134204037703796, 10.434412692465012 ] ] ] } },
{ "type": "Feature", "properties": { "layer_name": "06-26 · 0.72m skysat · valencia · 191038_ssc8_u0001", "label": "valencia · skysat 0.72m · 2026-06-26", "datetime": "2026-06-26", "sensor": "skysat", "gsd": 0.72, "location": "valencia", "era": "after" }, "geometry": { "type": "Polygon", "coordinates": [ [ [ -68.042721603210239, 10.09007907472575 ], [ -67.981274254760734, 10.089895098511191 ], [ -67.980818257250235, 10.233864922066173 ], [ -68.042293099916648, 10.234051577477997 ], [ -68.042721603210239, 10.09007907472575 ] ] ] } },
{ "type": "Feature", "properties": { "layer_name": "06-26 · 0.46m wv-2 · valencia-west · 140331 (Maxar)", "label": "valencia-west · worldview-2 0.46m · 2026-06-26", "datetime": "2026-06-26", "sensor": "worldview-2", "gsd": 0.46, "location": "valencia-west", "era": "after" }, "geometry": { "type": "Polygon", "coordinates": [ [ [ -68.129354133928658, 10.383388511864457 ], [ -67.997927434399145, 10.383005225185137 ], [ -67.997376864565936, 10.554420959374212 ], [ -68.128875750080951, 10.55481071251614 ], [ -68.129354133928658, 10.383388511864457 ] ] ] } },
{ "type": "Feature", "properties": { "layer_name": "06-26 · 0.46m wv-3 · valencia-west · 140407 (Maxar)", "label": "valencia-west · worldview-3 0.46m · 2026-06-26", "datetime": "2026-06-26", "sensor": "worldview-3", "gsd": 0.46, "location": "valencia-west", "era": "after" }, "geometry": { "type": "Polygon", "coordinates": [ [ [ -67.987683865376056, 10.079395533664119 ], [ -67.881485429736372, 10.079053001808214 ], [ -67.8805965243495, 10.333478518301224 ], [ -67.98687932094353, 10.333829877430899 ], [ -67.987683865376056, 10.079395533664119 ] ] ] } },
{ "type": "Feature", "properties": { "layer_name": "PS 2026-06-26 145711 · 2558", "label": "planetscope · 2026-06-26", "datetime": "2026-06-26", "sensor": "planetscope", "gsd": null, "location": "", "era": "after" }, "geometry": { "type": "Polygon", "coordinates": [ [ [ -66.931432237645325, 10.385143225825303 ], [ -66.586380804999962, 10.382733550170405 ], [ -66.584509173111925, 10.623702278640067 ], [ -66.929827669935037, 10.626169117899861 ], [ -66.931432237645325, 10.385143225825303 ] ] ] } },
{ "type": "Feature", "properties": { "layer_name": "PS 2026-06-26 145718 · 2558", "label": "planetscope · 2026-06-26", "datetime": "2026-06-26", "sensor": "planetscope", "gsd": null, "location": "", "era": "after" }, "geometry": { "type": "Polygon", "coordinates": [ [ [ -67.020543637300648, 9.93860799553554 ], [ -66.675758452265143, 9.936391395276587 ], [ -66.674034129234073, 10.177409517066295 ], [ -67.01907466245197, 10.179680973906585 ], [ -67.020543637300648, 9.93860799553554 ] ] ] } },
{ "type": "Feature", "properties": { "layer_name": "PS 2026-06-26 150246 · 2563", "label": "planetscope · 2026-06-26", "datetime": "2026-06-26", "sensor": "planetscope", "gsd": null, "location": "", "era": "after" }, "geometry": { "type": "Polygon", "coordinates": [ [ [ -67.901760729735443, 10.24707265987262 ], [ -67.559143491653231, 10.245734882081164 ], [ -67.558040621254548, 10.486898603466244 ], [ -67.900919959097095, 10.488268548736237 ], [ -67.901760729735443, 10.24707265987262 ] ] ] } },
{ "type": "Feature", "properties": { "layer_name": "PS 2026-06-26 150347 · 2555", "label": "planetscope · 2026-06-26", "datetime": "2026-06-26", "sensor": "planetscope", "gsd": null, "location": "", "era": "after" }, "geometry": { "type": "Polygon", "coordinates": [ [ [ -68.95836897963315, 10.322672999964364 ], [ -68.608956494153233, 10.322438900604125 ], [ -68.608649354741218, 10.568040902416634 ], [ -68.958336280151002, 10.568280693662306 ], [ -68.95836897963315, 10.322672999964364 ] ] ] } },
{ "type": "Feature", "properties": { "layer_name": "PS 2026-06-26 150352 · 2555", "label": "planetscope · 2026-06-26", "datetime": "2026-06-26", "sensor": "planetscope", "gsd": null, "location": "", "era": "after" }, "geometry": { "type": "Polygon", "coordinates": [ [ [ -69.019399965024732, 10.022904881024184 ], [ -68.669052732964204, 10.0227405677444 ], [ -68.668800894672813, 10.267887483959056 ], [ -69.019414727988348, 10.268055899147861 ], [ -69.019399965024732, 10.022904881024184 ] ] ] } },
{ "type": "Feature", "properties": { "layer_name": "PS 2026-06-26 150354 · 2555", "label": "planetscope · 2026-06-26", "datetime": "2026-06-26", "sensor": "planetscope", "gsd": null, "location": "", "era": "after" }, "geometry": { "type": "Polygon", "coordinates": [ [ [ -69.049161846338237, 9.872824771461303 ], [ -68.699028741298818, 9.872693952322063 ], [ -68.698802690990135, 10.118359330900274 ], [ -69.049198770959478, 10.118493470459939 ], [ -69.049161846338237, 9.872824771461303 ] ] ] } },
{ "type": "Feature", "properties": { "layer_name": "PS 2026-06-26 152834 · 2538", "label": "planetscope · 2026-06-26", "datetime": "2026-06-26", "sensor": "planetscope", "gsd": null, "location": "", "era": "after" }, "geometry": { "type": "Polygon", "coordinates": [ [ [ -66.630212206651166, 10.178477682032437 ], [ -66.304584198060581, 10.175956439368225 ], [ -66.302648375471875, 10.403838583366122 ], [ -66.628509676013977, 10.406417485871808 ], [ -66.630212206651166, 10.178477682032437 ] ] ] } },
{ "type": "Feature", "properties": { "layer_name": "PS 2026-06-26 152836 · 2538", "label": "planetscope · 2026-06-26", "datetime": "2026-06-26", "sensor": "planetscope", "gsd": null, "location": "", "era": "after" }, "geometry": { "type": "Polygon", "coordinates": [ [ [ -66.655320838294969, 10.052207912231307 ], [ -66.329813627635687, 10.04974233456989 ], [ -66.327920624593844, 10.277549664589847 ], [ -66.653658048501569, 10.280072289204993 ], [ -66.655320838294969, 10.052207912231307 ] ] ] } },
{ "type": "Feature", "properties": { "layer_name": "PS 2026-06-26 153510 · 253a", "label": "planetscope · 2026-06-26", "datetime": "2026-06-26", "sensor": "planetscope", "gsd": null, "location": "", "era": "after" }, "geometry": { "type": "Polygon", "coordinates": [ [ [ -68.063025166890256, 9.957122239363271 ], [ -67.736647023943291, 9.956047877106185 ], [ -67.735756460898301, 10.184836705594291 ], [ -68.062364577954497, 10.185936258283355 ], [ -68.063025166890256, 9.957122239363271 ] ] ] } },
{ "type": "Feature", "properties": { "layer_name": "06-27 · 0.34m legion · caracas · 134836 (Vantor stream)", "label": "caracas · legion 0.34m · 2026-06-27", "datetime": "2026-06-27", "sensor": "legion", "gsd": 0.34, "location": "caracas", "era": "after" }, "geometry": { "type": "Polygon", "coordinates": [ [ [ -66.811015399549277, 10.377141414794426 ], [ -66.717598080191664, 10.377141414794426 ], [ -66.717598080191664, 10.529742117168365 ], [ -66.811015399549277, 10.529742117168365 ], [ -66.811015399549277, 10.377141414794426 ] ] ] } },
{ "type": "Feature", "properties": { "layer_name": "06-27 · 0.36m legion · caracas · 134855 (Vantor stream)", "label": "caracas · legion 0.36m · 2026-06-27", "datetime": "2026-06-27", "sensor": "legion", "gsd": 0.36, "location": "caracas", "era": "after" }, "geometry": { "type": "Polygon", "coordinates": [ [ [ -66.891000873672823, 10.376184928418359 ], [ -66.790948522548575, 10.376184928418359 ], [ -66.790948522548575, 10.537894038881062 ], [ -66.891000873672823, 10.537894038881062 ], [ -66.891000873672823, 10.376184928418359 ] ] ] } },
{ "type": "Feature", "properties": { "layer_name": "06-27 · 0.65m pelican · caracas · 145824_88_300d", "label": "caracas · pelican 0.65m · 2026-06-27", "datetime": "2026-06-27", "sensor": "pelican", "gsd": 0.65, "location": "caracas", "era": "after" }, "geometry": { "type": "Polygon", "coordinates": [ [ [ -66.886790707077964, 10.421368152573788 ], [ -66.762428621476161, 10.420522286522665 ], [ -66.761601679427883, 10.535680937187543 ], [ -66.886009639784902, 10.536536355721751 ], [ -66.886790707077964, 10.421368152573788 ] ] ] } },
{ "type": "Feature", "properties": { "layer_name": "06-27 · 0.65m pelican · caracas · 145826_40_300d", "label": "caracas · pelican 0.65m · 2026-06-27", "datetime": "2026-06-27", "sensor": "pelican", "gsd": 0.65, "location": "caracas", "era": "after" }, "geometry": { "type": "Polygon", "coordinates": [ [ [ -66.892051425895929, 10.389198369191497 ], [ -66.784178753336604, 10.388471364013645 ], [ -66.783821032208351, 10.439099658351612 ], [ -66.891711087426899, 10.439830282975407 ], [ -66.892051425895929, 10.389198369191497 ] ] ] } },
{ "type": "Feature", "properties": { "layer_name": "06-27 · 0.86m OAM · caracas-corridor · 6a437f8fa8d2fe29ac06614e", "label": "caracas-corridor · oam 0.86m · 2026-06-27", "datetime": "2026-06-27", "sensor": "oam", "gsd": 0.86, "location": "caracas-corridor", "era": "after" }, "geometry": { "type": "Polygon", "coordinates": [ [ [ -67.295371724026325, 10.318074654900551 ], [ -66.986593701509136, 10.318074654900551 ], [ -66.986593701509136, 10.802938794903389 ], [ -67.295371724026325, 10.802938794903389 ], [ -67.295371724026325, 10.318074654900551 ] ] ] } },
{ "type": "Feature", "properties": { "layer_name": "06-27 · 0.35m legion · catia-la-mar · 134810 (Vantor stream)", "label": "catia-la-mar · legion 0.35m · 2026-06-27", "datetime": "2026-06-27", "sensor": "legion", "gsd": 0.35, "location": "catia-la-mar", "era": "after" }, "geometry": { "type": "Polygon", "coordinates": [ [ [ -67.043108071720411, 10.524025324073598 ], [ -66.942944720924515, 10.524025324073598 ], [ -66.942944720924515, 10.64255670153876 ], [ -67.043108071720411, 10.64255670153876 ], [ -67.043108071720411, 10.524025324073598 ] ] ] } },
{ "type": "Feature", "properties": { "layer_name": "06-27 · 0.94m wv-2 · catia-la-mar · 151506 (Vantor stream)", "label": "catia-la-mar · worldview-2 0.94m · 2026-06-27", "datetime": "2026-06-27", "sensor": "worldview-2", "gsd": 0.94, "location": "catia-la-mar", "era": "after" }, "geometry": { "type": "Polygon", "coordinates": [ [ [ -67.295371724026325, 10.318074654900551 ], [ -66.986593701509136, 10.318074654900551 ], [ -66.986593701509136, 10.802938794903389 ], [ -67.295371724026325, 10.802938794903389 ], [ -67.295371724026325, 10.318074654900551 ] ] ] } },
{ "type": "Feature", "properties": { "layer_name": "06-27 · 0.62m wv-2 · choroni · 151415 (Vantor stream)", "label": "choroni · worldview-2 0.62m · 2026-06-27", "datetime": "2026-06-27", "sensor": "worldview-2", "gsd": 0.62, "location": "choroni", "era": "after" }, "geometry": { "type": "Polygon", "coordinates": [ [ [ -67.710356185217279, 10.393614724139418 ], [ -67.495895614629902, 10.393614724139418 ], [ -67.495895614629902, 10.622998036053003 ], [ -67.710356185217279, 10.622998036053003 ], [ -67.710356185217279, 10.393614724139418 ] ] ] } },
{ "type": "Feature", "properties": { "layer_name": "06-27 · 0.86m wv-2 · choroni · 151458 (Vantor stream)", "label": "choroni · worldview-2 0.86m · 2026-06-27", "datetime": "2026-06-27", "sensor": "worldview-2", "gsd": 0.86, "location": "choroni", "era": "after" }, "geometry": { "type": "Polygon", "coordinates": [ [ [ -67.522099598293636, 10.348763668312767 ], [ -67.239484952472708, 10.348763668312767 ], [ -67.239484952472708, 10.776537245294797 ], [ -67.522099598293636, 10.776537245294797 ], [ -67.522099598293636, 10.348763668312767 ] ] ] } },
{ "type": "Feature", "properties": { "layer_name": "06-27 · 0.66m skysat · la-guaira · 112651_ssc2_u0001", "label": "la-guaira · skysat 0.66m · 2026-06-27", "datetime": "2026-06-27", "sensor": "skysat", "gsd": 0.66, "location": "la-guaira", "era": "after" }, "geometry": { "type": "Polygon", "coordinates": [ [ [ -66.913570823815689, 10.433741697373028 ], [ -66.742575624796658, 10.432579202993631 ], [ -66.741979592530043, 10.514890445397466 ], [ -66.913019856588804, 10.516062312022648 ], [ -66.913570823815689, 10.433741697373028 ] ] ] } },
{ "type": "Feature", "properties": { "layer_name": "06-27 · 0.67m skysat · la-guaira · 112651_ssc2_u0002", "label": "la-guaira · skysat 0.67m · 2026-06-27", "datetime": "2026-06-27", "sensor": "skysat", "gsd": 0.67, "location": "la-guaira", "era": "after" }, "geometry": { "type": "Polygon", "coordinates": [ [ [ -67.02351522642833, 10.465210475926279 ], [ -66.877524180387553, 10.464271268123056 ], [ -66.876999606253975, 10.541108247590156 ], [ -67.023026674865889, 10.542054503261065 ], [ -67.02351522642833, 10.465210475926279 ] ] ] } },
{ "type": "Feature", "properties": { "layer_name": "06-27 · 0.73m skysat · la-guaira · 112621_ssc2_u0002", "label": "la-guaira · skysat 0.73m · 2026-06-27", "datetime": "2026-06-27", "sensor": "skysat", "gsd": 0.73, "location": "la-guaira", "era": "after" }, "geometry": { "type": "Polygon", "coordinates": [ [ [ -66.936357949276413, 10.572693763344711 ], [ -66.778030175436101, 10.571618335393076 ], [ -66.77755828061126, 10.636994835131789 ], [ -66.93591961916151, 10.638077062560825 ], [ -66.936357949276413, 10.572693763344711 ] ] ] } },
{ "type": "Feature", "properties": { "layer_name": "06-27 · 0.78m skysat · la-guaira · 112621_ssc2_u0001", "label": "la-guaira · skysat 0.78m · 2026-06-27", "datetime": "2026-06-27", "sensor": "skysat", "gsd": 0.78, "location": "la-guaira", "era": "after" }, "geometry": { "type": "Polygon", "coordinates": [ [ [ -67.099466042028567, 10.557447334207721 ], [ -66.903295087314561, 10.556206315211151 ], [ -66.902783814007819, 10.631349482188764 ], [ -67.099002530390479, 10.632599532679196 ], [ -67.099466042028567, 10.557447334207721 ] ] ] } },
{ "type": "Feature", "properties": { "layer_name": "06-27 · 0.79m skysat · la-guaira · 112722_ssc2_u0001", "label": "la-guaira · skysat 0.79m · 2026-06-27", "datetime": "2026-06-27", "sensor": "skysat", "gsd": 0.79, "location": "la-guaira", "era": "after" }, "geometry": { "type": "Polygon", "coordinates": [ [ [ -66.923581399548709, 10.421609124151223 ], [ -66.749149909202316, 10.420429113364499 ], [ -66.748252314673607, 10.544632995589209 ], [ -66.922753237795874, 10.545827379648905 ], [ -66.923581399548709, 10.421609124151223 ] ] ] } },
{ "type": "Feature", "properties": { "layer_name": "06-27 · 0.44m legion · maracay · 153017 (Vantor stream)", "label": "maracay · legion 0.44m · 2026-06-27", "datetime": "2026-06-27", "sensor": "legion", "gsd": 0.44, "location": "maracay", "era": "after" }, "geometry": { "type": "Polygon", "coordinates": [ [ [ -67.759721304144534, 10.099830033868999 ], [ -67.625332411305493, 10.099830033868999 ], [ -67.625332411305493, 10.372094333630328 ], [ -67.759721304144534, 10.372094333630328 ], [ -67.759721304144534, 10.099830033868999 ] ] ] } },
{ "type": "Feature", "properties": { "layer_name": "06-27 · 0.46m legion · maracay · 153037 (Vantor stream)", "label": "maracay · legion 0.46m · 2026-06-27", "datetime": "2026-06-27", "sensor": "legion", "gsd": 0.46, "location": "maracay", "era": "after" }, "geometry": { "type": "Polygon", "coordinates": [ [ [ -67.650019763130331, 10.11048815867996 ], [ -67.508753186725698, 10.11048815867996 ], [ -67.508753186725698, 10.353704028854478 ], [ -67.650019763130331, 10.353704028854478 ], [ -67.650019763130331, 10.11048815867996 ] ] ] } },
{ "type": "Feature", "properties": { "layer_name": "06-27 · 0.95m wv-2 · moron · 151521 (Vantor stream)", "label": "moron · worldview-2 0.95m · 2026-06-27", "datetime": "2026-06-27", "sensor": "worldview-2", "gsd": 0.95, "location": "moron", "era": "after" }, "geometry": { "type": "Polygon", "coordinates": [ [ [ -68.553908195031298, 10.088346202845974 ], [ -68.276009084235113, 10.088346202845974 ], [ -68.276009084235113, 10.765258976678743 ], [ -68.553908195031298, 10.765258976678743 ], [ -68.553908195031298, 10.088346202845974 ] ] ] } },
{ "type": "Feature", "properties": { "layer_name": "06-27 · 0.64m wv-2 · ocumare-de-la-costa · 151423 (Vantor stream)", "label": "ocumare-de-la-costa · worldview-2 0.64m · 2026-06-27", "datetime": "2026-06-27", "sensor": "worldview-2", "gsd": 0.64, "location": "ocumare-de-la-costa", "era": "after" }, "geometry": { "type": "Polygon", "coordinates": [ [ [ -67.90107139618722, 10.38450443636755 ], [ -67.685754475516376, 10.38450443636755 ], [ -67.685754475516376, 10.629562044351113 ], [ -67.90107139618722, 10.629562044351113 ], [ -67.90107139618722, 10.38450443636755 ] ] ] } },
{ "type": "Feature", "properties": { "layer_name": "06-27 · 0.67m wv-2 · puerto-cabello · 151431 (Vantor stream)", "label": "puerto-cabello · worldview-2 0.67m · 2026-06-27", "datetime": "2026-06-27", "sensor": "worldview-2", "gsd": 0.67, "location": "puerto-cabello", "era": "after" }, "geometry": { "type": "Polygon", "coordinates": [ [ [ -68.093170749795064, 10.38031760195468 ], [ -67.875003343161737, 10.38031760195468 ], [ -67.875003343161737, 10.642082201723349 ], [ -68.093170749795064, 10.642082201723349 ], [ -68.093170749795064, 10.38031760195468 ] ] ] } },
{ "type": "Feature", "properties": { "layer_name": "06-27 · 0.45m ge-1 · san-felipe · 151550 (Vantor stream)", "label": "san-felipe · geoeye-1 0.45m · 2026-06-27", "datetime": "2026-06-27", "sensor": "geoeye-1", "gsd": 0.45, "location": "san-felipe", "era": "after" }, "geometry": { "type": "Polygon", "coordinates": [ [ [ -68.876459833028861, 10.21572274593573 ], [ -68.713780352282527, 10.21572274593573 ], [ -68.713780352282527, 10.436123960777902 ], [ -68.876459833028861, 10.436123960777902 ], [ -68.876459833028861, 10.21572274593573 ] ] ] } },
{ "type": "Feature", "properties": { "layer_name": "06-27 · 1.01m wv-2 · san-felipe · 151531 (Vantor stream)", "label": "san-felipe · worldview-2 1.01m · 2026-06-27", "datetime": "2026-06-27", "sensor": "worldview-2", "gsd": 1.01, "location": "san-felipe", "era": "after" }, "geometry": { "type": "Polygon", "coordinates": [ [ [ -68.79280309277452, 10.065472553237493 ], [ -68.505195898258762, 10.065472553237493 ], [ -68.505195898258762, 10.774621382166071 ], [ -68.79280309277452, 10.774621382166071 ], [ -68.79280309277452, 10.065472553237493 ] ] ] } },
{ "type": "Feature", "properties": { "layer_name": "06-27 · 0.70m wv-2 · valencia · 151442 (Vantor stream)", "label": "valencia · worldview-2 0.70m · 2026-06-27", "datetime": "2026-06-27", "sensor": "worldview-2", "gsd": 0.7, "location": "valencia", "era": "after" }, "geometry": { "type": "Polygon", "coordinates": [ [ [ -68.066557920789279, 10.040136884474315 ], [ -67.8323382541505, 10.040136884474315 ], [ -67.8323382541505, 10.4336927674305 ], [ -68.066557920789279, 10.4336927674305 ], [ -68.066557920789279, 10.040136884474315 ] ] ] } },
{ "type": "Feature", "properties": { "layer_name": "PS 2026-06-27 145729 · 24d8", "label": "planetscope · 2026-06-27", "datetime": "2026-06-27", "sensor": "planetscope", "gsd": null, "location": "", "era": "after" }, "geometry": { "type": "Polygon", "coordinates": [ [ [ -67.359762000831452, 10.270828131729289 ], [ -67.012552692870301, 10.268886611780371 ], [ -67.011014407355688, 10.512122855396569 ], [ -67.358492130317458, 10.514111359998456 ], [ -67.359762000831452, 10.270828131729289 ] ] ] } },
{ "type": "Feature", "properties": { "layer_name": "PS 2026-06-27 145730 · 2553", "label": "planetscope · 2026-06-27", "datetime": "2026-06-27", "sensor": "planetscope", "gsd": null, "location": "", "era": "after" }, "geometry": { "type": "Polygon", "coordinates": [ [ [ -67.016436415494795, 10.007138947280021 ], [ -66.673494714535238, 10.004916333651629 ], [ -66.671760265940321, 10.245445073216388 ], [ -67.014957191073108, 10.247722219475056 ], [ -67.016436415494795, 10.007138947280021 ] ] ] } },
{ "type": "Feature", "properties": { "layer_name": "PS 2026-06-27 145731 · 24d8", "label": "planetscope · 2026-06-27", "datetime": "2026-06-27", "sensor": "planetscope", "gsd": null, "location": "", "era": "after" }, "geometry": { "type": "Polygon", "coordinates": [ [ [ -67.390470315075902, 10.121885189418192 ], [ -67.04229425654448, 10.11999730276764 ], [ -67.040804036445579, 10.362779171026215 ], [ -67.389244819682517, 10.36471330167309 ], [ -67.390470315075902, 10.121885189418192 ] ] ] } },
{ "type": "Feature", "properties": { "layer_name": "PS 2026-06-27 150903 · 254c", "label": "planetscope · 2026-06-27", "datetime": "2026-06-27", "sensor": "planetscope", "gsd": null, "location": "", "era": "after" }, "geometry": { "type": "Polygon", "coordinates": [ [ [ -69.589771818978605, 10.047560608776346 ], [ -69.243019469454708, 10.047996368679813 ], [ -69.24320459862038, 10.292792076888873 ], [ -69.590221073333154, 10.292345480511628 ], [ -69.589771818978605, 10.047560608776346 ] ] ] } },
{ "type": "Feature", "properties": { "layer_name": "PS 2026-06-27 153106 · 2530", "label": "planetscope · 2026-06-27", "datetime": "2026-06-27", "sensor": "planetscope", "gsd": null, "location": "", "era": "after" }, "geometry": { "type": "Polygon", "coordinates": [ [ [ -67.231377302774149, 10.408579045216172 ], [ -66.90751528373174, 10.406626762613966 ], [ -66.905984825331743, 10.633576266403837 ], [ -67.230083390403834, 10.635572069881071 ], [ -67.231377302774149, 10.408579045216172 ] ] ] } },
{ "type": "Feature", "properties": { "layer_name": "PS 2026-06-27 153535 · 251e", "label": "planetscope · 2026-06-27", "datetime": "2026-06-27", "sensor": "planetscope", "gsd": null, "location": "", "era": "after" }, "geometry": { "type": "Polygon", "coordinates": [ [ [ -68.685280069887114, 10.308711706976375 ], [ -68.355811664925625, 10.308223130717973 ], [ -68.355336619177692, 10.539300348863543 ], [ -68.685047970112436, 10.539800116077684 ], [ -68.685280069887114, 10.308711706976375 ] ] ] } },
{ "type": "Feature", "properties": { "layer_name": "06-28 · 0.79m skysat · yumare · 115115_ssc12_u0001 (Planet stream)", "label": "yumare · skysat 0.79m · 2026-06-28", "datetime": "2026-06-28", "sensor": "skysat", "gsd": 0.79, "location": "yumare", "era": "after" }, "geometry": { "type": "Polygon", "coordinates": [ [ [ -68.708240450972738, 10.510455914992832 ], [ -68.641937469435049, 10.510388039878491 ], [ -68.641748310572183, 10.673262633812028 ], [ -68.708086317593597, 10.673331584350027 ], [ -68.708240450972738, 10.510455914992832 ] ] ] } },
{ "type": "Feature", "properties": { "layer_name": "06-28 · 0.69m wv-2 · guarenas · 143613 (Vantor stream)", "label": "guarenas · worldview-2 0.69m · 2026-06-28", "datetime": "2026-06-28", "sensor": "worldview-2", "gsd": 0.69, "location": "guarenas", "era": "after" }, "geometry": { "type": "Polygon", "coordinates": [ [ [ -66.704388211436722, 10.475238401824901 ], [ -66.434905203530377, 10.475238401824901 ], [ -66.434905203530377, 10.688012634507194 ], [ -66.704388211436722, 10.688012634507194 ], [ -66.704388211436722, 10.475238401824901 ] ] ] } },
{ "type": "Feature", "properties": { "layer_name": "06-28 · 0.82m skysat · independencia-ocumare · 122047_ssc1_u0001", "label": "independencia-ocumare · skysat 0.82m · 2026-06-28", "datetime": "2026-06-28", "sensor": "skysat", "gsd": 0.82, "location": "independencia-ocumare", "era": "after" }, "geometry": { "type": "Polygon", "coordinates": [ [ [ -67.808177122516881, 10.381635446523305 ], [ -67.737627643635477, 10.381365839686625 ], [ -67.736958287721805, 10.546859002250416 ], [ -67.807545152272681, 10.54713300107135 ], [ -67.808177122516881, 10.381635446523305 ] ] ] } },
{ "type": "Feature", "properties": { "layer_name": "06-29 · 0.41m legion · caracas · 140932 (Vantor stream)", "label": "caracas · legion 0.41m · 2026-06-29", "datetime": "2026-06-29", "sensor": "legion", "gsd": 0.41, "location": "caracas", "era": "after" }, "geometry": { "type": "Polygon", "coordinates": [ [ [ -66.85280489250863, 10.278148581561874 ], [ -66.718050413269765, 10.278148581561874 ], [ -66.718050413269765, 10.730861700763148 ], [ -66.85280489250863, 10.730861700763148 ], [ -66.85280489250863, 10.278148581561874 ] ] ] } },
{ "type": "Feature", "properties": { "layer_name": "06-29 · 0.48m legion · caracas · 140955 (Vantor stream)", "label": "caracas · legion 0.48m · 2026-06-29", "datetime": "2026-06-29", "sensor": "legion", "gsd": 0.48, "location": "caracas", "era": "after" }, "geometry": { "type": "Polygon", "coordinates": [ [ [ -66.969672760279991, 10.262952470171109 ], [ -66.803945898189866, 10.262952470171109 ], [ -66.803945898189866, 10.72498321456232 ], [ -66.969672760279991, 10.72498321456232 ], [ -66.969672760279991, 10.262952470171109 ] ] ] } },
{ "type": "Feature", "properties": { "layer_name": "06-29 · 0.60m legion · caracas · 141016 (Vantor stream)", "label": "caracas · legion 0.60m · 2026-06-29", "datetime": "2026-06-29", "sensor": "legion", "gsd": 0.6, "location": "caracas", "era": "after" }, "geometry": { "type": "Polygon", "coordinates": [ [ [ -67.132550710161311, 10.24826964959494 ], [ -66.918773750537625, 10.24826964959494 ], [ -66.918773750537625, 10.755314271842343 ], [ -67.132550710161311, 10.755314271842343 ], [ -67.132550710161311, 10.24826964959494 ] ] ] } },
{ "type": "Feature", "properties": { "layer_name": "06-29 · 0.55m ge-1 · maracay · 144927 (Vantor stream)", "label": "maracay · geoeye-1 0.55m · 2026-06-29", "datetime": "2026-06-29", "sensor": "geoeye-1", "gsd": 0.55, "location": "maracay", "era": "after" }, "geometry": { "type": "Polygon", "coordinates": [ [ [ -67.481181492930887, 10.100697872006574 ], [ -67.28457133184763, 10.100697872006574 ], [ -67.28457133184763, 10.454892541953377 ], [ -67.481181492930887, 10.454892541953377 ], [ -67.481181492930887, 10.100697872006574 ] ] ] } },
{ "type": "Feature", "properties": { "layer_name": "06-29 · 0.65m ge-1 · maracay · 144955 (Vantor stream)", "label": "maracay · geoeye-1 0.65m · 2026-06-29", "datetime": "2026-06-29", "sensor": "geoeye-1", "gsd": 0.65, "location": "maracay", "era": "after" }, "geometry": { "type": "Polygon", "coordinates": [ [ [ -67.668547112913515, 10.073853382026812 ], [ -67.454184827366348, 10.073853382026812 ], [ -67.454184827366348, 10.490964182320345 ], [ -67.668547112913515, 10.490964182320345 ], [ -67.668547112913515, 10.073853382026812 ] ] ] } },
{ "type": "Feature", "properties": { "layer_name": "06-29 · 0.45m legion · maracay · 131531 (Vantor stream)", "label": "maracay · legion 0.45m · 2026-06-29", "datetime": "2026-06-29", "sensor": "legion", "gsd": 0.45, "location": "maracay", "era": "after" }, "geometry": { "type": "Polygon", "coordinates": [ [ [ -67.810075912725168, 9.980551443627528 ], [ -67.670174567351708, 9.980551443627528 ], [ -67.670174567351708, 10.453650349817121 ], [ -67.810075912725168, 10.453650349817121 ], [ -67.810075912725168, 9.980551443627528 ] ] ] } },
{ "type": "Feature", "properties": { "layer_name": "06-29 · 0.48m legion · maracay · 131617 (Vantor stream)", "label": "maracay · legion 0.48m · 2026-06-29", "datetime": "2026-06-29", "sensor": "legion", "gsd": 0.48, "location": "maracay", "era": "after" }, "geometry": { "type": "Polygon", "coordinates": [ [ [ -67.622667427572154, 9.971690200971048 ], [ -67.498199870399958, 9.971690200971048 ], [ -67.498199870399958, 10.466622471481983 ], [ -67.622667427572154, 10.466622471481983 ], [ -67.622667427572154, 9.971690200971048 ] ] ] } },
{ "type": "Feature", "properties": { "layer_name": "06-29 · 0.50m legion · moron · 202521 (Vantor stream)", "label": "moron · legion 0.50m · 2026-06-29", "datetime": "2026-06-29", "sensor": "legion", "gsd": 0.5, "location": "moron", "era": "after" }, "geometry": { "type": "Polygon", "coordinates": [ [ [ -68.257251087582517, 10.410602792819532 ], [ -68.136605362870114, 10.410602792819532 ], [ -68.136605362870114, 10.584545895434937 ], [ -68.257251087582517, 10.584545895434937 ], [ -68.257251087582517, 10.410602792819532 ] ] ] } },
{ "type": "Feature", "properties": { "layer_name": "06-29 · 0.60m legion · moron · 131645 (Vantor stream)", "label": "moron · legion 0.60m · 2026-06-29", "datetime": "2026-06-29", "sensor": "legion", "gsd": 0.6, "location": "moron", "era": "after" }, "geometry": { "type": "Polygon", "coordinates": [ [ [ -68.263704600456848, 10.380507064952477 ], [ -68.130716695764505, 10.380507064952477 ], [ -68.130716695764505, 10.580460167237066 ], [ -68.263704600456848, 10.580460167237066 ], [ -68.263704600456848, 10.380507064952477 ] ] ] } },
{ "type": "Feature", "properties": { "layer_name": "06-29 · 0.37m legion · san-felipe · 202422 (Vantor stream)", "label": "san-felipe · legion 0.37m · 2026-06-29", "datetime": "2026-06-29", "sensor": "legion", "gsd": 0.37, "location": "san-felipe", "era": "after" }, "geometry": { "type": "Polygon", "coordinates": [ [ [ -68.797692003267883, 10.300720752354975 ], [ -68.693188154872971, 10.300720752354975 ], [ -68.693188154872971, 10.409309088334483 ], [ -68.797692003267883, 10.409309088334483 ], [ -68.797692003267883, 10.300720752354975 ] ] ] } },
{ "type": "Feature", "properties": { "layer_name": "06-29 · 0.57m legion · san-felipe · 202315 (Vantor stream)", "label": "san-felipe · legion 0.57m · 2026-06-29", "datetime": "2026-06-29", "sensor": "legion", "gsd": 0.57, "location": "san-felipe", "era": "after" }, "geometry": { "type": "Polygon", "coordinates": [ [ [ -68.842175073792532, 10.229122391455588 ], [ -68.657842750162203, 10.229122391455588 ], [ -68.657842750162203, 10.387873730079916 ], [ -68.842175073792532, 10.387873730079916 ], [ -68.842175073792532, 10.229122391455588 ] ] ] } },
{ "type": "Feature", "properties": { "layer_name": "06-29 · 0.51m legion · valencia · 131508 (Vantor stream)", "label": "valencia · legion 0.51m · 2026-06-29", "datetime": "2026-06-29", "sensor": "legion", "gsd": 0.51, "location": "valencia", "era": "after" }, "geometry": { "type": "Polygon", "coordinates": [ [ [ -67.939272656756387, 9.987438680871891 ], [ -67.763021848241621, 9.987438680871891 ], [ -67.763021848241621, 10.438512650376145 ], [ -67.939272656756387, 10.438512650376145 ], [ -67.939272656756387, 9.987438680871891 ] ] ] } },
{ "type": "Feature", "properties": { "layer_name": "06-29 · 0.59m legion · valencia · 131448 (Vantor stream)", "label": "valencia · legion 0.59m · 2026-06-29", "datetime": "2026-06-29", "sensor": "legion", "gsd": 0.59, "location": "valencia", "era": "after" }, "geometry": { "type": "Polygon", "coordinates": [ [ [ -68.077819453938901, 9.952157961465366 ], [ -67.88058173327029, 9.952157961465366 ], [ -67.88058173327029, 10.453667932403324 ], [ -68.077819453938901, 10.453667932403324 ], [ -68.077819453938901, 9.952157961465366 ] ] ] } },
{ "type": "Feature", "properties": { "layer_name": "PS 2026-06-29 150034 · 2510", "label": "planetscope · 2026-06-29", "datetime": "2026-06-29", "sensor": "planetscope", "gsd": null, "location": "", "era": "after" }, "geometry": { "type": "Polygon", "coordinates": [ [ [ -68.17785717422197, 10.237062887630199 ], [ -67.829466301092182, 10.235996362896381 ], [ -67.828558938999336, 10.48044161506763 ], [ -68.177219784165942, 10.481534157759491 ], [ -68.17785717422197, 10.237062887630199 ] ] ] } },
{ "type": "Feature", "properties": { "layer_name": "PS 2026-06-29 150036 · 2510", "label": "planetscope · 2026-06-29", "datetime": "2026-06-29", "sensor": "planetscope", "gsd": null, "location": "", "era": "after" }, "geometry": { "type": "Polygon", "coordinates": [ [ [ -68.208137768483354, 10.086886431690774 ], [ -67.859550382994712, 10.085866173552812 ], [ -67.858681681680608, 10.329692354257444 ], [ -68.207534509939862, 10.330737792690394 ], [ -68.208137768483354, 10.086886431690774 ] ] ] } },
{ "type": "Feature", "properties": { "layer_name": "PS 2026-06-29 150039 · 2510", "label": "planetscope · 2026-06-29", "datetime": "2026-06-29", "sensor": "planetscope", "gsd": null, "location": "", "era": "after" }, "geometry": { "type": "Polygon", "coordinates": [ [ [ -68.238302026542129, 9.937137626898808 ], [ -67.88978921068329, 9.936163543655955 ], [ -67.888955453755187, 10.180211512672424 ], [ -68.23772992329009, 10.181210006309248 ], [ -68.238302026542129, 9.937137626898808 ] ] ] } },
{ "type": "Feature", "properties": { "layer_name": "PS 2026-06-29 150315 · 255c", "label": "planetscope · 2026-06-29", "datetime": "2026-06-29", "sensor": "planetscope", "gsd": null, "location": "", "era": "after" }, "geometry": { "type": "Polygon", "coordinates": [ [ [ -68.482088124225612, 10.225344022079181 ], [ -68.136722627479102, 10.22461202869221 ], [ -68.136058377061104, 10.467561616492345 ], [ -68.481689577296166, 10.46831137648608 ], [ -68.482088124225612, 10.225344022079181 ] ] ] } },
{ "type": "Feature", "properties": { "layer_name": "PS 2026-06-29 150825 · 257a", "label": "planetscope · 2026-06-29", "datetime": "2026-06-29", "sensor": "planetscope", "gsd": null, "location": "", "era": "after" }, "geometry": { "type": "Polygon", "coordinates": [ [ [ -69.005196241442135, 10.274649824308757 ], [ -68.659369735000581, 10.274470998658799 ], [ -68.659106485322894, 10.517307622594085 ], [ -69.005200257354062, 10.517490766424888 ], [ -69.005196241442135, 10.274649824308757 ] ] ] } },
{ "type": "Feature", "properties": { "layer_name": "PS 2026-06-29 150937 · 256e", "label": "planetscope · 2026-06-29", "datetime": "2026-06-29", "sensor": "planetscope", "gsd": null, "location": "", "era": "after" }, "geometry": { "type": "Polygon", "coordinates": [ [ [ -69.284458623749416, 10.496688241116919 ], [ -68.938167671831934, 10.496809540399932 ], [ -68.938118806754446, 10.739809744587218 ], [ -69.284683423223015, 10.739685573685581 ], [ -69.284458623749416, 10.496688241116919 ] ] ] } },
{ "type": "Feature", "properties": { "layer_name": "PS 2026-06-29 150939 · 256e", "label": "planetscope · 2026-06-29", "datetime": "2026-06-29", "sensor": "planetscope", "gsd": null, "location": "", "era": "after" }, "geometry": { "type": "Polygon", "coordinates": [ [ [ -69.314714255329307, 10.348922513592811 ], [ -68.968422452968781, 10.349074708324785 ], [ -68.968397852921157, 10.592077282197316 ], [ -69.314959424193489, 10.591921435225197 ], [ -69.314714255329307, 10.348922513592811 ] ] ] } },
{ "type": "Feature", "properties": { "layer_name": "PS 2026-06-29 150942 · 256e", "label": "planetscope · 2026-06-29", "datetime": "2026-06-29", "sensor": "planetscope", "gsd": null, "location": "", "era": "after" }, "geometry": { "type": "Polygon", "coordinates": [ [ [ -69.344422791524821, 10.200801252015991 ], [ -68.99864874107422, 10.200982867114867 ], [ -68.998647704084576, 10.443879185552362 ], [ -69.344687103749905, 10.443693153575207 ], [ -69.344422791524821, 10.200801252015991 ] ] ] } },
{ "type": "Feature", "properties": { "layer_name": "PS 2026-06-29 153406 · 253b", "label": "planetscope · 2026-06-29", "datetime": "2026-06-29", "sensor": "planetscope", "gsd": null, "location": "", "era": "after" }, "geometry": { "type": "Polygon", "coordinates": [ [ [ -67.237315370465012, 10.448750764684553 ], [ -66.909301698395936, 10.446770143142105 ], [ -66.907751549607312, 10.675915598269485 ], [ -67.23600809152218, 10.6779406361161 ], [ -67.237315370465012, 10.448750764684553 ] ] ] } },
{ "type": "Feature", "properties": { "layer_name": "PS 2026-06-29 153607 · 2539", "label": "planetscope · 2026-06-29", "datetime": "2026-06-29", "sensor": "planetscope", "gsd": null, "location": "", "era": "after" }, "geometry": { "type": "Polygon", "coordinates": [ [ [ -67.614532300493863, 10.192022238361046 ], [ -67.289538122129116, 10.190482826552724 ], [ -67.288303046543689, 10.419357322009265 ], [ -67.613531689220139, 10.420932044570538 ], [ -67.614532300493863, 10.192022238361046 ] ] ] } },
{ "type": "Feature", "properties": { "layer_name": "PS 2026-06-29 153611 · 2539", "label": "planetscope · 2026-06-29", "datetime": "2026-06-29", "sensor": "planetscope", "gsd": null, "location": "", "era": "after" }, "geometry": { "type": "Polygon", "coordinates": [ [ [ -67.665353250437207, 9.939033524151204 ], [ -67.339482639326732, 9.937575753977422 ], [ -67.338312687132273, 10.166649544945091 ], [ -67.664412710557997, 10.168141598992772 ], [ -67.665353250437207, 9.939033524151204 ] ] ] } },
{ "type": "Feature", "properties": { "layer_name": "PS 2026-06-29 153952 · 2504", "label": "planetscope · 2026-06-29", "datetime": "2026-06-29", "sensor": "planetscope", "gsd": null, "location": "", "era": "after" }, "geometry": { "type": "Polygon", "coordinates": [ [ [ -68.800303834863968, 10.21945380663135 ], [ -68.47514096940246, 10.219092480100809 ], [ -68.474761995454159, 10.447381343934337 ], [ -68.800159637537547, 10.447750915078391 ], [ -68.800303834863968, 10.21945380663135 ] ] ] } },
{ "type": "Feature", "properties": { "layer_name": "PS 2026-06-29 153954 · 2504", "label": "planetscope · 2026-06-29", "datetime": "2026-06-29", "sensor": "planetscope", "gsd": null, "location": "", "era": "after" }, "geometry": { "type": "Polygon", "coordinates": [ [ [ -68.825353766025827, 10.09305391999286 ], [ -68.500700976607604, 10.092722333824522 ], [ -68.500344620141988, 10.321230945852315 ], [ -68.825229113102324, 10.321570196191786 ], [ -68.825353766025827, 10.09305391999286 ] ] ] } },
{ "type": "Feature", "properties": { "layer_name": "PS 2026-06-29 153956 · 2504", "label": "planetscope · 2026-06-29", "datetime": "2026-06-29", "sensor": "planetscope", "gsd": null, "location": "", "era": "after" }, "geometry": { "type": "Polygon", "coordinates": [ [ [ -68.850437988814235, 9.966867932386439 ], [ -68.525937356146969, 9.966564924005906 ], [ -68.525603281459311, 10.195076149180464 ], [ -68.85033258726375, 10.195386246326212 ], [ -68.850437988814235, 9.966867932386439 ] ] ] } },
{ "type": "Feature", "properties": { "layer_name": "06-30 · 0.60m legion · moron · 125955 (Vantor stream)", "label": "moron · legion 0.60m · 2026-06-30", "datetime": "2026-06-30", "sensor": "legion", "gsd": 0.6, "location": "moron", "era": "after" }, "geometry": { "type": "Polygon", "coordinates": [ [ [ -68.271791840563367, 10.366579188491158 ], [ -68.122920207179718, 10.366579188491158 ], [ -68.122920207179718, 10.588243360444812 ], [ -68.271791840563367, 10.588243360444812 ], [ -68.271791840563367, 10.366579188491158 ] ] ] } },
{ "type": "Feature", "properties": { "layer_name": "PS 2026-06-30 150344 · 2544", "label": "planetscope · 2026-06-30", "datetime": "2026-06-30", "sensor": "planetscope", "gsd": null, "location": "", "era": "after" }, "geometry": { "type": "Polygon", "coordinates": [ [ [ -68.121483805244551, 10.087915193044788 ], [ -67.771645490334194, 10.086798651679288 ], [ -67.770703216426782, 10.332298897000275 ], [ -68.120809792208192, 10.33344318184915 ], [ -68.121483805244551, 10.087915193044788 ] ] ] } },
{ "type": "Feature", "properties": { "layer_name": "PS 2026-06-30 150452 · 254f", "label": "planetscope · 2026-06-30", "datetime": "2026-06-30", "sensor": "planetscope", "gsd": null, "location": "", "era": "after" }, "geometry": { "type": "Polygon", "coordinates": [ [ [ -68.417952869019615, 10.396166678563628 ], [ -68.074132603449783, 10.395358392822706 ], [ -68.073411447040144, 10.637216054297888 ], [ -68.417499465790712, 10.638043562953145 ], [ -68.417952869019615, 10.396166678563628 ] ] ] } },
{ "type": "Feature", "properties": { "layer_name": "PS 2026-07-05 150014 · 2575", "label": "planetscope · 2026-07-05", "datetime": "2026-07-05", "sensor": "planetscope", "gsd": null, "location": "", "era": "after" }, "geometry": { "type": "Polygon", "coordinates": [ [ [ -67.907072210407534, 10.062180595740642 ], [ -67.562789764042591, 10.060864208327601 ], [ -67.561706162003489, 10.30281767505288 ], [ -67.906248038323071, 10.304166378485602 ], [ -67.907072210407534, 10.062180595740642 ] ] ] } },
{ "type": "Feature", "properties": { "layer_name": "PS 2026-07-05 150133 · 2560", "label": "planetscope · 2026-07-05", "datetime": "2026-07-05", "sensor": "planetscope", "gsd": null, "location": "", "era": "after" }, "geometry": { "type": "Polygon", "coordinates": [ [ [ -67.578485241935596, 9.995287625157367 ], [ -67.23177867775135, 9.993626890856977 ], [ -67.230444498283958, 10.23735902282205 ], [ -67.577412422420252, 10.239061091605485 ], [ -67.578485241935596, 9.995287625157367 ] ] ] } },
{ "type": "Feature", "properties": { "layer_name": "PS 2026-07-05 150455 · 2570", "label": "planetscope · 2026-07-05", "datetime": "2026-07-05", "sensor": "planetscope", "gsd": null, "location": "", "era": "after" }, "geometry": { "type": "Polygon", "coordinates": [ [ [ -69.297562592279007, 9.966470379395746 ], [ -68.950422736472561, 9.966599274133261 ], [ -68.950385391241213, 10.210665716218379 ], [ -69.297786734326777, 10.210533600635081 ], [ -69.297562592279007, 9.966470379395746 ] ] ] } },
{ "type": "Feature", "properties": { "layer_name": "PS 2026-07-05 150550 · 254f", "label": "planetscope · 2026-07-05", "datetime": "2026-07-05", "sensor": "planetscope", "gsd": null, "location": "", "era": "after" }, "geometry": { "type": "Polygon", "coordinates": [ [ [ -68.913961435511396, 10.187079248079037 ], [ -68.571244529910146, 10.186809488509873 ], [ -68.570918000860161, 10.428206897178375 ], [ -68.913895908421011, 10.428483185485561 ], [ -68.913961435511396, 10.187079248079037 ] ] ] } },
{ "type": "Feature", "properties": { "layer_name": "PS 2026-07-06 150526 · 2563", "label": "planetscope · 2026-07-06", "datetime": "2026-07-06", "sensor": "planetscope", "gsd": null, "location": "", "era": "after" }, "geometry": { "type": "Polygon", "coordinates": [ [ [ -68.901676710104283, 10.497532932195762 ], [ -68.55755411009514, 10.497240116976034 ], [ -68.557206219401365, 10.739012235783683 ], [ -68.901599396578504, 10.739311947739692 ], [ -68.901676710104283, 10.497532932195762 ] ] ] } },
{ "type": "Feature", "properties": { "layer_name": "PS 2026-07-06 155030 · 250b", "label": "planetscope · 2026-07-06", "datetime": "2026-07-06", "sensor": "planetscope", "gsd": null, "location": "", "era": "after" }, "geometry": { "type": "Polygon", "coordinates": [ [ [ -68.586659665748243, 10.483794585298734 ], [ -68.287002450677406, 10.483264159000308 ], [ -68.286517124325556, 10.693173793862247 ], [ -68.58637829210133, 10.693715079685925 ], [ -68.586659665748243, 10.483794585298734 ] ] ] } },
{ "type": "Feature", "properties": { "layer_name": "PS 2026-07-08 145518 · 2520", "label": "planetscope · 2026-07-08", "datetime": "2026-07-08", "sensor": "planetscope", "gsd": null, "location": "", "era": "after" }, "geometry": { "type": "Polygon", "coordinates": [ [ [ -66.558593718907005, 10.515117465892459 ], [ -66.214617677768487, 10.51228229658744 ], [ -66.212433457517122, 10.75287947322489 ], [ -66.556678534898339, 10.755781004753166 ], [ -66.558593718907005, 10.515117465892459 ] ] ] } },
{ "type": "Feature", "properties": { "layer_name": "PS 2026-07-10 153643 · 253d", "label": "planetscope · 2026-07-10", "datetime": "2026-07-10", "sensor": "planetscope", "gsd": null, "location": "", "era": "after" }, "geometry": { "type": "Polygon", "coordinates": [ [ [ -67.530754683201366, 10.373501305018483 ], [ -67.20882048522985, 10.371867991155414 ], [ -67.207522167840324, 10.597584132899161 ], [ -67.52968948906647, 10.59925377512902 ], [ -67.530754683201366, 10.373501305018483 ] ] ] } },
{ "type": "Feature", "properties": { "layer_name": "PS 2026-07-10 155427 · 24de", "label": "planetscope · 2026-07-10", "datetime": "2026-07-10", "sensor": "planetscope", "gsd": null, "location": "", "era": "after" }, "geometry": { "type": "Polygon", "coordinates": [ [ [ -67.855471261671397, 9.937512961045103 ], [ -67.562570623691968, 9.93638365989573 ], [ -67.561665674772257, 10.141367749770147 ], [ -67.854750600671636, 10.142520817882424 ], [ -67.855471261671397, 9.937512961045103 ] ] ] } },
{ "type": "Feature", "properties": { "layer_name": "PS 2026-07-12 145757 · 255a", "label": "planetscope · 2026-07-12", "datetime": "2026-07-12", "sensor": "planetscope", "gsd": null, "location": "", "era": "after" }, "geometry": { "type": "Polygon", "coordinates": [ [ [ -67.267840485114917, 10.050257248018003 ], [ -66.925784587896544, 10.048291547864231 ], [ -66.924240054724976, 10.287531987309558 ], [ -67.26655031714796, 10.289545459356928 ], [ -67.267840485114917, 10.050257248018003 ] ] ] } },
{ "type": "Feature", "properties": { "layer_name": "PS 2026-07-12 145759 · 255a", "label": "planetscope · 2026-07-12", "datetime": "2026-07-12", "sensor": "planetscope", "gsd": null, "location": "", "era": "after" }, "geometry": { "type": "Polygon", "coordinates": [ [ [ -67.294286946490672, 9.916816830179371 ], [ -66.952337701443824, 9.91490379646091 ], [ -66.950832492514763, 10.154285765812981 ], [ -67.293032772547051, 10.156245919627091 ], [ -67.294286946490672, 9.916816830179371 ] ] ] } },
{ "type": "Feature", "properties": { "layer_name": "PS 2026-07-12 150259 · 2555", "label": "planetscope · 2026-07-12", "datetime": "2026-07-12", "sensor": "planetscope", "gsd": null, "location": "", "era": "after" }, "geometry": { "type": "Polygon", "coordinates": [ [ [ -67.969995354979289, 10.304294295582658 ], [ -67.620733708489055, 10.302993410995077 ], [ -67.619657622668825, 10.54739056146021 ], [ -67.969191621098673, 10.548722977404273 ], [ -67.969995354979289, 10.304294295582658 ] ] ] } },
{ "type": "Feature", "properties": { "layer_name": "PS 2026-07-13 154828 · 24fa", "label": "planetscope · 2026-07-13", "datetime": "2026-07-13", "sensor": "planetscope", "gsd": null, "location": "", "era": "after" }, "geometry": { "type": "Polygon", "coordinates": [ [ [ -67.811118864705136, 10.403172082781436 ], [ -67.51253846126032, 10.401925316431894 ], [ -67.511553426912215, 10.607766887162155 ], [ -67.810331429875404, 10.609038871004449 ], [ -67.811118864705136, 10.403172082781436 ] ] ] } },
{ "type": "Feature", "properties": { "layer_name": "PS 2026-07-14 153957 · 2530", "label": "planetscope · 2026-07-14", "datetime": "2026-07-14", "sensor": "planetscope", "gsd": null, "location": "", "era": "after" }, "geometry": { "type": "Polygon", "coordinates": [ [ [ -69.007529711633978, 10.473454026512721 ], [ -68.682127241332836, 10.473295471585105 ], [ -68.681892508989023, 10.701044168458873 ], [ -69.007535272044862, 10.701206248782789 ], [ -69.007529711633978, 10.473454026512721 ] ] ] } },
{ "type": "Feature", "properties": { "layer_name": "PS 2026-07-14 154732 · 24db", "label": "planetscope · 2026-07-14", "datetime": "2026-07-14", "sensor": "planetscope", "gsd": null, "location": "", "era": "after" }, "geometry": { "type": "Polygon", "coordinates": [ [ [ -68.192356635764398, 10.415781614785901 ], [ -67.892901909667771, 10.414886057018991 ], [ -67.892155384652, 10.624203825343487 ], [ -68.191811971959794, 10.625117781100705 ], [ -68.192356635764398, 10.415781614785901 ] ] ] } },
{ "type": "Feature", "properties": { "layer_name": "PS 2026-07-15 145459 · 2510", "label": "planetscope · 2026-07-15", "datetime": "2026-07-15", "sensor": "planetscope", "gsd": null, "location": "", "era": "after" }, "geometry": { "type": "Polygon", "coordinates": [ [ [ -66.783829939178389, 10.455874181676066 ], [ -66.439257254275532, 10.453292777657472 ], [ -66.437251588976778, 10.694992315856277 ], [ -66.782093574290954, 10.697634746632945 ], [ -66.783829939178389, 10.455874181676066 ] ] ] } },
{ "type": "Feature", "properties": { "layer_name": "PS 2026-07-15 145504 · 2510", "label": "planetscope · 2026-07-15", "datetime": "2026-07-15", "sensor": "planetscope", "gsd": null, "location": "", "era": "after" }, "geometry": { "type": "Polygon", "coordinates": [ [ [ -66.844858781445666, 10.15851421130108 ], [ -66.498486976274918, 10.156053543608042 ], [ -66.496585485824127, 10.397578938755075 ], [ -66.843220043210039, 10.400099364618114 ], [ -66.844858781445666, 10.15851421130108 ] ] ] } },
{ "type": "Feature", "properties": { "layer_name": "PS 2026-07-15 145506 · 2510", "label": "planetscope · 2026-07-15", "datetime": "2026-07-15", "sensor": "planetscope", "gsd": null, "location": "", "era": "after" }, "geometry": { "type": "Polygon", "coordinates": [ [ [ -66.873971723674913, 10.009458254086127 ], [ -66.528080048483744, 10.00706612028547 ], [ -66.52622760171073, 10.248761817814129 ], [ -66.872377971281395, 10.251212916313552 ], [ -66.873971723674913, 10.009458254086127 ] ] ] } },
{ "type": "Feature", "properties": { "layer_name": "PS 2026-07-15 145508 · 2510", "label": "planetscope · 2026-07-15", "datetime": "2026-07-15", "sensor": "planetscope", "gsd": null, "location": "", "era": "after" }, "geometry": { "type": "Polygon", "coordinates": [ [ [ -66.90351241254298, 9.859880714852325 ], [ -66.557114534485066, 9.857549540507138 ], [ -66.555311217070269, 10.09927981792919 ], [ -66.901964308109257, 10.101669299460797 ], [ -66.90351241254298, 9.859880714852325 ] ] ] } },
{ "type": "Feature", "properties": { "layer_name": "PS 2026-07-15 145740 · 255c", "label": "planetscope · 2026-07-15", "datetime": "2026-07-15", "sensor": "planetscope", "gsd": null, "location": "", "era": "after" }, "geometry": { "type": "Polygon", "coordinates": [ [ [ -67.166170209262035, 10.124399582039858 ], [ -66.824440084033128, 10.122316321068716 ], [ -66.822805825477829, 10.361865227559802 ], [ -67.164792271021426, 10.36399882718896 ], [ -67.166170209262035, 10.124399582039858 ] ] ] } },
{ "type": "Feature", "properties": { "layer_name": "PS 2026-07-15 150440 · 2562", "label": "planetscope · 2026-07-15", "datetime": "2026-07-15", "sensor": "planetscope", "gsd": null, "location": "", "era": "after" }, "geometry": { "type": "Polygon", "coordinates": [ [ [ -68.524230874234348, 10.104369890207531 ], [ -68.179348155511562, 10.103691557047268 ], [ -68.178724171927371, 10.346672759715238 ], [ -68.52386908974087, 10.34736774804624 ], [ -68.524230874234348, 10.104369890207531 ] ] ] } },
{ "type": "Feature", "properties": { "layer_name": "PS 2026-07-15 150442 · 2562", "label": "planetscope · 2026-07-15", "datetime": "2026-07-15", "sensor": "planetscope", "gsd": null, "location": "", "era": "after" }, "geometry": { "type": "Polygon", "coordinates": [ [ [ -68.55111187405025, 9.970696794852318 ], [ -68.206231949521055, 9.970054845561851 ], [ -68.205636596287007, 10.212985380750375 ], [ -68.550775163239607, 10.213643291203029 ], [ -68.55111187405025, 9.970696794852318 ] ] ] } },
{ "type": "Feature", "properties": { "layer_name": "PS 2026-07-15 150444 · 2562", "label": "planetscope · 2026-07-15", "datetime": "2026-07-15", "sensor": "planetscope", "gsd": null, "location": "", "era": "after" }, "geometry": { "type": "Polygon", "coordinates": [ [ [ -68.577859276152751, 9.836965109475877 ], [ -68.233062495257215, 9.83635889266159 ], [ -68.232494979277305, 10.079320071277516 ], [ -68.577546875762096, 10.079941559484736 ], [ -68.577859276152751, 9.836965109475877 ] ] ] } },
{ "type": "Feature", "properties": { "layer_name": "PS 2026-07-15 150650 · 254f", "label": "planetscope · 2026-07-15", "datetime": "2026-07-15", "sensor": "planetscope", "gsd": null, "location": "", "era": "after" }, "geometry": { "type": "Polygon", "coordinates": [ [ [ -69.26160522201225, 10.145553554532 ], [ -68.919394875919949, 10.14564789249374 ], [ -68.919333899106618, 10.386428419276049 ], [ -69.2618031207451, 10.38633179512766 ], [ -69.26160522201225, 10.145553554532 ] ] ] } },
{ "type": "Feature", "properties": { "layer_name": "PS 2026-07-15 153425 · 2531", "label": "planetscope · 2026-07-15", "datetime": "2026-07-15", "sensor": "planetscope", "gsd": null, "location": "", "era": "after" }, "geometry": { "type": "Polygon", "coordinates": [ [ [ -67.628732863361336, 10.315478208784542 ], [ -67.306322058930022, 10.313948810944135 ], [ -67.305096729369396, 10.540518284919631 ], [ -67.627740589827297, 10.542082011988391 ], [ -67.628732863361336, 10.315478208784542 ] ] ] } },
{ "type": "Feature", "properties": { "layer_name": "PS 2026-07-15 154417 · 2534", "label": "planetscope · 2026-07-15", "datetime": "2026-07-15", "sensor": "planetscope", "gsd": null, "location": "", "era": "after" }, "geometry": { "type": "Polygon", "coordinates": [ [ [ -69.580466837154603, 10.528951811229248 ], [ -69.254355463988574, 10.529381432400731 ], [ -69.254545266538585, 10.758270139504956 ], [ -69.580899963246935, 10.757830966949633 ], [ -69.580466837154603, 10.528951811229248 ] ] ] } },
{ "type": "Feature", "properties": { "layer_name": "PS 2026-07-16 145436 · 2565", "label": "planetscope · 2026-07-16", "datetime": "2026-07-16", "sensor": "planetscope", "gsd": null, "location": "", "era": "after" }, "geometry": { "type": "Polygon", "coordinates": [ [ [ -66.510260518809432, 9.828036885349231 ], [ -66.15703114386524, 9.825252444245242 ], [ -66.154890225559541, 10.072541521643695 ], [ -66.508384883894394, 10.075397434885257 ], [ -66.510260518809432, 9.828036885349231 ] ] ] } },
{ "type": "Feature", "properties": { "layer_name": "PS 2026-07-17 145651 · 254b", "label": "planetscope · 2026-07-17", "datetime": "2026-07-17", "sensor": "planetscope", "gsd": null, "location": "", "era": "after" }, "geometry": { "type": "Polygon", "coordinates": [ [ [ -67.086210295408094, 10.236623982159262 ], [ -66.740354286788218, 10.234405957841837 ], [ -66.738622372349738, 10.476081321139819 ], [ -67.084743033024267, 10.478352848915717 ], [ -67.086210295408094, 10.236623982159262 ] ] ] } },
{ "type": "Feature", "properties": { "layer_name": "PS 2026-07-17 153553 · 251d", "label": "planetscope · 2026-07-17", "datetime": "2026-07-17", "sensor": "planetscope", "gsd": null, "location": "", "era": "after" }, "geometry": { "type": "Polygon", "coordinates": [ [ [ -66.66737149070417, 10.398976032414051 ], [ -66.361521292789419, 10.396603831686239 ], [ -66.359703502664928, 10.610670580626381 ], [ -66.665763920233658, 10.613092705393507 ], [ -66.66737149070417, 10.398976032414051 ] ] ] } },
{ "type": "Feature", "properties": { "layer_name": "PS 2026-07-17 153555 · 251d", "label": "planetscope · 2026-07-17", "datetime": "2026-07-17", "sensor": "planetscope", "gsd": null, "location": "", "era": "after" }, "geometry": { "type": "Polygon", "coordinates": [ [ [ -66.691139361869091, 10.27955529611247 ], [ -66.385481233454442, 10.277233150232032 ], [ -66.383705427874375, 10.490763542288869 ], [ -66.689570682115061, 10.493134978052211 ], [ -66.691139361869091, 10.27955529611247 ] ] ] } },
{ "type": "Feature", "properties": { "layer_name": "PS 2026-07-17 153558 · 251d", "label": "planetscope · 2026-07-17", "datetime": "2026-07-17", "sensor": "planetscope", "gsd": null, "location": "", "era": "after" }, "geometry": { "type": "Polygon", "coordinates": [ [ [ -66.73900452771062, 10.040534701909802 ], [ -66.432960644301261, 10.038305479823318 ], [ -66.431258923543922, 10.251738646827961 ], [ -66.737505236601905, 10.254016243431581 ], [ -66.73900452771062, 10.040534701909802 ] ] ] } }
]
}
