{
"type": "FeatureCollection",
"name": "la-guaira_geology",
"crs": { "type": "name", "properties": { "name": "urn:ogc:def:crs:OGC:1.3:CRS84" } },
"features": [
{ "type": "Feature", "properties": { "map_id": 2670771, "name": "Las Mercedes Schist, Chuspita Schist, undivided of the Caracas Metasedimentary Suite", "age": "Jurassic to Cretaceous", "lith": "calcareous schist", "descrip": "", "t_int": "Cretaceous", "b_int": "Jurassic", "color": "#00c47d", "ref_name": "Venezula" }, "geometry": { "type": "MultiPolygon", "coordinates": [ [ [ [ -66.855562242188455, 10.400588450568337 ], [ -66.845455169677734, 10.40872202934032 ], [ -66.83807373046875, 10.408215519387713 ], [ -66.834554672241211, 10.407540171504845 ], [ -66.831121444702148, 10.406189471352944 ], [ -66.822624206542969, 10.40163081517268 ], [ -66.821250915527344, 10.400617771423233 ], [ -66.821222347165318, 10.400588450568337 ], [ -66.855562242188455, 10.400588450568337 ] ] ], [ [ [ -66.806904224200281, 10.400588450568337 ], [ -66.804428100585938, 10.401546394985804 ], [ -66.796875, 10.404177480075791 ], [ -66.796875, 10.404234305073869 ], [ -66.764345169067383, 10.411592236867619 ], [ -66.745376586914062, 10.414546834667608 ], [ -66.742286682128906, 10.415306583861673 ], [ -66.739196777343764, 10.416488412260607 ], [ -66.736364364624023, 10.417839067800609 ], [ -66.728382110595703, 10.423157217078737 ], [ -66.722209844646656, 10.426633819573748 ], [ -66.722209844646656, 10.400588450568337 ], [ -66.806904224200281, 10.400588450568337 ] ] ], [ [ [ -67.112474441528306, 10.41918971748674 ], [ -67.109642028808594, 10.423326045727727 ], [ -67.108097076416016, 10.425098741016757 ], [ -67.103633880615234, 10.429066165334003 ], [ -67.096767425537109, 10.431936185448983 ], [ -67.090072631835938, 10.433877654636348 ], [ -67.087841033935533, 10.43472176789591 ], [ -67.083635330200181, 10.437169683396878 ], [ -67.079601287841797, 10.439870809178267 ], [ -67.074623107910156, 10.435143823666873 ], [ -67.068958282470703, 10.439448759821394 ], [ -67.063379287719727, 10.442656320566197 ], [ -67.056427001953125, 10.445272990346885 ], [ -67.049388885498047, 10.447552007367694 ], [ -67.04132080078125, 10.451519145269113 ], [ -67.039346694946289, 10.452700836127207 ], [ -67.035140991210938, 10.452954055011849 ], [ -67.031450271606445, 10.455064204354313 ], [ -67.024755477905273, 10.460972546213174 ], [ -67.023811340332031, 10.460466121317893 ], [ -67.016773223876953, 10.461478970282 ], [ -67.013339996337891, 10.461732182006482 ], [ -67.009820938110352, 10.461732182006482 ], [ -67.005186080932617, 10.461394566327924 ], [ -67.003297805786119, 10.461732182006482 ], [ -66.99986457824707, 10.462913833988559 ], [ -66.986818313598633, 10.470088052967238 ], [ -66.983814239501953, 10.472366887790299 ], [ -66.981067657470703, 10.474983307112204 ], [ -66.978235244750977, 10.477177706284909 ], [ -66.974973678588867, 10.479203291726677 ], [ -66.97265625, 10.480245016225036 ], [ -66.97265625, 10.48023909734574 ], [ -66.971454620361328, 10.480722472115902 ], [ -66.96690559387207, 10.481566458001305 ], [ -66.968622207641602, 10.477093306604099 ], [ -66.972656250000014, 10.474208358236957 ], [ -66.972656250000014, 10.474223703778041 ], [ -66.982612609863267, 10.466880775582176 ], [ -66.983728408813477, 10.465445930223723 ], [ -66.983213424682617, 10.46443309420977 ], [ -66.981754302978516, 10.46443309420977 ], [ -66.980552673339844, 10.465023915619806 ], [ -66.973514556884766, 10.470172454555694 ], [ -66.972656250000014, 10.470688241541451 ], [ -66.972656250000014, 10.470728879267499 ], [ -66.968708038330092, 10.472957694083901 ], [ -66.96742057800293, 10.47413930329266 ], [ -66.96415901184082, 10.475911708658758 ], [ -66.962356567382812, 10.475236507809838 ], [ -66.953945159912109, 10.477177706284909 ], [ -66.951026916503906, 10.477599704344101 ], [ -66.949825286865234, 10.477430905189397 ], [ -66.948795318603516, 10.4769245071735 ], [ -66.944847106933594, 10.473126495675237 ], [ -66.944074630737305, 10.472873293253762 ], [ -66.943216323852539, 10.472957694083901 ], [ -66.942358016967788, 10.474054902784285 ], [ -66.941328048706069, 10.480047281751681 ], [ -66.936864852905273, 10.484098401856635 ], [ -66.934758699857269, 10.487811882056688 ], [ -66.934841700962608, 10.487811882056688 ], [ -66.934547424316406, 10.488318262268663 ], [ -66.924591064453125, 10.49717978182767 ], [ -66.910943984985352, 10.495998260554018 ], [ -66.907596588134766, 10.496167049583773 ], [ -66.898326873779311, 10.499205236364908 ], [ -66.892404556274428, 10.502243393289787 ], [ -66.888799667358413, 10.502580964438101 ], [ -66.886224746704102, 10.502243393289787 ], [ -66.885194778442383, 10.5012306776327 ], [ -66.885709762573242, 10.499711597925961 ], [ -66.891717910766616, 10.494816734766381 ], [ -66.894292831420898, 10.493803994784589 ], [ -66.904506683349624, 10.491272130324443 ], [ -66.908369064331055, 10.48916222744745 ], [ -66.909341812133789, 10.487811882056688 ], [ -66.909387588500977, 10.487811882056688 ], [ -66.909828186035156, 10.48722110409561 ], [ -66.909313201904297, 10.48587075023616 ], [ -66.907768249511719, 10.485026776082748 ], [ -66.905708312988281, 10.484857980975971 ], [ -66.89600944519043, 10.485026776082748 ], [ -66.892919540405273, 10.483929606243715 ], [ -66.8902587890625, 10.481988450081504 ], [ -66.885105603701106, 10.487811882056688 ], [ -66.885088511875708, 10.487811882056688 ], [ -66.884078979492188, 10.488909038135475 ], [ -66.877298355102553, 10.495238708780125 ], [ -66.874809265136719, 10.494479155140883 ], [ -66.870603561401367, 10.4922004830324 ], [ -66.863307952880859, 10.491440921933084 ], [ -66.860389709472656, 10.488993434595814 ], [ -66.86004638671875, 10.487980675552734 ], [ -66.860080718994141, 10.487811882056688 ], [ -66.860067844390869, 10.487811882056688 ], [ -66.860904693603516, 10.481228863923135 ], [ -66.858501434326172, 10.477430905189397 ], [ -66.858072280883789, 10.473632899897654 ], [ -66.857471466064453, 10.473126495675237 ], [ -66.856784820556641, 10.473126495675237 ], [ -66.856012344360352, 10.473632899897654 ], [ -66.853952407836914, 10.479287690832658 ], [ -66.847686767578125, 10.487558691640018 ], [ -66.847000122070312, 10.486967913195679 ], [ -66.845855712890625, 10.487811882056688 ], [ -66.845873127812922, 10.487811882056688 ], [ -66.844081878662124, 10.489077831033137 ], [ -66.842536926269531, 10.489331020207018 ], [ -66.839017868041992, 10.489331020207018 ], [ -66.836872100830078, 10.488993434595814 ], [ -66.833868026733413, 10.487811882056688 ], [ -66.833854293823251, 10.487811882056688 ], [ -66.83017730712892, 10.486377133623773 ], [ -66.819362640380874, 10.480553674662834 ], [ -66.816530227661133, 10.480047281751681 ], [ -66.810178756713867, 10.47962528702663 ], [ -66.801424026489258, 10.480216079480723 ], [ -66.799707412719727, 10.480722472115902 ], [ -66.798505783081055, 10.481482059516264 ], [ -66.797904968261719, 10.482410441586676 ], [ -66.797819137573242, 10.486967913195679 ], [ -66.79753303527832, 10.487811882056688 ], [ -66.797567367553725, 10.487811882056688 ], [ -66.796875, 10.489668605449953 ], [ -66.797819137573242, 10.490596962969075 ], [ -66.796875, 10.494528799226572 ], [ -66.796875, 10.494539437243887 ], [ -66.796360015869141, 10.496673416120297 ], [ -66.796875, 10.499516843577542 ], [ -66.797475814819336, 10.502834142557374 ], [ -66.796875, 10.503818722160675 ], [ -66.796875, 10.503818722160664 ], [ -66.796445846557617, 10.504521991385316 ], [ -66.790523529052734, 10.504015637704901 ], [ -66.784172058105469, 10.502749749873995 ], [ -66.762285232543931, 10.501737035876008 ], [ -66.758508682250977, 10.501399463805971 ], [ -66.744604110717773, 10.503171713060445 ], [ -66.722209844646656, 10.503899614217165 ], [ -66.722209844646656, 10.486943750862801 ], [ -66.725378036499023, 10.48612394203351 ], [ -66.731729507446275, 10.485955147524951 ], [ -66.733531951904297, 10.486039544790737 ], [ -66.73893928527832, 10.487474294788436 ], [ -66.741754531860352, 10.487811882056688 ], [ -66.742458343505859, 10.487896278816219 ], [ -66.743273735046387, 10.487811882056688 ], [ -66.745719909667969, 10.487558691640018 ], [ -66.748809814453111, 10.486545927902229 ], [ -66.761341094970703, 10.479203291726677 ], [ -66.763572692871094, 10.478106101256394 ], [ -66.765975952148438, 10.477684103886965 ], [ -66.774559020996094, 10.477177706284909 ], [ -66.778764724731445, 10.476671307855176 ], [ -66.78339958190918, 10.475742908584456 ], [ -66.784515380859375, 10.476840107423715 ], [ -66.790866851806626, 10.472029283688368 ], [ -66.793184280395494, 10.470932067817833 ], [ -66.796875, 10.469864636886893 ], [ -66.796875, 10.469838033032635 ], [ -66.800737380981445, 10.468906428316444 ], [ -66.814041137695312, 10.46628995770905 ], [ -66.825284957885756, 10.466965178043601 ], [ -66.832494735717773, 10.472957694083901 ], [ -66.83833122253418, 10.472873293253762 ], [ -66.840047836303711, 10.472535689703379 ], [ -66.848630905151381, 10.469497241204728 ], [ -66.852493286132812, 10.468400016373364 ], [ -66.856441497802734, 10.467555994630432 ], [ -66.864423751831055, 10.46637436033126 ], [ -66.865711212158203, 10.465952346990528 ], [ -66.866998672485366, 10.465192721530272 ], [ -66.868200302124023, 10.464179884689573 ], [ -66.868972778320312, 10.463082641047205 ], [ -66.873435974121094, 10.455570638062753 ], [ -66.875925064086914, 10.452785242445026 ], [ -66.877126693725586, 10.451097111730249 ], [ -66.878671646118164, 10.449662193409129 ], [ -66.879529953002944, 10.449408971840903 ], [ -66.88176155090332, 10.449240157347424 ], [ -66.883392333984375, 10.449324564605631 ], [ -66.889743804931641, 10.452025584758818 ], [ -66.891803741455078, 10.452700836127207 ], [ -66.893863677978516, 10.452954055011849 ], [ -66.896953582763672, 10.452954055011849 ], [ -66.897897720336914, 10.452700836127207 ], [ -66.904077529907227, 10.449240157347424 ], [ -66.911458969116225, 10.442318684151365 ], [ -66.913175582885742, 10.441474591510046 ], [ -66.915063858032227, 10.440968134825265 ], [ -66.917810440063477, 10.441812228841576 ], [ -66.918411254882827, 10.442234274990362 ], [ -66.919012069702148, 10.445104173606426 ], [ -66.91523551940918, 10.451265925214605 ], [ -66.911458969116225, 10.452532023422741 ], [ -66.910343170166016, 10.453882522489101 ], [ -66.907081604003906, 10.453460492161742 ], [ -66.905794143676758, 10.454473363983823 ], [ -66.902875900268555, 10.460466121317893 ], [ -66.895580291748047, 10.471691679218754 ], [ -66.895580291748047, 10.47532090799641 ], [ -66.893606185913086, 10.478021701828492 ], [ -66.904420852661133, 10.470256856121173 ], [ -66.909399032592788, 10.465445930223723 ], [ -66.916093826293945, 10.461310162350889 ], [ -66.921072006225586, 10.453122867486909 ], [ -66.924076080322266, 10.449662193409129 ], [ -66.92570686340332, 10.448311675993644 ], [ -66.931800842285156, 10.446707928938395 ], [ -66.931114196777344, 10.448818120712406 ], [ -66.931114196777344, 10.450253042932308 ], [ -66.932315826416016, 10.450506263812512 ], [ -66.933088302612305, 10.450337449915311 ], [ -66.935577392578125, 10.449493379053244 ], [ -66.937551498413086, 10.446454704962514 ], [ -66.941156387329102, 10.445948256391743 ], [ -66.952571868896484, 10.443753636381828 ], [ -66.964845657348633, 10.438267018574935 ], [ -66.967849731445312, 10.437591735846604 ], [ -66.971712112426758, 10.437591735846604 ], [ -66.972656250000014, 10.437787212576634 ], [ -66.972656250000014, 10.437802761856707 ], [ -66.978836059570312, 10.438942299837056 ], [ -66.991109848022461, 10.437760556666138 ], [ -66.998491287231445, 10.437338504445494 ], [ -67.011537551879883, 10.433708831709627 ], [ -67.014799118041992, 10.432527068657862 ], [ -67.019948959350586, 10.430079116631747 ], [ -67.025699615478501, 10.427884384653973 ], [ -67.045011520385742, 10.421468925555962 ], [ -67.048273086547852, 10.419780624883469 ], [ -67.051191329956055, 10.417079324779611 ], [ -67.053852081298828, 10.418936471116522 ], [ -67.058143615722656, 10.416403996095006 ], [ -67.061834335327134, 10.413702666724751 ], [ -67.063722610473633, 10.411845489204698 ], [ -67.068958282470703, 10.405767376356224 ], [ -67.070589065551758, 10.404163410161043 ], [ -67.075847776518543, 10.400588450568337 ], [ -67.09264004009016, 10.400588450568337 ], [ -67.095050811767564, 10.402728275524263 ], [ -67.108955383300767, 10.416150747461026 ], [ -67.112474441528306, 10.41918971748674 ] ] ] ] } },
{ "type": "Feature", "properties": { "map_id": 2672461, "name": "Alluvium", "age": "Pleistocene to Holocene", "lith": "sand, gravel, and silt", "descrip": "", "t_int": "Holocene", "b_int": "Pleistocene", "color": "#d6e165", "ref_name": "Venezula" }, "geometry": { "type": "Polygon", "coordinates": [ [ [ -66.875324249267592, 10.423494874285204 ], [ -66.873435974121094, 10.421806584592538 ], [ -66.872062683105469, 10.415897498621273 ], [ -66.868629455566406, 10.41285849649609 ], [ -66.86854362487793, 10.412014323981813 ], [ -66.869058609008803, 10.411254566764896 ], [ -66.870260238647461, 10.410579225462531 ], [ -66.87129020690918, 10.410410389908421 ], [ -66.874809265136719, 10.410748060925235 ], [ -66.876354217529297, 10.411254566764896 ], [ -66.879444122314453, 10.413027330724677 ], [ -66.880731582641602, 10.414631251336166 ], [ -66.881675720214844, 10.417079324779611 ], [ -66.881246566772475, 10.418767640088701 ], [ -66.879444122314453, 10.421300095900426 ], [ -66.877126693725586, 10.423157217078737 ], [ -66.87626838684082, 10.423494874285204 ], [ -66.875324249267592, 10.423494874285204 ] ] ] } },
{ "type": "Feature", "properties": { "map_id": 2674672, "name": "Alluvium", "age": "Pleistocene to Holocene", "lith": "sand, gravel, and silt", "descrip": "", "t_int": "Holocene", "b_int": "Pleistocene", "color": "#d6e165", "ref_name": "Venezula" }, "geometry": { "type": "Polygon", "coordinates": [ [ [ -66.859016418457031, 10.445188581988118 ], [ -66.856184005737319, 10.444597722834875 ], [ -66.853780746459961, 10.445104173606426 ], [ -66.853179931640625, 10.44493535677427 ], [ -66.852750778198242, 10.444344497139642 ], [ -66.853094100952148, 10.4399552189809 ], [ -66.850862503051758, 10.43649439828615 ], [ -66.848030090332031, 10.436325576779407 ], [ -66.850519180297852, 10.434890590273003 ], [ -66.85206413269043, 10.43480617909591 ], [ -66.853780746459961, 10.435059412558488 ], [ -66.859445571899414, 10.437000862256637 ], [ -66.862106323242202, 10.437254093932641 ], [ -66.860561370849609, 10.444766539850418 ], [ -66.859016418457031, 10.445188581988118 ] ] ] } },
{ "type": "Feature", "properties": { "map_id": 2672712, "name": "Las Mercedes Schist, Chuspita Schist, undivided of the Caracas Metasedimentary Suite", "age": "Jurassic to Cretaceous", "lith": "calcareous schist", "descrip": "", "t_int": "Cretaceous", "b_int": "Jurassic", "color": "#00c47d", "ref_name": "Venezula" }, "geometry": { "type": "Polygon", "coordinates": [ [ [ -66.803913116455078, 10.485701955589546 ], [ -66.804428100585938, 10.48544876344706 ], [ -66.805629730224609, 10.485364366020212 ], [ -66.807088851928711, 10.48587075023616 ], [ -66.808805465698242, 10.487558691640018 ], [ -66.809203407981187, 10.487811882056688 ], [ -66.80937844353754, 10.487811882056688 ], [ -66.813011169433594, 10.490259378738925 ], [ -66.814041137695312, 10.492031691838152 ], [ -66.813869476318359, 10.492960042266896 ], [ -66.811809539794936, 10.496167049583773 ], [ -66.808290481567383, 10.498867661530126 ], [ -66.807775497436523, 10.499964778395475 ], [ -66.802711486816406, 10.495238708780125 ], [ -66.802955135222419, 10.487811882056688 ], [ -66.80296897888185, 10.487811882056688 ], [ -66.80296897888185, 10.487389897913841 ], [ -66.803913116455078, 10.485701955589546 ] ] ] } },
{ "type": "Feature", "properties": { "map_id": 2672328, "name": "Alluvium", "age": "Pleistocene to Holocene", "lith": "sand, gravel, and silt", "descrip": "", "t_int": "Holocene", "b_int": "Pleistocene", "color": "#d6e165", "ref_name": "Venezula" }, "geometry": { "type": "Polygon", "coordinates": [ [ [ -66.983213424682617, 10.46443309420977 ], [ -66.983728408813477, 10.465445930223723 ], [ -66.982612609863267, 10.466880775582176 ], [ -66.97265625, 10.474223703778046 ], [ -66.97265625, 10.474208358236966 ], [ -66.968622207641602, 10.477093306604099 ], [ -66.96690559387207, 10.481566458001305 ], [ -66.964759826660156, 10.481904051711467 ], [ -66.962871551513672, 10.482494839818704 ], [ -66.960639953613281, 10.48426719737753 ], [ -66.959009170532227, 10.485026776082748 ], [ -66.957206726074233, 10.485364366020212 ], [ -66.952915191650391, 10.485364366020212 ], [ -66.950627919789909, 10.487811882056688 ], [ -66.950511932373047, 10.487811882056688 ], [ -66.947507858276367, 10.490765754946038 ], [ -66.947593688964858, 10.492538065144634 ], [ -66.946821212768555, 10.495576287576595 ], [ -66.943130493164062, 10.499120842690768 ], [ -66.941070556640625, 10.501821428835914 ], [ -66.933431625366211, 10.505619088179692 ], [ -66.928882598876967, 10.50637861444765 ], [ -66.924591064453125, 10.509332309960509 ], [ -66.924161911010742, 10.511188904111425 ], [ -66.927595138549805, 10.515661562362236 ], [ -66.928882598876967, 10.51650545287862 ], [ -66.930599212646484, 10.517096174867227 ], [ -66.933345794677734, 10.517096174867227 ], [ -66.941242218017578, 10.515999118845661 ], [ -66.942701339721694, 10.515408394757417 ], [ -66.947422027587891, 10.512707927387089 ], [ -66.952829360961928, 10.510682561358996 ], [ -66.954631805419922, 10.510682561358996 ], [ -66.956262588500977, 10.511104513710341 ], [ -66.957550048828125, 10.513214266818309 ], [ -66.9561767578125, 10.515661562362236 ], [ -66.952486038208008, 10.518446392309626 ], [ -66.94828033447267, 10.523003332556941 ], [ -66.946907043457045, 10.523256493930324 ], [ -66.93780899047853, 10.523678429090877 ], [ -66.935749053955092, 10.524015976803728 ], [ -66.926994323730469, 10.528825991565826 ], [ -66.900987625122085, 10.525281777436609 ], [ -66.892747879028335, 10.519543439631494 ], [ -66.884937286376953, 10.517433729781647 ], [ -66.881589889526367, 10.51675861958361 ], [ -66.878070831298828, 10.516336674959929 ], [ -66.865367889404297, 10.515408394757417 ], [ -66.852321624755859, 10.515155226944955 ], [ -66.84356689453125, 10.514564501241745 ], [ -66.823825836181641, 10.512539147392154 ], [ -66.816015243530273, 10.506969355809584 ], [ -66.813011169433594, 10.504437599162868 ], [ -66.796875, 10.504519805058601 ], [ -66.796875, 10.504554449926275 ], [ -66.796445846557617, 10.504521991385316 ], [ -66.796875, 10.503818722160664 ], [ -66.796875, 10.503818722160675 ], [ -66.797475814819336, 10.502834142557374 ], [ -66.796875, 10.499516843577542 ], [ -66.796360015869141, 10.496673416120297 ], [ -66.796875, 10.494539437243887 ], [ -66.796875, 10.494528799226572 ], [ -66.797819137573242, 10.490596962969075 ], [ -66.796875, 10.489668605449953 ], [ -66.797567367553725, 10.487811882056688 ], [ -66.79753303527832, 10.487811882056688 ], [ -66.797819137573242, 10.486967913195679 ], [ -66.797904968261719, 10.482410441586676 ], [ -66.798505783081055, 10.481482059516264 ], [ -66.799707412719727, 10.480722472115902 ], [ -66.801424026489258, 10.480216079480723 ], [ -66.810178756713867, 10.47962528702663 ], [ -66.816530227661133, 10.480047281751681 ], [ -66.819362640380874, 10.480553674662834 ], [ -66.83017730712892, 10.486377133623773 ], [ -66.833854293823251, 10.487811882056688 ], [ -66.833868026733413, 10.487811882056688 ], [ -66.836872100830078, 10.488993434595814 ], [ -66.839017868041992, 10.489331020207018 ], [ -66.842536926269531, 10.489331020207018 ], [ -66.844081878662124, 10.489077831033137 ], [ -66.845873127812922, 10.487811882056688 ], [ -66.845855712890625, 10.487811882056688 ], [ -66.847000122070312, 10.486967913195679 ], [ -66.847686767578125, 10.487558691640018 ], [ -66.853952407836914, 10.479287690832658 ], [ -66.856012344360352, 10.473632899897654 ], [ -66.856784820556641, 10.473126495675237 ], [ -66.857471466064453, 10.473126495675237 ], [ -66.858072280883789, 10.473632899897654 ], [ -66.858501434326172, 10.477430905189397 ], [ -66.860904693603516, 10.481228863923135 ], [ -66.860067844390869, 10.487811882056688 ], [ -66.860080718994141, 10.487811882056688 ], [ -66.86004638671875, 10.487980675552734 ], [ -66.860389709472656, 10.488993434595814 ], [ -66.863307952880859, 10.491440921933084 ], [ -66.870603561401367, 10.4922004830324 ], [ -66.874809265136719, 10.494479155140883 ], [ -66.877298355102553, 10.495238708780125 ], [ -66.884078979492188, 10.488909038135475 ], [ -66.885088511875708, 10.487811882056688 ], [ -66.885105603701106, 10.487811882056688 ], [ -66.8902587890625, 10.481988450081504 ], [ -66.892919540405273, 10.483929606243715 ], [ -66.89600944519043, 10.485026776082748 ], [ -66.905708312988281, 10.484857980975971 ], [ -66.907768249511719, 10.485026776082748 ], [ -66.909313201904297, 10.48587075023616 ], [ -66.909828186035156, 10.48722110409561 ], [ -66.909387588500977, 10.487811882056688 ], [ -66.909341812133789, 10.487811882056688 ], [ -66.908369064331055, 10.48916222744745 ], [ -66.904506683349624, 10.491272130324443 ], [ -66.894292831420898, 10.493803994784589 ], [ -66.891717910766616, 10.494816734766381 ], [ -66.885709762573242, 10.499711597925961 ], [ -66.885194778442383, 10.5012306776327 ], [ -66.886224746704102, 10.502243393289787 ], [ -66.888799667358413, 10.502580964438101 ], [ -66.892404556274428, 10.502243393289787 ], [ -66.898326873779311, 10.499205236364908 ], [ -66.907596588134766, 10.496167049583773 ], [ -66.910943984985352, 10.495998260554018 ], [ -66.924591064453125, 10.49717978182767 ], [ -66.934547424316406, 10.488318262268663 ], [ -66.934841700962608, 10.487811882056688 ], [ -66.934758699857269, 10.487811882056688 ], [ -66.936864852905273, 10.484098401856635 ], [ -66.941328048706069, 10.480047281751681 ], [ -66.942358016967788, 10.474054902784285 ], [ -66.943216323852539, 10.472957694083901 ], [ -66.944074630737305, 10.472873293253762 ], [ -66.944847106933594, 10.473126495675237 ], [ -66.948795318603516, 10.4769245071735 ], [ -66.949825286865234, 10.477430905189397 ], [ -66.951026916503906, 10.477599704344101 ], [ -66.953945159912109, 10.477177706284909 ], [ -66.962356567382812, 10.475236507809838 ], [ -66.96415901184082, 10.475911708658758 ], [ -66.96742057800293, 10.47413930329266 ], [ -66.968708038330092, 10.472957694083901 ], [ -66.97265625, 10.470728879267503 ], [ -66.97265625, 10.470688241541456 ], [ -66.973514556884766, 10.470172454555694 ], [ -66.980552673339844, 10.465023915619806 ], [ -66.981754302978516, 10.46443309420977 ], [ -66.983213424682617, 10.46443309420977 ] ], [ [ -66.804428100585938, 10.48544876344706 ], [ -66.803913116455078, 10.485701955589546 ], [ -66.80296897888185, 10.487389897913841 ], [ -66.80296897888185, 10.487811882056688 ], [ -66.802955135222419, 10.487811882056688 ], [ -66.802711486816406, 10.495238708780125 ], [ -66.807775497436523, 10.499964778395475 ], [ -66.808290481567383, 10.498867661530126 ], [ -66.811809539794936, 10.496167049583773 ], [ -66.813869476318359, 10.492960042266896 ], [ -66.814041137695312, 10.492031691838152 ], [ -66.813011169433594, 10.490259378738925 ], [ -66.80937844353754, 10.487811882056688 ], [ -66.809203407981187, 10.487811882056688 ], [ -66.808805465698242, 10.487558691640018 ], [ -66.807088851928711, 10.48587075023616 ], [ -66.805629730224609, 10.485364366020212 ], [ -66.804428100585938, 10.48544876344706 ] ] ] } },
{ "type": "Feature", "properties": { "map_id": 2673689, "name": "Sebastopol Gneiss", "age": "Silurian", "lith": "orthogneiss", "descrip": "", "t_int": "Silurian", "b_int": "Silurian", "color": "#B3E1B6", "ref_name": "Venezula" }, "geometry": { "type": "Polygon", "coordinates": [ [ [ -67.050848007202148, 10.403234794384961 ], [ -67.049903869628906, 10.407118078335582 ], [ -67.048101425170898, 10.410748060925235 ], [ -67.045612335205078, 10.413533832861877 ], [ -67.042779922485352, 10.411761071781859 ], [ -67.033252716064439, 10.406780403388973 ], [ -67.018607552082727, 10.400588450568337 ], [ -67.050813513035138, 10.400588450568337 ], [ -67.050848007202148, 10.403234794384961 ] ] ] } },
{ "type": "Feature", "properties": { "map_id": 2672076, "name": "Unmapped", "age": "", "lith": "", "descrip": "", "t_int": "", "b_int": null, "color": "#777777", "ref_name": "Venezula" }, "geometry": { "type": "Polygon", "coordinates": [ [ [ -66.924419403076172, 10.4140403341762 ], [ -66.922960281372085, 10.413618249804744 ], [ -66.921329498291016, 10.412520827764645 ], [ -66.920642852783203, 10.411170149182086 ], [ -66.92072868347168, 10.408975284008182 ], [ -66.921157836914062, 10.408046682554071 ], [ -66.922016143798828, 10.407033659633196 ], [ -66.925020217895508, 10.404585507327575 ], [ -66.926565170288086, 10.401124293708929 ], [ -66.927165985107422, 10.400786612276457 ], [ -66.928024291992188, 10.400871032668823 ], [ -66.928539276123061, 10.401293134288174 ], [ -66.929225921630874, 10.402812695391468 ], [ -66.929655075073242, 10.404669926692364 ], [ -66.929655075073242, 10.406020633422781 ], [ -66.929054260253906, 10.410832478622309 ], [ -66.928625106811523, 10.411761071781859 ], [ -66.927509307861328, 10.412942913621812 ], [ -66.926393508911133, 10.413618249804744 ], [ -66.924419403076172, 10.4140403341762 ] ] ] } },
{ "type": "Feature", "properties": { "map_id": 2673167, "name": "Las Brisas Schist of the Caracas Metasedimentary Suite", "age": "Jurassic to Cretaceous", "lith": "schist and gneiss", "descrip": "", "t_int": "Cretaceous", "b_int": "Jurassic", "color": "#6fb992", "ref_name": "Venezula" }, "geometry": { "type": "MultiPolygon", "coordinates": [ [ [ [ -67.119352092475538, 10.400588450568337 ], [ -67.119352092475538, 10.50847421558662 ], [ -67.116765975952148, 10.509501091708152 ], [ -67.112302780151367, 10.510851342368721 ], [ -67.108612060546861, 10.511695246033607 ], [ -67.104921340942369, 10.512117197001185 ], [ -67.097454071044922, 10.512032806853798 ], [ -67.084579467773438, 10.511020123286196 ], [ -67.076425552368164, 10.510766951875389 ], [ -67.074365615844727, 10.510935732838989 ], [ -67.072734832763672, 10.511526465485131 ], [ -67.067842483520508, 10.514480111763294 ], [ -67.066469192504883, 10.515661562362236 ], [ -67.06080436706543, 10.521653135056438 ], [ -67.054967880249023, 10.527391433611859 ], [ -67.027931213378906, 10.508825964164179 ], [ -67.024154663085938, 10.511104513710341 ], [ -67.018747329711914, 10.513467436222525 ], [ -67.014884948730455, 10.51186402648983 ], [ -67.010593414306641, 10.511526465485131 ], [ -67.006387710571289, 10.512539147392154 ], [ -67.002782821655273, 10.514733280129439 ], [ -66.999950408935547, 10.518277615452398 ], [ -66.996946334838867, 10.520809258617623 ], [ -66.994113922119126, 10.52435352414715 ], [ -66.992826461791992, 10.526210027931956 ], [ -66.991796493530273, 10.528235292040264 ], [ -66.988964080810547, 10.529838616690581 ], [ -66.987762451171875, 10.530851238488733 ], [ -66.987247467041016, 10.5319482416824 ], [ -66.978921890258803, 10.530429313143795 ], [ -66.97514533996582, 10.529923001967489 ], [ -66.972656250000014, 10.529790722333953 ], [ -66.972656250000014, 10.529823614861156 ], [ -66.965618133544922, 10.52966984606746 ], [ -66.963729858398438, 10.530007387221294 ], [ -66.958236694335938, 10.531863856959978 ], [ -66.956520080566406, 10.532032626381714 ], [ -66.937894821166992, 10.531104393418453 ], [ -66.93480491638185, 10.530682468420068 ], [ -66.926994323730469, 10.528825991565826 ], [ -66.935749053955092, 10.524015976803728 ], [ -66.93780899047853, 10.523678429090877 ], [ -66.946907043457045, 10.523256493930324 ], [ -66.94828033447267, 10.523003332556941 ], [ -66.952486038208008, 10.518446392309626 ], [ -66.9561767578125, 10.515661562362236 ], [ -66.957550048828125, 10.513214266818309 ], [ -66.956262588500977, 10.511104513710341 ], [ -66.954631805419922, 10.510682561358996 ], [ -66.952829360961928, 10.510682561358996 ], [ -66.947422027587891, 10.512707927387089 ], [ -66.942701339721694, 10.515408394757417 ], [ -66.941242218017578, 10.515999118845661 ], [ -66.933345794677734, 10.517096174867227 ], [ -66.930599212646484, 10.517096174867227 ], [ -66.928882598876967, 10.51650545287862 ], [ -66.927595138549805, 10.515661562362236 ], [ -66.924161911010742, 10.511188904111425 ], [ -66.924591064453125, 10.509332309960509 ], [ -66.928882598876967, 10.50637861444765 ], [ -66.933431625366211, 10.505619088179692 ], [ -66.941070556640625, 10.501821428835914 ], [ -66.943130493164062, 10.499120842690768 ], [ -66.946821212768555, 10.495576287576595 ], [ -66.947593688964858, 10.492538065144634 ], [ -66.947507858276367, 10.490765754946038 ], [ -66.950511932373047, 10.487811882056688 ], [ -66.950569152832031, 10.487811882056688 ], [ -66.950855255126953, 10.487474294788436 ], [ -66.951456069946289, 10.487811882056688 ], [ -66.952657699584961, 10.488487055488541 ], [ -66.954288482666016, 10.488909038135475 ], [ -66.959266662597656, 10.488233865624201 ], [ -66.960697174072266, 10.487811882056688 ], [ -66.960983276367188, 10.487727485274146 ], [ -66.965789794921875, 10.484773583388071 ], [ -66.966476440429673, 10.484520390486329 ], [ -66.97265625, 10.483381019866219 ], [ -66.97265625, 10.483360837740147 ], [ -66.973943710327148, 10.483085626798836 ], [ -66.975317001342773, 10.482494839818704 ], [ -66.986818313598633, 10.473548499251377 ], [ -66.988363265991211, 10.472535689703379 ], [ -66.996603012084961, 10.468231212208552 ], [ -67.001581192016602, 10.466121152395726 ], [ -67.00535774230957, 10.464939512630124 ], [ -67.00724601745604, 10.464770706581866 ], [ -67.018918991088867, 10.465530333075607 ], [ -67.021150588989244, 10.465361527348872 ], [ -67.023296356201172, 10.464686303523289 ], [ -67.025270462036133, 10.463589061672051 ], [ -67.027158737182617, 10.462069797317699 ], [ -67.029476165771484, 10.463167044542082 ], [ -67.032136917114258, 10.459368864543091 ], [ -67.039861679077134, 10.452278804194005 ], [ -67.049388885498047, 10.447552007367694 ], [ -67.056427001953125, 10.445272990346885 ], [ -67.063379287719727, 10.442656320566197 ], [ -67.068958282470703, 10.439448759821394 ], [ -67.074623107910156, 10.435143823666873 ], [ -67.079601287841797, 10.439870809178267 ], [ -67.083635330200181, 10.437169683396878 ], [ -67.087841033935533, 10.43472176789591 ], [ -67.090072631835938, 10.433877654636348 ], [ -67.096767425537109, 10.431936185448983 ], [ -67.102689743041978, 10.42957264139492 ], [ -67.104578018188477, 10.428306449697557 ], [ -67.108097076416016, 10.425098741016757 ], [ -67.109642028808594, 10.423326045727727 ], [ -67.112474441528306, 10.41918971748674 ], [ -67.108955383300767, 10.416150747461026 ], [ -67.095050811767564, 10.402728275524263 ], [ -67.09264004009016, 10.400588450568337 ], [ -67.119352092475538, 10.400588450568337 ] ] ], [ [ [ -67.075847776518543, 10.400588450568337 ], [ -67.070589065551758, 10.404163410161043 ], [ -67.068958282470703, 10.405767376356224 ], [ -67.063722610473633, 10.411845489204698 ], [ -67.061834335327134, 10.413702666724751 ], [ -67.058143615722656, 10.416403996095006 ], [ -67.053852081298828, 10.418936471116522 ], [ -67.051191329956055, 10.417079324779611 ], [ -67.048273086547852, 10.419780624883469 ], [ -67.045011520385742, 10.421468925555962 ], [ -67.025699615478501, 10.427884384653973 ], [ -67.019948959350586, 10.430079116631747 ], [ -67.014799118041992, 10.432527068657862 ], [ -67.011537551879883, 10.433708831709627 ], [ -66.998491287231445, 10.437338504445494 ], [ -66.991109848022461, 10.437760556666138 ], [ -66.978836059570312, 10.438942299837056 ], [ -66.97265625, 10.437802761856707 ], [ -66.97265625, 10.437787212576634 ], [ -66.971712112426758, 10.437591735846604 ], [ -66.969738006591797, 10.437507325402475 ], [ -66.966304779052734, 10.437844967041542 ], [ -66.964845657348633, 10.438267018574935 ], [ -66.952571868896484, 10.443753636381828 ], [ -66.949996948242188, 10.444344497139642 ], [ -66.937036514282227, 10.446539112977401 ], [ -66.932144165039062, 10.445863848216373 ], [ -66.937036514282227, 10.439870809178267 ], [ -66.937465667724624, 10.438267018574935 ], [ -66.936779022216811, 10.437591735846604 ], [ -66.935148239135756, 10.437338504445494 ], [ -66.925449371337891, 10.4399552189809 ], [ -66.923990249633803, 10.440039628760625 ], [ -66.922788619995117, 10.439701989504254 ], [ -66.921844482421875, 10.438857889759477 ], [ -66.921329498291016, 10.43649439828615 ], [ -66.923818588256836, 10.430416766331788 ], [ -66.923818588256836, 10.429994704149507 ], [ -66.923303604125991, 10.429657053991622 ], [ -66.922273635864272, 10.429825879116347 ], [ -66.919956207275391, 10.430670003366442 ], [ -66.917552947998047, 10.432105009337432 ], [ -66.916694641113295, 10.433793243184438 ], [ -66.916608810424805, 10.438013787723627 ], [ -66.915063858032227, 10.440968134825265 ], [ -66.913175582885742, 10.441474591510046 ], [ -66.911458969116225, 10.442318684151365 ], [ -66.905622482299805, 10.447889638097415 ], [ -66.904077529907227, 10.449240157347424 ], [ -66.902360916137695, 10.450337449915311 ], [ -66.897897720336914, 10.452700836127207 ], [ -66.896953582763672, 10.452954055011849 ], [ -66.893863677978516, 10.452954055011849 ], [ -66.891803741455078, 10.452700836127207 ], [ -66.889743804931641, 10.452025584758818 ], [ -66.883392333984375, 10.449324564605631 ], [ -66.88176155090332, 10.449240157347424 ], [ -66.879529953002944, 10.449408971840903 ], [ -66.878671646118164, 10.449662193409129 ], [ -66.877126693725586, 10.451097111730249 ], [ -66.875925064086914, 10.452785242445026 ], [ -66.873435974121094, 10.455570638062753 ], [ -66.868200302124023, 10.464179884689573 ], [ -66.866998672485366, 10.465192721530272 ], [ -66.865711212158203, 10.465952346990528 ], [ -66.864423751831055, 10.46637436033126 ], [ -66.856441497802734, 10.467555994630432 ], [ -66.852493286132812, 10.468400016373364 ], [ -66.848630905151381, 10.469497241204728 ], [ -66.840047836303711, 10.472535689703379 ], [ -66.83833122253418, 10.472873293253762 ], [ -66.832494735717773, 10.472957694083901 ], [ -66.825284957885756, 10.466965178043601 ], [ -66.814041137695312, 10.46628995770905 ], [ -66.800737380981445, 10.468906428316444 ], [ -66.796875, 10.469838033032635 ], [ -66.796875, 10.469864636886893 ], [ -66.793184280395494, 10.470932067817833 ], [ -66.790866851806626, 10.472029283688368 ], [ -66.784515380859375, 10.476840107423715 ], [ -66.78339958190918, 10.475742908584456 ], [ -66.778764724731445, 10.476671307855176 ], [ -66.774559020996094, 10.477177706284909 ], [ -66.765975952148438, 10.477684103886965 ], [ -66.763572692871094, 10.478106101256394 ], [ -66.761341094970703, 10.479203291726677 ], [ -66.748809814453111, 10.486545927902229 ], [ -66.745719909667969, 10.487558691640018 ], [ -66.743273735046387, 10.487811882056688 ], [ -66.742458343505859, 10.487896278816219 ], [ -66.741754531860352, 10.487811882056688 ], [ -66.73893928527832, 10.487474294788436 ], [ -66.733531951904297, 10.486039544790737 ], [ -66.731729507446275, 10.485955147524951 ], [ -66.725378036499023, 10.48612394203351 ], [ -66.722209844646656, 10.486943750862801 ], [ -66.722209844646656, 10.426633819573748 ], [ -66.728382110595703, 10.423157217078737 ], [ -66.736364364624023, 10.417839067800609 ], [ -66.739196777343764, 10.416488412260607 ], [ -66.742286682128906, 10.415306583861673 ], [ -66.745376586914062, 10.414546834667608 ], [ -66.764345169067383, 10.411592236867619 ], [ -66.796875, 10.404234305073869 ], [ -66.796875, 10.404177480075791 ], [ -66.804428100585938, 10.401546394985804 ], [ -66.806904224200281, 10.400588450568337 ], [ -66.821222347165318, 10.400588450568337 ], [ -66.821250915527344, 10.400617771423233 ], [ -66.822624206542969, 10.40163081517268 ], [ -66.831121444702148, 10.406189471352944 ], [ -66.834554672241211, 10.407540171504845 ], [ -66.83807373046875, 10.408215519387713 ], [ -66.845455169677734, 10.40872202934032 ], [ -66.855562242188455, 10.400588450568337 ], [ -67.018607552082727, 10.400588450568337 ], [ -67.033252716064439, 10.406780403388973 ], [ -67.042779922485352, 10.411761071781859 ], [ -67.045612335205078, 10.413533832861877 ], [ -67.048101425170898, 10.410748060925235 ], [ -67.049903869628906, 10.407118078335582 ], [ -67.050848007202148, 10.403234794384961 ], [ -67.050813513035138, 10.400588450568337 ], [ -67.075847776518543, 10.400588450568337 ] ], [ [ -66.880731582641602, 10.414631251336166 ], [ -66.879444122314453, 10.413027330724677 ], [ -66.876354217529297, 10.411254566764896 ], [ -66.874809265136719, 10.410748060925235 ], [ -66.87129020690918, 10.410410389908421 ], [ -66.870260238647461, 10.410579225462531 ], [ -66.869058609008803, 10.411254566764896 ], [ -66.86854362487793, 10.412014323981813 ], [ -66.868629455566406, 10.41285849649609 ], [ -66.872062683105469, 10.415897498621273 ], [ -66.873435974121094, 10.421806584592538 ], [ -66.875324249267592, 10.423494874285204 ], [ -66.87626838684082, 10.423494874285204 ], [ -66.877126693725586, 10.423157217078737 ], [ -66.879444122314453, 10.421300095900426 ], [ -66.881246566772475, 10.418767640088701 ], [ -66.881675720214844, 10.417079324779611 ], [ -66.880731582641602, 10.414631251336166 ] ], [ [ -66.853780746459961, 10.435059412558488 ], [ -66.85206413269043, 10.43480617909591 ], [ -66.850519180297852, 10.434890590273003 ], [ -66.848030090332031, 10.436325576779407 ], [ -66.850862503051758, 10.43649439828615 ], [ -66.853094100952148, 10.4399552189809 ], [ -66.852750778198242, 10.444344497139642 ], [ -66.853179931640625, 10.44493535677427 ], [ -66.853780746459961, 10.445104173606426 ], [ -66.856184005737319, 10.444597722834875 ], [ -66.859016418457031, 10.445188581988118 ], [ -66.860561370849609, 10.444766539850418 ], [ -66.862106323242202, 10.437254093932641 ], [ -66.859445571899414, 10.437000862256637 ], [ -66.853780746459961, 10.435059412558488 ] ], [ [ -66.929054260253906, 10.410832478622309 ], [ -66.929655075073242, 10.406020633422781 ], [ -66.929655075073242, 10.404669926692364 ], [ -66.929483413696289, 10.403488053507026 ], [ -66.928539276123061, 10.401293134288174 ], [ -66.928024291992188, 10.400871032668823 ], [ -66.927595138549805, 10.400786612276457 ], [ -66.927165985107422, 10.400786612276457 ], [ -66.926565170288086, 10.401124293708929 ], [ -66.925020217895508, 10.404585507327575 ], [ -66.922016143798828, 10.407033659633196 ], [ -66.921157836914062, 10.408046682554071 ], [ -66.92072868347168, 10.408975284008182 ], [ -66.920557022094727, 10.410663643205309 ], [ -66.920814514160156, 10.411676654336166 ], [ -66.921329498291016, 10.412520827764645 ], [ -66.922960281372085, 10.413618249804744 ], [ -66.924419403076172, 10.4140403341762 ], [ -66.925363540649414, 10.413955917347623 ], [ -66.926393508911133, 10.413618249804744 ], [ -66.927509307861328, 10.412942913621812 ], [ -66.928625106811523, 10.411761071781859 ], [ -66.929054260253906, 10.410832478622309 ] ] ] ] } },
{ "type": "Feature", "properties": { "map_id": 2671862, "name": "Ultramafic rocks", "age": "Mesozoic", "lith": "ultramafic rocks", "descrip": "", "t_int": "Mesozoic", "b_int": "Mesozoic", "color": "#76cdd2", "ref_name": "Venezula" }, "geometry": { "type": "Polygon", "coordinates": [ [ [ -66.932315826416016, 10.450506263812512 ], [ -66.931114196777344, 10.450253042932308 ], [ -66.931114196777344, 10.448818120712406 ], [ -66.932144165039062, 10.445863848216373 ], [ -66.935405731201172, 10.446370296924702 ], [ -66.937551498413086, 10.446454704962514 ], [ -66.935577392578125, 10.449493379053244 ], [ -66.932315826416016, 10.450506263812512 ] ] ] } },
{ "type": "Feature", "properties": { "map_id": 2672344, "name": "Alluvium", "age": "Pleistocene to Holocene", "lith": "sand, gravel, and silt", "descrip": "", "t_int": "Holocene", "b_int": "Pleistocene", "color": "#d6e165", "ref_name": "Venezula" }, "geometry": { "type": "Polygon", "coordinates": [ [ [ -66.893606185913086, 10.478021701828492 ], [ -66.895580291748047, 10.47532090799641 ], [ -66.895580291748047, 10.471691679218754 ], [ -66.902875900268555, 10.460466121317893 ], [ -66.905794143676758, 10.454473363983823 ], [ -66.907081604003906, 10.453460492161742 ], [ -66.910343170166016, 10.453882522489101 ], [ -66.911458969116225, 10.452532023422741 ], [ -66.91523551940918, 10.451265925214605 ], [ -66.919012069702148, 10.445104173606426 ], [ -66.918411254882827, 10.442234274990362 ], [ -66.917810440063477, 10.441812228841576 ], [ -66.915063858032227, 10.440968134825265 ], [ -66.916608810424805, 10.438013787723627 ], [ -66.916694641113295, 10.433793243184438 ], [ -66.917552947998047, 10.432105009337432 ], [ -66.919956207275391, 10.430670003366442 ], [ -66.922273635864272, 10.429825879116347 ], [ -66.923303604125991, 10.429657053991622 ], [ -66.923818588256836, 10.429994704149507 ], [ -66.923818588256836, 10.430416766331788 ], [ -66.921329498291016, 10.43649439828615 ], [ -66.921844482421875, 10.438857889759477 ], [ -66.922788619995117, 10.439701989504254 ], [ -66.923990249633803, 10.440039628760625 ], [ -66.925449371337891, 10.4399552189809 ], [ -66.935148239135756, 10.437338504445494 ], [ -66.936779022216811, 10.437591735846604 ], [ -66.937465667724624, 10.438267018574935 ], [ -66.937036514282227, 10.439870809178267 ], [ -66.932144165039062, 10.445863848216373 ], [ -66.931800842285156, 10.446707928938395 ], [ -66.92570686340332, 10.448311675993644 ], [ -66.924076080322266, 10.449662193409129 ], [ -66.921072006225586, 10.453122867486909 ], [ -66.916093826293945, 10.461310162350889 ], [ -66.909399032592788, 10.465445930223723 ], [ -66.904420852661133, 10.470256856121173 ], [ -66.893606185913086, 10.478021701828492 ] ] ] } },
{ "type": "Feature", "properties": { "map_id": 2674648, "name": "Tacagua Schist, Antímano Marble, undivided of the La Costa Metamorphic Suite", "age": "Cretaceous", "lith": "schist and marble", "descrip": "", "t_int": "Cretaceous", "b_int": "Cretaceous", "color": "#6cbf43", "ref_name": "Venezula" }, "geometry": { "type": "Polygon", "coordinates": [ [ [ -66.978235244750977, 10.477177706284909 ], [ -66.981067657470703, 10.474983307112204 ], [ -66.983814239501953, 10.472366887790299 ], [ -66.986818313598633, 10.470088052967238 ], [ -66.99986457824707, 10.462913833988559 ], [ -67.003297805786119, 10.461732182006482 ], [ -67.005186080932617, 10.461394566327924 ], [ -67.009820938110352, 10.461732182006482 ], [ -67.013339996337891, 10.461732182006482 ], [ -67.016773223876953, 10.461478970282 ], [ -67.023811340332031, 10.460466121317893 ], [ -67.024755477905273, 10.460972546213174 ], [ -67.031450271606445, 10.455064204354313 ], [ -67.035140991210938, 10.452954055011849 ], [ -67.039346694946289, 10.452700836127207 ], [ -67.032136917114258, 10.459368864543091 ], [ -67.029476165771484, 10.463167044542082 ], [ -67.027158737182617, 10.462069797317699 ], [ -67.025270462036133, 10.463589061672051 ], [ -67.023296356201172, 10.464686303523289 ], [ -67.021150588989244, 10.465361527348872 ], [ -67.018918991088867, 10.465530333075607 ], [ -67.00724601745604, 10.464770706581866 ], [ -67.00535774230957, 10.464939512630124 ], [ -67.003469467163086, 10.465445930223723 ], [ -66.996603012084961, 10.468231212208552 ], [ -66.988363265991211, 10.472535689703379 ], [ -66.979351043701172, 10.479203291726677 ], [ -66.975317001342773, 10.482494839818704 ], [ -66.973943710327148, 10.483085626798836 ], [ -66.972656250000014, 10.483360837740147 ], [ -66.972656250000014, 10.483381019866217 ], [ -66.966476440429673, 10.484520390486329 ], [ -66.965789794921875, 10.484773583388071 ], [ -66.960983276367188, 10.487727485274146 ], [ -66.960697174072266, 10.487811882056688 ], [ -66.959266662597656, 10.488233865624201 ], [ -66.954288482666016, 10.488909038135475 ], [ -66.952657699584961, 10.488487055488541 ], [ -66.951456069946289, 10.487811882056688 ], [ -66.950855255126953, 10.487474294788436 ], [ -66.952915191650391, 10.485364366020212 ], [ -66.957206726074233, 10.485364366020212 ], [ -66.959009170532227, 10.485026776082748 ], [ -66.960639953613281, 10.48426719737753 ], [ -66.962871551513672, 10.482494839818704 ], [ -66.963729858398438, 10.482157246752577 ], [ -66.971454620361328, 10.480722472115902 ], [ -66.972656250000014, 10.480239097345736 ], [ -66.972656250000014, 10.48024501622503 ], [ -66.974973678588867, 10.479203291726677 ], [ -66.978235244750977, 10.477177706284909 ] ] ] } },
{ "type": "Feature", "properties": { "map_id": 2670889, "name": "Tacagua Schist, Antímano Marble, undivided of the La Costa Metamorphic Suite", "age": "Cretaceous", "lith": "schist and marble", "descrip": "", "t_int": "Cretaceous", "b_int": "Cretaceous", "color": "#6cbf43", "ref_name": "Venezula" }, "geometry": { "type": "Polygon", "coordinates": [ [ [ -67.018661499023438, 10.513467436222525 ], [ -67.012052536010742, 10.517518118452566 ], [ -66.999006271362305, 10.524859844469582 ], [ -66.995401382446289, 10.526716345206195 ], [ -66.991796493530273, 10.528235292040264 ], [ -66.992826461791992, 10.526210027931956 ], [ -66.996946334838867, 10.520809258617623 ], [ -66.999950408935547, 10.518277615452398 ], [ -67.002782821655273, 10.514733280129439 ], [ -67.006387710571289, 10.512539147392154 ], [ -67.010593414306641, 10.511526465485131 ], [ -67.014884948730455, 10.51186402648983 ], [ -67.018661499023438, 10.513467436222525 ] ] ] } },
{ "type": "Feature", "properties": { "map_id": 2674096, "name": "Las Mercedes Schist, Chuspita Schist, undivided of the Caracas Metasedimentary Suite", "age": "Jurassic to Cretaceous", "lith": "calcareous schist", "descrip": "", "t_int": "Cretaceous", "b_int": "Jurassic", "color": "#00c47d", "ref_name": "Venezula" }, "geometry": { "type": "Polygon", "coordinates": [ [ [ -66.999263763427734, 10.54663083144249 ], [ -66.997289657592773, 10.545702642477176 ], [ -66.995830535888672, 10.544015019005032 ], [ -66.99153900146483, 10.537855114823834 ], [ -66.990165710449205, 10.535154844011384 ], [ -66.987161636352539, 10.532117011057924 ], [ -66.987762451171875, 10.530851238488733 ], [ -66.988964080810547, 10.529838616690581 ], [ -66.99162483215332, 10.52831967775607 ], [ -66.995401382446289, 10.526716345206195 ], [ -66.999006271362305, 10.524859844469582 ], [ -67.009134292602539, 10.519205887024802 ], [ -67.018747329711914, 10.513467436222525 ], [ -67.024154663085938, 10.511104513710341 ], [ -67.027931213378906, 10.508825964164179 ], [ -67.039604187011719, 10.516927397271568 ], [ -67.035999298095703, 10.519880991868908 ], [ -67.032394409179688, 10.522497009186827 ], [ -67.028617858886719, 10.524944231109171 ], [ -67.024755477905273, 10.527138275632954 ], [ -67.016429901123047, 10.531357548140235 ], [ -67.011795043945312, 10.532960856549151 ], [ -67.009477615356445, 10.533973468088359 ], [ -67.007417678833008, 10.535576762886071 ], [ -67.01085090637207, 10.537095666050314 ], [ -67.008962631225572, 10.538952093079649 ], [ -67.005701065063477, 10.541652330600257 ], [ -67.001152038574219, 10.546040166061188 ], [ -66.999263763427734, 10.54663083144249 ] ] ] } },
{ "type": "Feature", "properties": { "map_id": 2674758, "name": "Nirgua Complex of the La Costa Metamorphic Suite", "age": "Cretaceous", "lith": "quartz schist, amphibolite, quartzite, and gneiss", "descrip": "", "t_int": "Cretaceous", "b_int": "Cretaceous", "color": "#8ee163", "ref_name": "Venezula" }, "geometry": { "type": "Polygon", "coordinates": [ [ [ -67.119352092475538, 10.50847421558662 ], [ -67.119352092475538, 10.561114258580282 ], [ -67.115049362182617, 10.564265889605906 ], [ -67.111701965332031, 10.567894029660094 ], [ -67.109556198120117, 10.565869026542144 ], [ -67.106294631958008, 10.569834645118792 ], [ -67.10474967956543, 10.571100257288574 ], [ -67.100887298583984, 10.573125225908091 ], [ -67.094621658325195, 10.575065808299874 ], [ -67.099943161010742, 10.565447149212167 ], [ -67.104063034057617, 10.560890837133741 ], [ -67.099342346191392, 10.557093858797344 ], [ -67.08526611328125, 10.547643398029987 ], [ -67.082090377807617, 10.549331001604608 ], [ -67.075910568237305, 10.551946768850845 ], [ -67.072992324829102, 10.553718727572878 ], [ -67.064666748046875, 10.560722083537049 ], [ -67.061920166015625, 10.562747120581102 ], [ -67.066984176635742, 10.565194022536071 ], [ -67.059345245361328, 10.572872105561151 ], [ -67.055997848510742, 10.576837633680185 ], [ -67.052907943725586, 10.5812249667757 ], [ -67.046213150024414, 10.58088748184225 ], [ -67.042007446289062, 10.576247026356789 ], [ -67.048788070678711, 10.558022013388603 ], [ -67.049732208251953, 10.556840725240665 ], [ -67.019863128662109, 10.541314802205127 ], [ -67.007417678833008, 10.535576762886071 ], [ -67.007675170898438, 10.535323611630597 ], [ -67.009477615356445, 10.533973468088359 ], [ -67.018489837646484, 10.530429313143795 ], [ -67.028617858886719, 10.524944231109171 ], [ -67.035999298095703, 10.519880991868908 ], [ -67.039604187011719, 10.516927397271568 ], [ -67.054967880249023, 10.527391433611859 ], [ -67.06080436706543, 10.521653135056438 ], [ -67.066469192504883, 10.515661562362236 ], [ -67.067842483520508, 10.514480111763294 ], [ -67.072734832763672, 10.511526465485131 ], [ -67.074365615844727, 10.510935732838989 ], [ -67.076425552368164, 10.510766951875389 ], [ -67.084579467773438, 10.511020123286196 ], [ -67.101230621337891, 10.512201587125508 ], [ -67.104921340942369, 10.512117197001185 ], [ -67.108612060546861, 10.511695246033607 ], [ -67.112302780151367, 10.510851342368721 ], [ -67.116765975952148, 10.509501091708152 ], [ -67.119352092475538, 10.50847421558662 ] ] ] } },
{ "type": "Feature", "properties": { "map_id": 2673698, "name": "Ávila Metamorphic Suite", "age": "Ordovician to Permian", "lith": "metagranite", "descrip": "", "t_int": "Permian", "b_int": "Ordovician", "color": "#99C08D", "ref_name": "Venezula" }, "geometry": { "type": "Polygon", "coordinates": [ [ [ -66.786403656005859, 10.555153162870035 ], [ -66.775331497192383, 10.552537422892508 ], [ -66.779108047485352, 10.544858831897749 ], [ -66.780996322631836, 10.544015019005032 ], [ -66.790781021118164, 10.541399184338598 ], [ -66.793098449707031, 10.545533880546362 ], [ -66.796875, 10.545248283221868 ], [ -66.796875, 10.545304211905393 ], [ -66.80760383605957, 10.5443525444397 ], [ -66.810522079467773, 10.547559017608288 ], [ -66.817216873168945, 10.551102975395217 ], [ -66.818246841430664, 10.551946768850845 ], [ -66.818761825561538, 10.552959317942088 ], [ -66.817388534545898, 10.556165701403915 ], [ -66.811208724975586, 10.562747120581102 ], [ -66.809835433959961, 10.563928386026994 ], [ -66.796875, 10.558639720208374 ], [ -66.796875, 10.558613915124498 ], [ -66.791810989379883, 10.556756347342123 ], [ -66.786403656005859, 10.555153162870035 ] ] ] } },
{ "type": "Feature", "properties": { "map_id": 2671381, "name": "Ávila Metamorphic Suite", "age": "Ordovician to Permian", "lith": "metagranite", "descrip": "", "t_int": "Permian", "b_int": "Ordovician", "color": "#99C08D", "ref_name": "Venezula" }, "geometry": { "type": "Polygon", "coordinates": [ [ [ -66.764001846313477, 10.543677493200267 ], [ -66.763830184936523, 10.549921660668863 ], [ -66.761941909790025, 10.554646892352734 ], [ -66.757478713989258, 10.55903454247383 ], [ -66.748981475830078, 10.564603392814043 ], [ -66.741170883178711, 10.567894029660094 ], [ -66.738853454589858, 10.569244024320936 ], [ -66.737651824951158, 10.57050963892523 ], [ -66.722209844646656, 10.559567548227793 ], [ -66.722209844646656, 10.53554921033099 ], [ -66.723318099975586, 10.535070460167107 ], [ -66.725807189941392, 10.532538934092374 ], [ -66.734390258789062, 10.53827703 ], [ -66.742200851440415, 10.543930637588536 ], [ -66.74357414245604, 10.541989858625369 ], [ -66.749582290649414, 10.538361412965868 ], [ -66.750440597534165, 10.538192647011 ], [ -66.756877899169922, 10.539036475860566 ], [ -66.761083602905273, 10.540555361963262 ], [ -66.763401031494141, 10.542664913565499 ], [ -66.764001846313477, 10.543677493200267 ] ] ] } },
{ "type": "Feature", "properties": { "map_id": 2673107, "name": "San Julián Complex of the Ávila Metamorphic Suite", "age": "Paleozoic", "lith": "schist and gneiss", "descrip": "", "t_int": "Paleozoic", "b_int": "Paleozoic", "color": "#99C08D", "ref_name": "Venezula" }, "geometry": { "type": "Polygon", "coordinates": [ [ [ -67.012996673583984, 10.579537538395249 ], [ -66.999435424804688, 10.582406161118362 ], [ -66.981496810913086, 10.585359127070149 ], [ -66.976776123046875, 10.579706281651013 ], [ -66.976003646850572, 10.578440704970296 ], [ -66.975574493408203, 10.577090750756501 ], [ -66.97514533996582, 10.574137705208528 ], [ -66.972656250000014, 10.573807053551993 ], [ -66.972656250000014, 10.57385357673911 ], [ -66.963300704956055, 10.572281490606594 ], [ -66.959009170532227, 10.572365864241103 ], [ -66.960382461547852, 10.573715839239227 ], [ -66.957035064697266, 10.584009203306527 ], [ -66.956262588500977, 10.590336919573902 ], [ -66.957206726074233, 10.593121073343578 ], [ -66.935234069824205, 10.59253049738529 ], [ -66.933002471923828, 10.592699233489538 ], [ -66.916437149047852, 10.596495771263557 ], [ -66.915407180786133, 10.594555324502448 ], [ -66.913518905639648, 10.594386589420528 ], [ -66.911630630493164, 10.594808426951049 ], [ -66.907081604003906, 10.597001972744584 ], [ -66.898927688598647, 10.595061529190515 ], [ -66.897039413452148, 10.596580138235165 ], [ -66.893177032470703, 10.599026770301185 ], [ -66.890430450439453, 10.602570133804502 ], [ -66.882791519165039, 10.604088705606861 ], [ -66.881332397460938, 10.604173070486063 ], [ -66.880817413330078, 10.602401403139147 ], [ -66.87652587890625, 10.600039164058455 ], [ -66.874723434448242, 10.597086339576743 ], [ -66.874980926513686, 10.594724059491419 ], [ -66.877985000610352, 10.592446129298319 ], [ -66.877470016479492, 10.590421288241632 ], [ -66.876697540283203, 10.589830707079731 ], [ -66.875324249267592, 10.589324493749388 ], [ -66.866312026977539, 10.587721479353993 ], [ -66.86305046081543, 10.586202826404167 ], [ -66.861333847045898, 10.585106016817191 ], [ -66.855154037475586, 10.577934472836178 ], [ -66.852664947509766, 10.569834645118792 ], [ -66.848287582397475, 10.565700275679683 ], [ -66.847600936889648, 10.565278398117945 ], [ -66.8463134765625, 10.564940895651393 ], [ -66.842193603515625, 10.564687768558141 ], [ -66.839876174926758, 10.564772144279067 ], [ -66.831808090209961, 10.566797154628496 ], [ -66.83017730712892, 10.567556530067611 ], [ -66.829061508178711, 10.569919019425747 ], [ -66.828203201293945, 10.579453166732556 ], [ -66.841506958007812, 10.587046523416243 ], [ -66.843910217285156, 10.586287196209863 ], [ -66.846742630004883, 10.58603408672311 ], [ -66.852149963378906, 10.586202826404167 ], [ -66.853609085083008, 10.586709044890057 ], [ -66.85489654541017, 10.587890218106207 ], [ -66.856098175048828, 10.590252550882942 ], [ -66.858329772949219, 10.592024288514969 ], [ -66.859703063964844, 10.593711648163406 ], [ -66.860904693603516, 10.596917605889185 ], [ -66.860818862915039, 10.598942404003642 ], [ -66.86553955078125, 10.602148306966717 ], [ -66.866912841796875, 10.599195502826534 ], [ -66.867427825927749, 10.594977161800598 ], [ -66.867599487304688, 10.594639692008553 ], [ -66.868114471435547, 10.594470956973106 ], [ -66.868972778320312, 10.594808426951049 ], [ -66.873950958251967, 10.60231703777159 ], [ -66.87678337097168, 10.604426164984124 ], [ -66.866397857666016, 10.604004340704405 ], [ -66.855239868164077, 10.604341800174694 ], [ -66.849746704101562, 10.604257435342006 ], [ -66.844167709350586, 10.604004340704405 ], [ -66.828975677490234, 10.602570133804502 ], [ -66.826400756835938, 10.602570133804502 ], [ -66.798677444458008, 10.605269811799225 ], [ -66.796875, 10.603009414927994 ], [ -66.796875, 10.603014968749122 ], [ -66.795673370361328, 10.601726479547613 ], [ -66.783056259155273, 10.603329420647519 ], [ -66.764259338378906, 10.606957098451463 ], [ -66.757907867431641, 10.607716374409259 ], [ -66.751642227172852, 10.608138193571566 ], [ -66.745462417602539, 10.606197820609383 ], [ -66.73945426940918, 10.605016717998909 ], [ -66.73344612121582, 10.604594894533211 ], [ -66.727180480957031, 10.605016717998909 ], [ -66.722209844646656, 10.60563603563242 ], [ -66.722209844646656, 10.579094958009266 ], [ -66.726322174072266, 10.575993908584495 ], [ -66.731729507446275, 10.570256516421709 ], [ -66.733531951904297, 10.567556530067611 ], [ -66.737651824951158, 10.57050963892523 ], [ -66.738853454589858, 10.569244024320936 ], [ -66.741170883178711, 10.567894029660094 ], [ -66.748981475830078, 10.564603392814043 ], [ -66.757478713989258, 10.55903454247383 ], [ -66.761941909790025, 10.554646892352734 ], [ -66.763830184936523, 10.549921660668863 ], [ -66.764001846313477, 10.543677493200267 ], [ -66.763401031494141, 10.542664913565499 ], [ -66.761083602905273, 10.540555361963262 ], [ -66.756877899169922, 10.539036475860566 ], [ -66.750440597534165, 10.538192647011 ], [ -66.749582290649414, 10.538361412965868 ], [ -66.74357414245604, 10.541989858625369 ], [ -66.742200851440415, 10.543930637588536 ], [ -66.734390258789062, 10.53827703 ], [ -66.725807189941392, 10.532538934092374 ], [ -66.723318099975586, 10.535070460167107 ], [ -66.722209844646656, 10.53554921033099 ], [ -66.722209844646656, 10.503899614217165 ], [ -66.744604110717773, 10.503171713060445 ], [ -66.758508682250977, 10.501399463805971 ], [ -66.762285232543931, 10.501737035876008 ], [ -66.784172058105469, 10.502749749873995 ], [ -66.790523529052734, 10.504015637704901 ], [ -66.796875, 10.504548749890061 ], [ -66.796875, 10.504518546805258 ], [ -66.813011169433594, 10.504437599162868 ], [ -66.816015243530273, 10.506969355809584 ], [ -66.823825836181641, 10.512539147392154 ], [ -66.84356689453125, 10.514564501241745 ], [ -66.852321624755859, 10.515155226944955 ], [ -66.865367889404297, 10.515408394757417 ], [ -66.878070831298828, 10.516336674959929 ], [ -66.881589889526367, 10.51675861958361 ], [ -66.884937286376953, 10.517433729781647 ], [ -66.892747879028335, 10.519543439631494 ], [ -66.900987625122085, 10.525281777436609 ], [ -66.925535202026367, 10.528572834764892 ], [ -66.93480491638185, 10.530682468420068 ], [ -66.937894821166992, 10.531104393418453 ], [ -66.956777572631836, 10.532032626381714 ], [ -66.972398757934556, 10.537939497905304 ], [ -66.972656250000014, 10.538054565706416 ], [ -66.972656250000014, 10.538114755000642 ], [ -66.974201202392578, 10.538698944598178 ], [ -66.97265625, 10.539925739146023 ], [ -66.97265625, 10.539895106351777 ], [ -66.963558197021484, 10.546799592771782 ], [ -66.961154937744155, 10.548065299791396 ], [ -66.952571868896484, 10.551609251746356 ], [ -66.945104598999023, 10.546462070020656 ], [ -66.931886672973647, 10.548318440570572 ], [ -66.930685043334961, 10.547390256695474 ], [ -66.902189254760742, 10.556587591475562 ], [ -66.907424926757812, 10.55886578785791 ], [ -66.910343170166016, 10.560384576065674 ], [ -66.919527053833008, 10.566037777311896 ], [ -66.926050186157227, 10.569665896435327 ], [ -66.943731307983413, 10.577850100732617 ], [ -66.943130493164062, 10.573125225908091 ], [ -66.942529678344727, 10.570172142207497 ], [ -66.938838958740234, 10.562578368003811 ], [ -66.938753128051758, 10.561397097367816 ], [ -66.940212249755859, 10.554478135328408 ], [ -66.944246292114258, 10.557515747595309 ], [ -66.947336196899414, 10.560300199139919 ], [ -66.950168609619141, 10.563253377756888 ], [ -66.955060958862305, 10.562325238964101 ], [ -66.965188980102539, 10.562578368003811 ], [ -66.967935562133789, 10.559287674223992 ], [ -66.968450546264648, 10.558022013388603 ], [ -66.971025466918945, 10.547474637163448 ], [ -66.971626281738281, 10.546715212118707 ], [ -66.972656250000014, 10.545955785199888 ], [ -66.972656250000014, 10.545968133620054 ], [ -66.979007720947251, 10.541399184338598 ], [ -66.988277435302734, 10.54789653915625 ], [ -66.987676620483398, 10.553381212412923 ], [ -66.991968154907227, 10.560384576065674 ], [ -67.001152038574219, 10.569328398790184 ], [ -67.001581192016602, 10.571353379096481 ], [ -67.00201034545897, 10.576753261275011 ], [ -67.00535774230957, 10.577175123068873 ], [ -67.008705139160156, 10.577934472836178 ], [ -67.012996673583984, 10.579537538395249 ] ], [ [ -66.809835433959961, 10.563928386026994 ], [ -66.811208724975586, 10.562747120581102 ], [ -66.817388534545898, 10.556165701403915 ], [ -66.818761825561538, 10.552959317942088 ], [ -66.818246841430664, 10.551946768850845 ], [ -66.817216873168945, 10.551102975395217 ], [ -66.810522079467773, 10.547559017608288 ], [ -66.80760383605957, 10.5443525444397 ], [ -66.796875, 10.545304211905393 ], [ -66.796875, 10.545248283221868 ], [ -66.793098449707031, 10.545533880546362 ], [ -66.790781021118164, 10.541399184338598 ], [ -66.780996322631836, 10.544015019005032 ], [ -66.779108047485352, 10.544858831897749 ], [ -66.775331497192383, 10.552537422892508 ], [ -66.786403656005859, 10.555153162870035 ], [ -66.791810989379883, 10.556756347342123 ], [ -66.796875, 10.558613915124498 ], [ -66.796875, 10.558639720208374 ], [ -66.809835433959961, 10.563928386026994 ] ] ] } },
{ "type": "Feature", "properties": { "map_id": 2671383, "name": "Ávila Metamorphic Suite", "age": "Paleozoic", "lith": "mafic to intermediate intrusive igneous rocks", "descrip": "", "t_int": "Paleozoic", "b_int": "Paleozoic", "color": "#85b07d", "ref_name": "Venezula" }, "geometry": { "type": "Polygon", "coordinates": [ [ [ -66.733531951904297, 10.567556530067611 ], [ -66.731729507446275, 10.570256516421709 ], [ -66.726322174072266, 10.575993908584495 ], [ -66.722209844646656, 10.579094958009266 ], [ -66.722209844646656, 10.559563672766133 ], [ -66.733531951904297, 10.567556530067611 ] ] ] } },
{ "type": "Feature", "properties": { "map_id": 2670425, "name": "Peña de Mora Augengneiss of the Ávila Metamorphic Suite", "age": "Middle Proterozoic", "lith": "augen gneiss", "descrip": "", "t_int": "Mesoproterozoic", "b_int": "Mesoproterozoic", "color": "#FF7EBF", "ref_name": "Venezula" }, "geometry": { "type": "Polygon", "coordinates": [ [ [ -66.87678337097168, 10.604426164984124 ], [ -66.873950958251967, 10.60231703777159 ], [ -66.868972778320312, 10.594808426951049 ], [ -66.868114471435547, 10.594470956973106 ], [ -66.867599487304688, 10.594639692008553 ], [ -66.867427825927749, 10.594977161800598 ], [ -66.866912841796875, 10.599195502826534 ], [ -66.86553955078125, 10.602148306966717 ], [ -66.860818862915039, 10.598942404003642 ], [ -66.860904693603516, 10.596917605889185 ], [ -66.859703063964844, 10.593711648163406 ], [ -66.858329772949219, 10.592024288514969 ], [ -66.856098175048828, 10.590252550882942 ], [ -66.85489654541017, 10.587890218106207 ], [ -66.853609085083008, 10.586709044890057 ], [ -66.852149963378906, 10.586202826404167 ], [ -66.846742630004883, 10.58603408672311 ], [ -66.843910217285156, 10.586287196209863 ], [ -66.841506958007812, 10.587046523416243 ], [ -66.828203201293945, 10.579453166732556 ], [ -66.829061508178711, 10.569919019425747 ], [ -66.83017730712892, 10.567556530067611 ], [ -66.831808090209961, 10.566797154628496 ], [ -66.839876174926758, 10.564772144279067 ], [ -66.842193603515625, 10.564687768558141 ], [ -66.8463134765625, 10.564940895651393 ], [ -66.847600936889648, 10.565278398117945 ], [ -66.848287582397475, 10.565700275679683 ], [ -66.852664947509766, 10.569834645118792 ], [ -66.855154037475586, 10.577934472836178 ], [ -66.861333847045898, 10.585106016817191 ], [ -66.86305046081543, 10.586202826404167 ], [ -66.866312026977539, 10.587721479353993 ], [ -66.875324249267592, 10.589324493749388 ], [ -66.876697540283203, 10.589830707079731 ], [ -66.877470016479492, 10.590421288241632 ], [ -66.877985000610352, 10.592446129298319 ], [ -66.874980926513686, 10.594724059491419 ], [ -66.874723434448242, 10.597086339576743 ], [ -66.87652587890625, 10.600039164058455 ], [ -66.880817413330078, 10.602401403139147 ], [ -66.881332397460938, 10.604173070486063 ], [ -66.87678337097168, 10.604426164984124 ] ] ] } },
{ "type": "Feature", "properties": { "map_id": 2671091, "name": "Tacagua Schist, Antímano Marble, undivided of the La Costa Metamorphic Suite", "age": "Cretaceous", "lith": "schist and marble", "descrip": "", "t_int": "Cretaceous", "b_int": "Cretaceous", "color": "#6cbf43", "ref_name": "Venezula" }, "geometry": { "type": "Polygon", "coordinates": [ [ [ -67.119352092475538, 10.561114258580282 ], [ -67.119352092475538, 10.577178018145881 ], [ -67.113590240478516, 10.579115679849739 ], [ -67.111444473266602, 10.580128139384327 ], [ -67.109212875366211, 10.581478080232094 ], [ -67.106466293334961, 10.582406161118362 ], [ -67.101230621337891, 10.583418609791108 ], [ -67.094535827636719, 10.58333423919605 ], [ -67.092390060424805, 10.584684165931257 ], [ -67.085866928100586, 10.587215262540013 ], [ -67.084493637084961, 10.588143326060356 ], [ -67.082004547119141, 10.590590025507414 ], [ -67.080974578857422, 10.591096236747255 ], [ -67.078485488891602, 10.591602447150832 ], [ -67.075824737548828, 10.591602447150832 ], [ -67.072305679321289, 10.592193024898005 ], [ -67.070932388305664, 10.592699233489538 ], [ -67.06904411315918, 10.593796015901871 ], [ -67.067070007324219, 10.594133486623376 ], [ -67.062950134277344, 10.594302221844716 ], [ -67.061491012573242, 10.592277393054674 ], [ -67.059774398803711, 10.590927499760223 ], [ -67.053337097167969, 10.587299632067063 ], [ -67.050075531005859, 10.592193024898005 ], [ -67.047843933105469, 10.594133486623376 ], [ -67.045698165893555, 10.594724059491419 ], [ -67.040376663208008, 10.595314631220839 ], [ -67.039003372192383, 10.595230263900634 ], [ -67.036600112915039, 10.594302221844716 ], [ -67.03557014465332, 10.594217854245665 ], [ -67.034454345703125, 10.595314631220839 ], [ -67.034540176391602, 10.5975925400816 ], [ -67.030935287475572, 10.59801437319646 ], [ -67.022953033447266, 10.59843620573022 ], [ -67.019004821777344, 10.597170706385658 ], [ -67.016515731811523, 10.595145896557193 ], [ -67.015914916992188, 10.594892794387441 ], [ -67.014627456665039, 10.594892794387441 ], [ -67.013425827026367, 10.595398998517803 ], [ -67.012052536010742, 10.597001972744584 ], [ -67.011451721191406, 10.600123530053784 ], [ -67.002696990966783, 10.601220285877382 ], [ -66.97265625, 10.602292529392299 ], [ -66.972656250000014, 10.602265120610769 ], [ -66.957721710205078, 10.601135920184294 ], [ -66.952314376831055, 10.601135920184294 ], [ -66.946907043457045, 10.601557748417209 ], [ -66.929998397827148, 10.604594894533211 ], [ -66.918497085571289, 10.606197820609383 ], [ -66.900987625122085, 10.608306921073634 ], [ -66.883907318115234, 10.611090911420778 ], [ -66.872577667236342, 10.612525078376304 ], [ -66.860990524291992, 10.613368702855203 ], [ -66.853523254394531, 10.613537427471673 ], [ -66.849575042724609, 10.609741101083657 ], [ -66.848459243774414, 10.609403647568604 ], [ -66.847515106201172, 10.609825464404251 ], [ -66.844167709350586, 10.613706151995039 ], [ -66.826229095458984, 10.614212325006479 ], [ -66.81447029113771, 10.615055944829956 ], [ -66.805286407470703, 10.615983923946963 ], [ -66.805543899536147, 10.616405731705257 ], [ -66.802883148193359, 10.616405731705257 ], [ -66.800222396850586, 10.616827538881488 ], [ -66.797733306884766, 10.616911900246883 ], [ -66.796875, 10.617099369864402 ], [ -66.796875, 10.617131239687945 ], [ -66.796274185180664, 10.61724934547563 ], [ -66.793785095214858, 10.617333706724606 ], [ -66.79112434387207, 10.617755512620219 ], [ -66.78863525390625, 10.617839873729485 ], [ -66.787176132202163, 10.618177317933693 ], [ -66.784687042236328, 10.61826167892653 ], [ -66.782026290893555, 10.618683483541412 ], [ -66.78013801574707, 10.618683483541412 ], [ -66.777563095092773, 10.619105287574113 ], [ -66.770610809326172, 10.619611451644838 ], [ -66.767950057983398, 10.620033254396658 ], [ -66.763658523559556, 10.620117614877151 ], [ -66.760997772216797, 10.620539416930264 ], [ -66.756534576416016, 10.620539416930264 ], [ -66.753787994384766, 10.620961218401094 ], [ -66.748380661010742, 10.620961218401094 ], [ -66.737480163574219, 10.621720459581166 ], [ -66.735420227050781, 10.619358369714277 ], [ -66.734476089477539, 10.619105287574113 ], [ -66.733531951904297, 10.619611451644838 ], [ -66.731386184692369, 10.622057899500017 ], [ -66.722209844646656, 10.622578231242933 ], [ -66.722209844646656, 10.605721065298356 ], [ -66.727867126464844, 10.605016717998909 ], [ -66.731042861938462, 10.606366549181567 ], [ -66.732673645019531, 10.606704006046796 ], [ -66.742372512817383, 10.608560012152243 ], [ -66.745033264160156, 10.608475648482639 ], [ -66.757907867431641, 10.607716374409259 ], [ -66.764259338378906, 10.606957098451463 ], [ -66.783056259155273, 10.603329420647519 ], [ -66.795673370361328, 10.601726479547613 ], [ -66.796875, 10.603014968749122 ], [ -66.796875, 10.603009414927994 ], [ -66.798677444458008, 10.605269811799225 ], [ -66.826400756835938, 10.602570133804502 ], [ -66.828975677490234, 10.602570133804502 ], [ -66.844167709350586, 10.604004340704405 ], [ -66.849746704101562, 10.604257435342006 ], [ -66.855239868164077, 10.604341800174694 ], [ -66.866397857666016, 10.604004340704405 ], [ -66.87678337097168, 10.604426164984124 ], [ -66.882791519165039, 10.604088705606861 ], [ -66.890430450439453, 10.602570133804502 ], [ -66.897983551025405, 10.601895210585011 ], [ -66.90648078918457, 10.599954798039878 ], [ -66.90673828125, 10.598689304971536 ], [ -66.933002471923828, 10.592699233489538 ], [ -66.935234069824205, 10.59253049738529 ], [ -66.957206726074233, 10.593121073343578 ], [ -66.963815689086914, 10.593121073343578 ], [ -66.9671630859375, 10.593374176977196 ], [ -66.967935562133789, 10.591180605205926 ], [ -66.968879699707031, 10.589324493749388 ], [ -66.97265625, 10.585865346949182 ], [ -66.973686218261719, 10.586877784199594 ], [ -66.981925964355455, 10.585274757009046 ], [ -66.999435424804688, 10.582406161118362 ], [ -67.012310028076172, 10.579621910034732 ], [ -67.020721435546875, 10.578693820724119 ], [ -67.029304504394531, 10.578609448829383 ], [ -67.033596038818345, 10.578356333005949 ], [ -67.037887573242188, 10.577765728605854 ], [ -67.042264938354492, 10.576668888846639 ], [ -67.046213150024414, 10.58088748184225 ], [ -67.052907943725586, 10.5812249667757 ], [ -67.055997848510742, 10.576837633680185 ], [ -67.059345245361328, 10.572872105561151 ], [ -67.066984176635742, 10.565194022536071 ], [ -67.061920166015625, 10.562747120581102 ], [ -67.064666748046875, 10.560722083537049 ], [ -67.072992324829102, 10.553718727572878 ], [ -67.075910568237305, 10.551946768850845 ], [ -67.082090377807617, 10.549331001604608 ], [ -67.08526611328125, 10.547643398029987 ], [ -67.099342346191392, 10.557093858797344 ], [ -67.104063034057617, 10.560890837133741 ], [ -67.099943161010742, 10.565447149212167 ], [ -67.094621658325195, 10.575065808299874 ], [ -67.100887298583984, 10.573125225908091 ], [ -67.10474967956543, 10.571100257288574 ], [ -67.106294631958008, 10.569834645118792 ], [ -67.109556198120117, 10.565869026542144 ], [ -67.111701965332031, 10.567894029660094 ], [ -67.115049362182617, 10.564265889605906 ], [ -67.119352092475538, 10.561114258580282 ] ] ] } },
{ "type": "Feature", "properties": { "map_id": 2675720, "name": "Ultramafic rocks", "age": "Mesozoic", "lith": "ultramafic rocks", "descrip": "", "t_int": "Mesozoic", "b_int": "Mesozoic", "color": "#76cdd2", "ref_name": "Venezula" }, "geometry": { "type": "Polygon", "coordinates": [ [ [ -66.742372512817383, 10.608560012152243 ], [ -66.731042861938462, 10.606366549181567 ], [ -66.727867126464844, 10.605016717998909 ], [ -66.73344612121582, 10.604594894533211 ], [ -66.73945426940918, 10.605016717998909 ], [ -66.745462417602539, 10.606197820609383 ], [ -66.751642227172852, 10.608138193571566 ], [ -66.742372512817383, 10.608560012152243 ] ] ] } },
{ "type": "Feature", "properties": { "map_id": 2672571, "name": "Alluvium", "age": "Pleistocene to Holocene", "lith": "sand, gravel, and silt", "descrip": "", "t_int": "Holocene", "b_int": "Pleistocene", "color": "#d6e165", "ref_name": "Venezula" }, "geometry": { "type": "Polygon", "coordinates": [ [ [ -66.843996047973633, 10.625685355086338 ], [ -66.841163635253906, 10.624335609202978 ], [ -66.839532852172852, 10.623238936280821 ], [ -66.834554672241211, 10.620539416930264 ], [ -66.825885772705078, 10.618177317933693 ], [ -66.822710037231445, 10.617418067950297 ], [ -66.818332672119141, 10.616827538881488 ], [ -66.816530227661133, 10.616827538881488 ], [ -66.813783645629897, 10.616405731705257 ], [ -66.805543899536147, 10.616405731705257 ], [ -66.805286407470703, 10.615983923946963 ], [ -66.81447029113771, 10.615055944829956 ], [ -66.826229095458984, 10.614212325006479 ], [ -66.844167709350586, 10.613706151995039 ], [ -66.847515106201172, 10.609825464404251 ], [ -66.848459243774414, 10.609403647568604 ], [ -66.849575042724609, 10.609741101083657 ], [ -66.853523254394531, 10.613537427471673 ], [ -66.860990524291992, 10.613368702855203 ], [ -66.872577667236342, 10.612525078376304 ], [ -66.883049011230469, 10.611175274369046 ], [ -66.886482238769545, 10.616237008671789 ], [ -66.876354217529297, 10.616321370200165 ], [ -66.87352180480957, 10.616743177492808 ], [ -66.868114471435547, 10.616827538881488 ], [ -66.861591339111328, 10.620033254396658 ], [ -66.856355667114258, 10.622901497666509 ], [ -66.847257614135742, 10.625179201079098 ], [ -66.843996047973633, 10.625685355086338 ] ] ] } },
{ "type": "Feature", "properties": { "map_id": 2670867, "name": "Alluvium", "age": "Pleistocene to Holocene", "lith": "sand, gravel, and silt", "descrip": "", "t_int": "Holocene", "b_int": "Pleistocene", "color": "#d6e165", "ref_name": "Venezula" }, "geometry": { "type": "Polygon", "coordinates": [ [ [ -66.7474365234375, 10.62112993882638 ], [ -66.746234893798828, 10.621973539555244 ], [ -66.742544174194322, 10.626866377840882 ], [ -66.739797592163086, 10.628216112538693 ], [ -66.737995147705064, 10.62863790340816 ], [ -66.735506057739258, 10.62863790340816 ], [ -66.728124618530273, 10.626275867034538 ], [ -66.726322174072266, 10.625347919174715 ], [ -66.724691390991211, 10.623829452958935 ], [ -66.723661422729492, 10.623407655448197 ], [ -66.722288131713867, 10.623829452958935 ], [ -66.722209844646656, 10.623873555368943 ], [ -66.722209844646656, 10.622578231242933 ], [ -66.731386184692369, 10.622057899500017 ], [ -66.733531951904297, 10.619611451644838 ], [ -66.734476089477539, 10.619105287574113 ], [ -66.735420227050781, 10.619358369714277 ], [ -66.737480163574219, 10.621720459581166 ], [ -66.7474365234375, 10.62112993882638 ] ] ] } },
{ "type": "Feature", "properties": { "map_id": 2672054, "name": "Ultramafic rocks", "age": "Mesozoic", "lith": "ultramafic rocks", "descrip": "", "t_int": "Mesozoic", "b_int": "Mesozoic", "color": "#76cdd2", "ref_name": "Venezula" }, "geometry": { "type": "Polygon", "coordinates": [ [ [ -67.048788070678711, 10.558022013388603 ], [ -67.046298980712891, 10.557937635814289 ], [ -67.041149139404297, 10.556587591475562 ], [ -67.029991149902344, 10.554731270830167 ], [ -67.027158737182617, 10.553971863699758 ], [ -67.023468017578125, 10.552199906436158 ], [ -67.020635604858398, 10.549584141342432 ], [ -67.019262313842773, 10.546208927714384 ], [ -67.019863128662109, 10.541314802205127 ], [ -67.049732208251953, 10.556840725240665 ], [ -67.048788070678711, 10.558022013388603 ] ] ] } },
{ "type": "Feature", "properties": { "map_id": 2676738, "name": "Ultramafic rocks", "age": "Mesozoic", "lith": "ultramafic rocks", "descrip": "", "t_int": "Mesozoic", "b_int": "Mesozoic", "color": "#76cdd2", "ref_name": "Venezula" }, "geometry": { "type": "Polygon", "coordinates": [ [ [ -66.979007720947251, 10.541399184338598 ], [ -66.97265625, 10.545968133620059 ], [ -66.97265625, 10.545955785199896 ], [ -66.971626281738281, 10.546715212118707 ], [ -66.971025466918945, 10.547474637163448 ], [ -66.968450546264648, 10.558022013388603 ], [ -66.967935562133789, 10.559287674223992 ], [ -66.965188980102539, 10.562578368003811 ], [ -66.955060958862305, 10.562325238964101 ], [ -66.950168609619141, 10.563253377756888 ], [ -66.947336196899414, 10.560300199139919 ], [ -66.943130493164062, 10.556671969420421 ], [ -66.952486038208008, 10.551609251746356 ], [ -66.962442398071303, 10.547474637163448 ], [ -66.972656250000014, 10.539884288974646 ], [ -66.972656250000014, 10.539925739146017 ], [ -66.974201202392578, 10.538698944598178 ], [ -66.979007720947251, 10.541399184338598 ] ] ] } },
{ "type": "Feature", "properties": { "map_id": 2670896, "name": "Tacagua Schist, Antímano Marble, undivided of the La Costa Metamorphic Suite", "age": "Cretaceous", "lith": "schist and marble", "descrip": "", "t_int": "Cretaceous", "b_int": "Cretaceous", "color": "#6cbf43", "ref_name": "Venezula" }, "geometry": { "type": "Polygon", "coordinates": [ [ [ -66.963729858398438, 10.530007387221294 ], [ -66.965618133544922, 10.52966984606746 ], [ -66.97265625, 10.529823614861156 ], [ -66.97265625, 10.529790722333953 ], [ -66.97514533996582, 10.529923001967489 ], [ -66.978921890258803, 10.530429313143795 ], [ -66.987247467041016, 10.5319482416824 ], [ -66.987161636352539, 10.532117011057924 ], [ -66.990165710449205, 10.535154844011384 ], [ -66.99153900146483, 10.537855114823834 ], [ -66.995830535888672, 10.544015019005032 ], [ -66.997289657592773, 10.545702642477176 ], [ -66.999263763427734, 10.54663083144249 ], [ -67.001152038574219, 10.546040166061188 ], [ -67.005701065063477, 10.541652330600257 ], [ -67.008962631225572, 10.538952093079649 ], [ -67.01085090637207, 10.537095666050314 ], [ -67.019863128662109, 10.541314802205127 ], [ -67.019262313842773, 10.546208927714384 ], [ -67.020635604858398, 10.549584141342432 ], [ -67.023468017578125, 10.552199906436158 ], [ -67.027158737182617, 10.553971863699758 ], [ -67.029991149902344, 10.554731270830167 ], [ -67.03282356262207, 10.555321919523898 ], [ -67.03857421875, 10.556081323320115 ], [ -67.046298980712891, 10.557937635814289 ], [ -67.048788070678711, 10.558022013388603 ], [ -67.042007446289062, 10.576162653789224 ], [ -67.039175033569322, 10.572450237852422 ], [ -67.030849456787109, 10.571437752986071 ], [ -67.01934814453125, 10.569159649828505 ], [ -67.017374038696289, 10.568653402387069 ], [ -67.014799118041992, 10.567219030104244 ], [ -66.98089599609375, 10.542580531778929 ], [ -66.97540283203125, 10.539289624064592 ], [ -66.97265625, 10.538142017206507 ], [ -66.97265625, 10.53809908242622 ], [ -66.956777572631836, 10.532032626381714 ], [ -66.958236694335938, 10.531863856959978 ], [ -66.963729858398438, 10.530007387221294 ] ] ] } },
{ "type": "Feature", "properties": { "map_id": 2676059, "name": "Nirgua Complex of the La Costa Metamorphic Suite", "age": "Cretaceous", "lith": "quartz schist, amphibolite, quartzite, and gneiss", "descrip": "", "t_int": "Cretaceous", "b_int": "Cretaceous", "color": "#8ee163", "ref_name": "Venezula" }, "geometry": { "type": "Polygon", "coordinates": [ [ [ -66.943731307983413, 10.577850100732617 ], [ -66.926050186157227, 10.569665896435327 ], [ -66.919527053833008, 10.566037777311896 ], [ -66.910343170166016, 10.560384576065674 ], [ -66.907424926757812, 10.55886578785791 ], [ -66.902189254760742, 10.556587591475562 ], [ -66.930170059204102, 10.547474637163448 ], [ -66.930685043334961, 10.547390256695474 ], [ -66.931886672973647, 10.548318440570572 ], [ -66.945104598999023, 10.546462070020656 ], [ -66.952486038208008, 10.551609251746356 ], [ -66.943130493164062, 10.556671969420421 ], [ -66.940212249755859, 10.554478135328408 ], [ -66.938753128051758, 10.561397097367816 ], [ -66.938838958740234, 10.562578368003811 ], [ -66.942529678344727, 10.570172142207497 ], [ -66.943130493164062, 10.573125225908091 ], [ -66.943731307983413, 10.577850100732617 ] ] ] } },
{ "type": "Feature", "properties": { "map_id": 2675930, "name": "Peña de Mora Augengneiss of the Ávila Metamorphic Suite", "age": "Middle Proterozoic", "lith": "augen gneiss", "descrip": "", "t_int": "Mesoproterozoic", "b_int": "Mesoproterozoic", "color": "#FF7EBF", "ref_name": "Venezula" }, "geometry": { "type": "Polygon", "coordinates": [ [ [ -67.012996673583984, 10.579537538395249 ], [ -67.008705139160156, 10.577934472836178 ], [ -67.00535774230957, 10.577175123068873 ], [ -67.00201034545897, 10.576753261275011 ], [ -67.001581192016602, 10.571353379096481 ], [ -67.001152038574219, 10.569328398790184 ], [ -66.991968154907227, 10.560384576065674 ], [ -66.987676620483398, 10.553381212412923 ], [ -66.988277435302734, 10.54789653915625 ], [ -67.015743255615234, 10.567809654796744 ], [ -67.015056610107422, 10.569919019425747 ], [ -67.017374038696289, 10.57472831659139 ], [ -67.016515731811523, 10.579031308071023 ], [ -67.012996673583984, 10.579537538395249 ] ] ] } },
{ "type": "Feature", "properties": { "map_id": 2674168, "name": "San Julián Complex of the Ávila Metamorphic Suite", "age": "Paleozoic", "lith": "schist and gneiss", "descrip": "", "t_int": "Paleozoic", "b_int": "Paleozoic", "color": "#99C08D", "ref_name": "Venezula" }, "geometry": { "type": "Polygon", "coordinates": [ [ [ -67.016515731811523, 10.579031308071023 ], [ -67.017374038696289, 10.57472831659139 ], [ -67.015056610107422, 10.569919019425747 ], [ -67.015743255615234, 10.567809654796744 ], [ -67.017374038696289, 10.568653402387069 ], [ -67.021322250366211, 10.569581522058819 ], [ -67.030849456787109, 10.571437752986071 ], [ -67.039175033569322, 10.572450237852422 ], [ -67.042264938354492, 10.576668888846639 ], [ -67.037887573242188, 10.577765728605854 ], [ -67.033596038818345, 10.578356333005949 ], [ -67.029304504394531, 10.578609448829383 ], [ -67.020721435546875, 10.578693820724119 ], [ -67.016515731811523, 10.579031308071023 ] ] ] } },
{ "type": "Feature", "properties": { "map_id": 2676732, "name": "Ultramafic rocks", "age": "Mesozoic", "lith": "ultramafic rocks", "descrip": "", "t_int": "Mesozoic", "b_int": "Mesozoic", "color": "#76cdd2", "ref_name": "Venezula" }, "geometry": { "type": "Polygon", "coordinates": [ [ [ -66.97265625, 10.573807053551992 ], [ -66.97514533996582, 10.574137705208528 ], [ -66.975574493408203, 10.577090750756501 ], [ -66.976003646850572, 10.578440704970296 ], [ -66.976776123046875, 10.579706281651013 ], [ -66.981496810913086, 10.585359127070149 ], [ -66.973686218261719, 10.586877784199594 ], [ -66.97265625, 10.585865346949184 ], [ -66.968879699707031, 10.589324493749388 ], [ -66.968364715576186, 10.590168182168755 ], [ -66.9671630859375, 10.593374176977196 ], [ -66.963815689086914, 10.593121073343578 ], [ -66.957206726074233, 10.593121073343578 ], [ -66.956262588500977, 10.590336919573902 ], [ -66.957035064697266, 10.584009203306527 ], [ -66.960382461547852, 10.573715839239227 ], [ -66.959009170532227, 10.572365864241103 ], [ -66.963300704956055, 10.572281490606594 ], [ -66.97265625, 10.573853576739108 ], [ -66.97265625, 10.573807053551992 ] ] ] } },
{ "type": "Feature", "properties": { "map_id": 2670418, "name": "Peña de Mora Augengneiss of the Ávila Metamorphic Suite", "age": "Middle Proterozoic", "lith": "augen gneiss", "descrip": "", "t_int": "Mesoproterozoic", "b_int": "Mesoproterozoic", "color": "#FF7EBF", "ref_name": "Venezula" }, "geometry": { "type": "Polygon", "coordinates": [ [ [ -66.890430450439453, 10.602570133804502 ], [ -66.893177032470703, 10.599026770301185 ], [ -66.897039413452148, 10.596580138235165 ], [ -66.898927688598647, 10.595061529190515 ], [ -66.907081604003906, 10.597001972744584 ], [ -66.911630630493164, 10.594808426951049 ], [ -66.913518905639648, 10.594386589420528 ], [ -66.915407180786133, 10.594555324502448 ], [ -66.916437149047852, 10.596495771263557 ], [ -66.90673828125, 10.598689304971536 ], [ -66.90648078918457, 10.599954798039878 ], [ -66.897983551025405, 10.601895210585011 ], [ -66.890430450439453, 10.602570133804502 ] ] ] } },
{ "type": "Feature", "properties": { "map_id": 2674460, "name": "Sediments, undivided", "age": "Pleistocene", "lith": "sand, gravel, silt, and clay", "descrip": "", "t_int": "Pleistocene", "b_int": "Pleistocene", "color": "#ffffc6", "ref_name": "Venezula" }, "geometry": { "type": "Polygon", "coordinates": [ [ [ -67.061233520507812, 10.594808426951049 ], [ -67.059173583984375, 10.596327037250619 ], [ -67.055139541625977, 10.598689304971536 ], [ -67.049131393432617, 10.601220285877382 ], [ -67.047414779663086, 10.60231703777159 ], [ -67.044153213500977, 10.603919975778689 ], [ -67.041921615600586, 10.605354176352812 ], [ -67.037115097045898, 10.609572374372668 ], [ -67.032995223999023, 10.612693803458283 ], [ -67.025184631347656, 10.616911900246883 ], [ -67.021579742431641, 10.61809295691757 ], [ -67.017717361450195, 10.61826167892653 ], [ -67.014970779418945, 10.617839873729485 ], [ -67.012481689453125, 10.617755512620219 ], [ -67.005271911621094, 10.616237008671789 ], [ -67.001066207885742, 10.615899562325458 ], [ -66.997203826904297, 10.614971582952364 ], [ -66.994714736938477, 10.615309030323052 ], [ -66.98939323425293, 10.617755512620219 ], [ -66.987590789794922, 10.617839873729485 ], [ -66.979351043701172, 10.614887221051491 ], [ -66.97265625, 10.612974357748961 ], [ -66.97265625, 10.612965230568728 ], [ -66.971368789672852, 10.612525078376304 ], [ -66.964845657348633, 10.608138193571566 ], [ -66.963729858398438, 10.607463282632702 ], [ -66.962871551513672, 10.60721019064677 ], [ -66.959095001220717, 10.607125826604928 ], [ -66.956949234008789, 10.607547646581486 ], [ -66.954975128173828, 10.607632010507006 ], [ -66.950340270996094, 10.607547646581486 ], [ -66.941843032836914, 10.604679259272869 ], [ -66.936607360839844, 10.607125826604928 ], [ -66.929397583007812, 10.608813103021454 ], [ -66.923389434814453, 10.609909827701575 ], [ -66.918239593505859, 10.610331643839155 ], [ -66.916179656982422, 10.60999419097563 ], [ -66.913175582885742, 10.609909827701575 ], [ -66.910429000854506, 10.60948801098227 ], [ -66.909141540527344, 10.60948801098227 ], [ -66.903390884399414, 10.610416006996861 ], [ -66.899785995483398, 10.611428363074227 ], [ -66.888628005981445, 10.615730839012604 ], [ -66.886482238769545, 10.616237008671789 ], [ -66.883049011230469, 10.611175274369046 ], [ -66.900987625122085, 10.608306921073634 ], [ -66.918497085571289, 10.606197820609383 ], [ -66.929998397827148, 10.604594894533211 ], [ -66.946907043457045, 10.601557748417209 ], [ -66.952314376831055, 10.601135920184294 ], [ -66.957721710205078, 10.601135920184294 ], [ -66.972656250000014, 10.602265120610769 ], [ -66.972656250000014, 10.602292529392299 ], [ -67.002696990966783, 10.601220285877382 ], [ -67.011451721191406, 10.600123530053784 ], [ -67.012052536010742, 10.597001972744584 ], [ -67.013425827026367, 10.595398998517803 ], [ -67.014627456665039, 10.594892794387441 ], [ -67.015914916992188, 10.594892794387441 ], [ -67.016515731811523, 10.595145896557193 ], [ -67.019004821777344, 10.597170706385658 ], [ -67.022953033447266, 10.59843620573022 ], [ -67.030935287475572, 10.59801437319646 ], [ -67.034540176391602, 10.5975925400816 ], [ -67.034454345703125, 10.595314631220839 ], [ -67.03557014465332, 10.594217854245665 ], [ -67.036600112915039, 10.594302221844716 ], [ -67.039003372192383, 10.595230263900634 ], [ -67.040376663208008, 10.595314631220839 ], [ -67.045698165893555, 10.594724059491419 ], [ -67.047843933105469, 10.594133486623376 ], [ -67.050075531005859, 10.592193024898005 ], [ -67.053337097167969, 10.587299632067063 ], [ -67.059774398803711, 10.590927499760223 ], [ -67.061491012573242, 10.592277393054674 ], [ -67.062950134277344, 10.594302221844716 ], [ -67.063722610473633, 10.594302221844716 ], [ -67.062435150146484, 10.594386589420528 ], [ -67.061233520507812, 10.594808426951049 ] ] ] } }
]
}
