<?xml version="1.0" encoding="utf-8" ?>
<kml xmlns="http://www.opengis.net/kml/2.2">
<Document id="root_doc">
<Folder><name>area_to_check</name>
  <Placemark id="area_to_check.1">
	<Style><LineStyle><color>ff0000ff</color></LineStyle><PolyStyle><fill>0</fill></PolyStyle></Style>
      <Polygon><outerBoundaryIs><LinearRing><coordinates>-67.693409069225,10.4588254961966 -67.7226908015311,10.428002620085 -67.7357905238785,10.3848505935286 -67.7357905238785,10.3571100050282 -67.7172967982115,10.3386162793612 -67.7034265039613,10.3363045636528 -67.6726036278497,10.3370751355556 -67.637927892224,10.3609628645421 -67.6255987417794,10.3779154464035 -67.623287026071,10.4002620315845 -67.623287026071,10.428002620085 -67.627139885585,10.4472669176547 -67.6479453269603,10.4649900714189 -67.693409069225,10.4588254961966</coordinates></LinearRing></outerBoundaryIs></Polygon>
  </Placemark>
  <Placemark id="area_to_check.2">
	<Style><LineStyle><color>ff0000ff</color></LineStyle><PolyStyle><fill>0</fill></PolyStyle></Style>
      <Polygon><outerBoundaryIs><LinearRing><coordinates>-68.0106764491201,10.4358736460274 -68.0586189355033,10.4348952279379 -68.0781872972924,10.4270678832223 -68.0850362239186,10.3967369224493 -68.0840578058291,10.3527081084239 -68.0772088792029,10.3204203114719 -68.0312232289986,10.2949814411461 -67.9568634542002,10.2959598592356 -67.9284893296061,10.3067224582196 -67.9245756572482,10.3380318370821 -67.9333814200533,10.3830390691969 -67.9509929456635,10.4251110470434 -67.9695828893631,10.4368520641168 -68.0106764491201,10.4358736460274</coordinates></LinearRing></outerBoundaryIs></Polygon>
  </Placemark>
  <Placemark id="area_to_check.3">
	<Style><LineStyle><color>ff0000ff</color></LineStyle><PolyStyle><fill>0</fill></PolyStyle></Style>
      <Polygon><outerBoundaryIs><LinearRing><coordinates>-68.3482306899815,10.4505499173692 -68.3531227804287,10.4153268661489 -68.3452954357131,10.3654275435868 -68.3374680909975,10.3478160179766 -68.3208349834768,10.3370534189926 -68.2934392769721,10.3487944360661 -68.2503888810362,10.3722764702129 -68.2288636830682,10.4045642671649 -68.2171226659947,10.4309815555801 -68.2259284287998,10.4583772620848 -68.2777845875408,10.4632693525321 -68.3482306899815,10.4505499173692</coordinates></LinearRing></outerBoundaryIs></Polygon>
  </Placemark>
  <Placemark id="area_to_check.4">
	<Style><LineStyle><color>ff0000ff</color></LineStyle><PolyStyle><fill>0</fill></PolyStyle></Style>
      <Polygon><outerBoundaryIs><LinearRing><coordinates>-68.6495834615331,10.5200176017204 -68.6789360042167,10.4994708218418 -68.7239432363315,10.4730535334266 -68.7493821066573,10.4476146631008 -68.7689504684463,10.4143484480594 -68.7689504684463,10.3957585043598 -68.7601447056413,10.3849959053758 -68.7395979257628,10.3830390691969 -68.7131806373475,10.3928232500914 -68.6808928403956,10.4182621204172 -68.6554539700698,10.4358736460274 -68.6329503540124,10.4593556801743 -68.6221877550284,10.4808808781422 -68.6163172464916,10.5092550027364 -68.6495834615331,10.5200176017204</coordinates></LinearRing></outerBoundaryIs></Polygon>
  </Placemark>
  <Placemark id="area_to_check.5">
	<Style><LineStyle><color>ff0000ff</color></LineStyle><PolyStyle><fill>0</fill></PolyStyle></Style>
      <Polygon><outerBoundaryIs><LinearRing><coordinates>-67.5459473145547,10.5281870377916 -67.5875977916763,10.5139880115002 -67.6017968179677,10.4978957817032 -67.5942240039456,10.4751773396369 -67.548787119813,10.4458326853013 -67.5090298461969,10.4439394817957 -67.4503405375256,10.446779287054 -67.408690060404,10.4723375343786 -67.3982774411236,10.4969491799505 -67.3982774411236,10.5196676220168 -67.4228890866955,10.5376530553193 -67.4749521830975,10.5404928605776 -67.5459473145547,10.5281870377916</coordinates></LinearRing></outerBoundaryIs></Polygon>
  </Placemark>
  <Placemark id="area_to_check.6">
	<Style><LineStyle><color>ff0000ff</color></LineStyle><PolyStyle><fill>0</fill></PolyStyle></Style>
      <Polygon><outerBoundaryIs><LinearRing><coordinates>-67.28447030871,10.5366902267515 -67.3328073401017,10.5075781510269 -67.3481873046354,10.4910996175979 -67.3547787180071,10.4641846796638 -67.3520322957689,10.4048619593194 -67.3487365890831,10.3779470213854 -67.3251173578348,10.3565249279276 -67.3058924021677,10.3598206346134 -67.2943574287674,10.3741020302519 -67.2855688776052,10.4021155370812 -67.2828224553671,10.4436720571768 -67.2817418957979,10.4701457666201 -67.2444625906635,10.5025625536936 -67.2185291610047,10.5214723461531 -67.2201500003584,10.5393015790435 -67.2536473470009,10.5420029779663 -67.2801210564443,10.5425432577508 -67.28447030871,10.5366902267515</coordinates></LinearRing></outerBoundaryIs></Polygon>
  </Placemark>
</Folder>
</Document></kml>
